<?xml version="1.0" encoding="UTF-8"?>
<kml xmlns="http://www.opengis.net/kml/2.2" xmlns:gx="http://www.google.com/kml/ext/2.2" xmlns:kml="http://www.opengis.net/kml/2.2" xmlns:atom="http://www.w3.org/2005/Atom">
<Document>
	<name>Caldarola_AR.kml</name>
	<StyleMap id="__managed_style_00A24A0B8A34EC26BE27">
		<Pair>
			<key>normal</key>
			<styleUrl>#__managed_style_135EEFCE6834EC26BE27</styleUrl>
		</Pair>
		<Pair>
			<key>highlight</key>
			<styleUrl>#__managed_style_0428D106DD34EC26BE28</styleUrl>
		</Pair>
	</StyleMap>
	<StyleMap id="__managed_style_0D13349F4A34EC26BE5E">
		<Pair>
			<key>normal</key>
			<styleUrl>#failed2</styleUrl>
		</Pair>
		<Pair>
			<key>highlight</key>
			<styleUrl>#failed10</styleUrl>
		</Pair>
	</StyleMap>
	<Style id="failed10">
		<LineStyle>
			<color>ffff0000</color>
			<width>3</width>
		</LineStyle>
	</Style>
	<Style id="failed2">
		<LineStyle>
			<color>ffff0000</color>
			<width>3</width>
		</LineStyle>
	</Style>
	<StyleMap id="m_ylw-pushpin">
		<Pair>
			<key>normal</key>
			<styleUrl>#s_ylw-pushpin</styleUrl>
		</Pair>
		<Pair>
			<key>highlight</key>
			<styleUrl>#s_ylw-pushpin_hl</styleUrl>
		</Pair>
	</StyleMap>
	<Style id="s_ylw-pushpin">
		<IconStyle>
			<color>ff0701fc</color>
			<scale>1.1</scale>
			<Icon>
				<href>http://maps.google.com/mapfiles/kml/pushpin/ylw-pushpin.png</href>
			</Icon>
			<hotSpot x="20" y="2" xunits="pixels" yunits="pixels"/>
		</IconStyle>
	</Style>
	<Style id="s_ylw-pushpin_hl">
		<IconStyle>
			<color>ff0701fc</color>
			<scale>1.3</scale>
			<Icon>
				<href>http://maps.google.com/mapfiles/kml/pushpin/ylw-pushpin.png</href>
			</Icon>
			<hotSpot x="20" y="2" xunits="pixels" yunits="pixels"/>
		</IconStyle>
	</Style>
	<Folder id="51AC1F459000002D">
		<name>Percorso AR</name>
		<open>1</open>
		<styleUrl>#__managed_style_00A24A0B8A34EC26BE27</styleUrl>
		<Placemark id="51AC1F459000002E">
			<name>AR Nel cuore della piccola Urbe</name>
			<LookAt>
				<longitude>13.22565557828509</longitude>
				<latitude>43.13834866193738</latitude>
				<altitude>317.8276695772408</altitude>
				<heading>9.012900918496426</heading>
				<tilt>6.318612048655713</tilt>
				<range>753.0680626733374</range>
				<altitudeMode>absolute</altitudeMode>
				<gx:fovy>35</gx:fovy>
			</LookAt>
			<styleUrl>#__managed_style_0D13349F4A34EC26BE5E</styleUrl>
			<LineString>
				<coordinates>
					13.22625871087092,43.13826775203636,0 13.22619027294214,43.13838740544508,0 13.22472163823357,43.13803133489949,0 13.22359198368483,43.13773744925857,0 13.22338201738004,43.13770101446951,0 13.22330289248093,43.13764255710169,0 13.22273922148148,43.13751512447372,0 13.22261801083959,43.13743043343841,0 13.22258462387778,43.13722096208761,0 13.22269969978468,43.13706482848464,0 13.22395352404896,43.13672834614887,0 13.22416643171433,43.13684885969992,0 13.22411887999695,43.13688572192063,0 13.22394332532247,43.13677111117067,0 13.22384046094284,43.13683014521225,0 13.22381652151628,43.13714958088973,0 13.22391562234422,43.13734204983535,0 13.22417960685585,43.13747137833878,0 13.22448501481042,43.13763331603432,0 13.22433395101526,43.13771930606102,0 13.22407017681576,43.13768204945031,0 13.2238019700834,43.13762620865587,0 13.22415609321769,43.13773939663829,0 13.22432285007654,43.1377953636188,0 13.22462242534025,43.13772368701053,0 13.22489356061013,43.13768469761058,0 13.22508814785592,43.13750176133914,0 13.22512824170514,43.13752800463005,0 13.22495463739488,43.1377232838411,0 13.22520653175968,43.13778242253915,0 13.22553439616261,43.13786144748156,0 13.2260959215194,43.13800407130856,0 13.22641893120942,43.13802318686318,0 
				</coordinates>
			</LineString>
		</Placemark>
		<Placemark>
			<name>1</name>
			<description>Gira a Sinistra;Turn left</description>
			<LookAt>
				<gx:TimeStamp><when>2022-04-30</when>
</gx:TimeStamp>
				<gx:ViewerOptions>
					<gx:option name="historicalimagery"></gx:option>
					<gx:option enabled="0" name="sunlight"></gx:option>
					<gx:option enabled="0" name="streetview"></gx:option>
				</gx:ViewerOptions>
				<longitude>13.22563599383243</longitude>
				<latitude>43.13766389522835</latitude>
				<altitude>0</altitude>
				<heading>-0.5472681602954873</heading>
				<tilt>14.82067640893532</tilt>
				<range>257.5931725038641</range>
				<gx:altitudeMode>relativeToSeaFloor</gx:altitudeMode>
			</LookAt>
			<styleUrl>#m_ylw-pushpin</styleUrl>
			<Point>
				<gx:drawOrder>1</gx:drawOrder>
				<coordinates>13.22619688170607,43.13840292727888,0</coordinates>
			</Point>
		</Placemark>
		<Placemark>
			<name>2</name>
			<description>All&apos;incrocio gira a sinistra;At the crossroads turn left</description>
			<LookAt>
				<gx:TimeStamp><when>2022-04-30</when>
</gx:TimeStamp>
				<gx:ViewerOptions>
					<gx:option name="historicalimagery"></gx:option>
					<gx:option enabled="0" name="sunlight"></gx:option>
					<gx:option enabled="0" name="streetview"></gx:option>
				</gx:ViewerOptions>
				<longitude>13.22367953654881</longitude>
				<latitude>43.13802686450796</latitude>
				<altitude>0</altitude>
				<heading>-0.5486319483366922</heading>
				<tilt>11.98217424236809</tilt>
				<range>323.7326523721447</range>
				<gx:altitudeMode>relativeToSeaFloor</gx:altitudeMode>
			</LookAt>
			<styleUrl>#m_ylw-pushpin</styleUrl>
			<Point>
				<gx:drawOrder>1</gx:drawOrder>
				<coordinates>13.22337761858632,43.13771205833557,0</coordinates>
			</Point>
		</Placemark>
		<Placemark>
			<name>3</name>
			<description>Entra nella piazza;Enter the square</description>
			<LookAt>
				<gx:TimeStamp><when>2022-04-30</when>
</gx:TimeStamp>
				<gx:ViewerOptions>
					<gx:option name="historicalimagery"></gx:option>
					<gx:option enabled="0" name="sunlight"></gx:option>
					<gx:option enabled="0" name="streetview"></gx:option>
				</gx:ViewerOptions>
				<longitude>13.2239152966865</longitude>
				<latitude>43.13723916712198</latitude>
				<altitude>0</altitude>
				<heading>-0.5484707497427292</heading>
				<tilt>11.98217424236803</tilt>
				<range>323.7326523716984</range>
				<gx:altitudeMode>relativeToSeaFloor</gx:altitudeMode>
			</LookAt>
			<styleUrl>#m_ylw-pushpin</styleUrl>
			<Point>
				<gx:drawOrder>1</gx:drawOrder>
				<coordinates>13.22398636658189,43.13672272143049,0</coordinates>
			</Point>
		</Placemark>
		<Placemark>
			<name>4</name>
			<description>Torna indietro;Go back</description>
			<LookAt>
				<gx:TimeStamp><when>2022-04-30</when>
</gx:TimeStamp>
				<gx:ViewerOptions>
					<gx:option name="historicalimagery"></gx:option>
					<gx:option enabled="0" name="sunlight"></gx:option>
					<gx:option enabled="0" name="streetview"></gx:option>
				</gx:ViewerOptions>
				<longitude>13.22367604607294</longitude>
				<latitude>43.13673764894168</latitude>
				<altitude>0</altitude>
				<heading>-0.5486343353684073</heading>
				<tilt>11.98217424236987</tilt>
				<range>323.732652409618</range>
				<gx:altitudeMode>relativeToSeaFloor</gx:altitudeMode>
			</LookAt>
			<styleUrl>#m_ylw-pushpin</styleUrl>
			<Point>
				<gx:drawOrder>1</gx:drawOrder>
				<coordinates>13.22412526217202,43.13688502067594,0</coordinates>
			</Point>
		</Placemark>
		<Placemark>
			<name>5</name>
			<description>Gia a destra a prendi Via Colcù;Turn right and take Via Colcù</description>
			<LookAt>
				<gx:TimeStamp><when>2022-04-30</when>
</gx:TimeStamp>
				<gx:ViewerOptions>
					<gx:option name="historicalimagery"></gx:option>
					<gx:option enabled="0" name="sunlight"></gx:option>
					<gx:option enabled="0" name="streetview"></gx:option>
				</gx:ViewerOptions>
				<longitude>13.22460762646503</longitude>
				<latitude>43.13735904320659</latitude>
				<altitude>0</altitude>
				<heading>-0.5479973756757612</heading>
				<tilt>11.98217424237655</tilt>
				<range>323.7326526290578</range>
				<gx:altitudeMode>relativeToSeaFloor</gx:altitudeMode>
			</LookAt>
			<styleUrl>#m_ylw-pushpin</styleUrl>
			<Point>
				<gx:drawOrder>1</gx:drawOrder>
				<coordinates>13.22394640405482,43.13680471629836,0</coordinates>
			</Point>
		</Placemark>
		<Placemark>
			<name>6</name>
			<description>Gira a Sinistra;Turn left</description>
			<LookAt>
				<gx:TimeStamp><when>2022-04-30</when>
</gx:TimeStamp>
				<gx:ViewerOptions>
					<gx:option name="historicalimagery"></gx:option>
					<gx:option enabled="0" name="sunlight"></gx:option>
					<gx:option enabled="0" name="streetview"></gx:option>
				</gx:ViewerOptions>
				<longitude>13.22460762646503</longitude>
				<latitude>43.13735904320659</latitude>
				<altitude>0</altitude>
				<heading>-0.5479973756757612</heading>
				<tilt>11.98217424237655</tilt>
				<range>323.7326526290578</range>
				<gx:altitudeMode>relativeToSeaFloor</gx:altitudeMode>
			</LookAt>
			<styleUrl>#m_ylw-pushpin</styleUrl>
			<Point>
				<gx:drawOrder>1</gx:drawOrder>
				<coordinates>13.22451444078178,43.13765101579572,0</coordinates>
			</Point>
		</Placemark>
		<Placemark>
			<name>7</name>
			<description>Gira tutto a destra e scendi verso piazza;Turn right and go down towards the square</description>
			<LookAt>
				<gx:TimeStamp><when>2022-04-30</when>
</gx:TimeStamp>
				<gx:ViewerOptions>
					<gx:option name="historicalimagery"></gx:option>
					<gx:option enabled="0" name="sunlight"></gx:option>
					<gx:option enabled="0" name="streetview"></gx:option>
				</gx:ViewerOptions>
				<longitude>13.22460762646503</longitude>
				<latitude>43.13735904320659</latitude>
				<altitude>0</altitude>
				<heading>-0.5479973756757612</heading>
				<tilt>11.98217424237655</tilt>
				<range>323.7326526290578</range>
				<gx:altitudeMode>relativeToSeaFloor</gx:altitudeMode>
			</LookAt>
			<styleUrl>#m_ylw-pushpin</styleUrl>
			<Point>
				<gx:drawOrder>1</gx:drawOrder>
				<coordinates>13.22377842648529,43.13764587815994,0</coordinates>
			</Point>
		</Placemark>
		<Placemark>
			<name>8</name>
			<description>Gira a destra, Turn right</description>
			<LookAt>
				<gx:TimeStamp><when>2022-04-30</when>
</gx:TimeStamp>
				<gx:ViewerOptions>
					<gx:option name="historicalimagery"></gx:option>
					<gx:option enabled="0" name="sunlight"></gx:option>
					<gx:option enabled="0" name="streetview"></gx:option>
				</gx:ViewerOptions>
				<longitude>13.22460762646503</longitude>
				<latitude>43.13735904320659</latitude>
				<altitude>0</altitude>
				<heading>-0.5479973756757612</heading>
				<tilt>11.98217424237655</tilt>
				<range>323.7326526290578</range>
				<gx:altitudeMode>relativeToSeaFloor</gx:altitudeMode>
			</LookAt>
			<styleUrl>#m_ylw-pushpin</styleUrl>
			<Point>
				<gx:drawOrder>1</gx:drawOrder>
				<coordinates>13.224348555434,43.13782499000266,0</coordinates>
			</Point>
		</Placemark>
		<Placemark>
			<name>9</name>
			<description>Gira a destra ed entra nella piazza;Turn right and enter the square</description>
			<LookAt>
				<gx:TimeStamp><when>2022-04-30</when>
</gx:TimeStamp>
				<gx:ViewerOptions>
					<gx:option name="historicalimagery"></gx:option>
					<gx:option enabled="0" name="sunlight"></gx:option>
					<gx:option enabled="0" name="streetview"></gx:option>
				</gx:ViewerOptions>
				<longitude>13.22460762646503</longitude>
				<latitude>43.13735904320659</latitude>
				<altitude>0</altitude>
				<heading>-0.5479973756757612</heading>
				<tilt>11.98217424237655</tilt>
				<range>323.7326526290578</range>
				<gx:altitudeMode>relativeToSeaFloor</gx:altitudeMode>
			</LookAt>
			<styleUrl>#m_ylw-pushpin</styleUrl>
			<Point>
				<gx:drawOrder>1</gx:drawOrder>
				<coordinates>13.22490256663042,43.13770930312977,0</coordinates>
			</Point>
		</Placemark>
		<Placemark>
			<name>10</name>
			<description>Torna indietro; Go back</description>
			<LookAt>
				<gx:TimeStamp><when>2022-04-30</when>
</gx:TimeStamp>
				<gx:ViewerOptions>
					<gx:option name="historicalimagery"></gx:option>
					<gx:option enabled="0" name="sunlight"></gx:option>
					<gx:option enabled="0" name="streetview"></gx:option>
				</gx:ViewerOptions>
				<longitude>13.22471754576619</longitude>
				<latitude>43.13741626811642</latitude>
				<altitude>0</altitude>
				<heading>-0.547896146829336</heading>
				<tilt>14.82067640893337</tilt>
				<range>257.5931724439118</range>
				<gx:altitudeMode>relativeToSeaFloor</gx:altitudeMode>
			</LookAt>
			<styleUrl>#m_ylw-pushpin</styleUrl>
			<Point>
				<gx:drawOrder>1</gx:drawOrder>
				<coordinates>13.22514111387977,43.1375558036997,0</coordinates>
			</Point>
		</Placemark>
		<Placemark>
			<name>11</name>
			<description>Gira a destra in Via de Magistris;Turn right onto Via de Magistris</description>
			<LookAt>
				<gx:TimeStamp><when>2022-04-30</when>
</gx:TimeStamp>
				<gx:ViewerOptions>
					<gx:option name="historicalimagery"></gx:option>
					<gx:option enabled="0" name="sunlight"></gx:option>
					<gx:option enabled="0" name="streetview"></gx:option>
				</gx:ViewerOptions>
				<longitude>13.22471754576619</longitude>
				<latitude>43.13741626811642</latitude>
				<altitude>0</altitude>
				<heading>-0.547896146829336</heading>
				<tilt>14.82067640893337</tilt>
				<range>257.5931724439118</range>
				<gx:altitudeMode>relativeToSeaFloor</gx:altitudeMode>
			</LookAt>
			<styleUrl>#m_ylw-pushpin</styleUrl>
			<Point>
				<gx:drawOrder>1</gx:drawOrder>
				<coordinates>13.22498852024556,43.13774977372211,0</coordinates>
			</Point>
		</Placemark>
		<Placemark>
			<name>12</name>
			<description>Attraversa la strada e vsi verso la Collegiata;Cross the road and go towards the Collegiate Church</description>
			<LookAt>
				<gx:TimeStamp><when>2022-04-30</when>
</gx:TimeStamp>
				<gx:ViewerOptions>
					<gx:option name="historicalimagery"></gx:option>
					<gx:option enabled="0" name="sunlight"></gx:option>
					<gx:option enabled="0" name="streetview"></gx:option>
				</gx:ViewerOptions>
				<longitude>13.22471754576619</longitude>
				<latitude>43.13741626811642</latitude>
				<altitude>0</altitude>
				<heading>-0.547896146829336</heading>
				<tilt>14.82067640893337</tilt>
				<range>257.5931724439118</range>
				<gx:altitudeMode>relativeToSeaFloor</gx:altitudeMode>
			</LookAt>
			<styleUrl>#m_ylw-pushpin</styleUrl>
			<Point>
				<gx:drawOrder>1</gx:drawOrder>
				<coordinates>13.22611592169332,43.13800935685244,0</coordinates>
			</Point>
		</Placemark>
		<atom:link rel="app" href="https://www.google.com/earth/about/versions/#earth-pro" title="Google Earth Pro 7.3.6.10201"></atom:link>
	</Folder>
</Document>
</kml>
