<?xml version="1.0" encoding="UTF-8"?>
<kml xmlns="http://www.opengis.net/kml/2.2" xmlns:gx="http://www.google.com/kml/ext/2.2" xmlns:kml="http://www.opengis.net/kml/2.2" xmlns:atom="http://www.w3.org/2005/Atom">
<Document>
	<name>IoT</name>
	<open>1</open>
	<atom:link rel="app" href="https://www.google.com/earth/about/versions/#earth-pro" title="Google Earth Pro 7.3.6.10201"></atom:link>
	<Schema name="__managed_schema" id="__managed_schema">
		<SimpleField type="double" name="COL51AC1F4708E2D51D"><displayName>lunghezza</displayName>
</SimpleField>
		<SimpleField type="string" name="COL51AC1F4708A5D2AD"><displayName>folders</displayName>
</SimpleField>
		<SimpleField type="string" name="COL51AC1F4708AB2048"><displayName>descriptio</displayName>
</SimpleField>
		<SimpleField type="double" name="COL51AC1F47084911FC"><displayName>altitude</displayName>
</SimpleField>
		<SimpleField type="string" name="COL51AC1F4708A21DE5"><displayName>alt_mode</displayName>
</SimpleField>
		<SimpleField type="string" name="COL51AC1F470895A8A6"><displayName>time_begin</displayName>
</SimpleField>
		<SimpleField type="string" name="COL51AC1F4708D2521D"><displayName>time_end</displayName>
</SimpleField>
		<SimpleField type="string" name="COL51AC1F4708D21376"><displayName>time_when</displayName>
</SimpleField>
		<SimpleField type="double" name="COL51AC1F4708D9FC63"><displayName>lunghezza</displayName>
</SimpleField>
	</Schema>
	<StyleMap id="__managed_style_0900F6F32434EC26BE61">
		<Pair>
			<key>normal</key>
			<styleUrl>#failed00</styleUrl>
		</Pair>
		<Pair>
			<key>highlight</key>
			<styleUrl>#failed2</styleUrl>
		</Pair>
	</StyleMap>
	<Style id="failed00">
		<LineStyle>
			<color>ff00ffff</color>
			<width>3</width>
		</LineStyle>
	</Style>
	<Style id="failed2">
		<LineStyle>
			<color>ff00ffff</color>
			<width>3</width>
		</LineStyle>
	</Style>
	<StyleMap id="msn_ylw-pushpin">
		<Pair>
			<key>normal</key>
			<styleUrl>#sn_ylw-pushpin</styleUrl>
		</Pair>
		<Pair>
			<key>highlight</key>
			<styleUrl>#sh_ylw-pushpin</styleUrl>
		</Pair>
	</StyleMap>
	<Style id="sh_ylw-pushpin">
		<IconStyle>
			<color>ff0000ff</color>
			<scale>1.3</scale>
			<Icon>
				<href>http://maps.google.com/mapfiles/kml/pushpin/ylw-pushpin.png</href>
			</Icon>
			<hotSpot x="20" y="2" xunits="pixels" yunits="pixels"/>
		</IconStyle>
		<BalloonStyle>
		</BalloonStyle>
	</Style>
	<Style id="sn_ylw-pushpin">
		<IconStyle>
			<color>ff0000ff</color>
			<scale>1.1</scale>
			<Icon>
				<href>http://maps.google.com/mapfiles/kml/pushpin/ylw-pushpin.png</href>
			</Icon>
			<hotSpot x="20" y="2" xunits="pixels" yunits="pixels"/>
		</IconStyle>
		<BalloonStyle>
		</BalloonStyle>
	</Style>
	<Placemark id="51AC1F4590000031">
		<name>la via dei castelli</name>
		<styleUrl>#__managed_style_0900F6F32434EC26BE61</styleUrl>
		<ExtendedData>
			<SchemaData schemaUrl="#__managed_schema">
				<SimpleData name="COL51AC1F4708E2D51D">17467.702</SimpleData>
			</SchemaData>
		</ExtendedData>
		<LineString>
			<coordinates>
				13.22439714465552,43.14589374157217,0 13.22444700102977,43.1457283785855,0 13.2252732239339,43.144886701328,0 13.22450825462017,43.14393029523843,0 13.22408677277055,43.14282432523405,0 13.22345765105161,43.14185229070601,0 13.22343951577613,43.14156295449365,0 13.22477128783135,43.13994349254185,0 13.22406867566288,43.13961297991104,0 13.2229256629944,43.1395555380732,318.3399999999999 13.22268397062606,43.13815163956445,326.6800000000001 13.22252560886344,43.13801548925359,327.71 13.22236593816932,43.13781235718507,328.8700000000001 13.2223892211914,43.1376671791077,329.7 13.2224535942078,43.1376242637634,330.3 13.222668170929,43.1376028060913,330.6600000000001 13.2233560737222,43.1376958452165,330.6299999999999 13.2237943634391,43.1376059912145,330.6700000000001 13.2242532726377,43.1378115154803,329.5199999999999 13.2249399181455,43.1377099268138,327.8600000000001 13.2262086868286,43.1380535010248,322.35 13.22627008237546,43.13788730990536,0 13.22644221607106,43.13788554251891,0 13.2266157812226,43.1374518587331,0 13.2266137501223,43.1371086027848,0 13.2265487549132,43.1369075238566,0 13.22636686230015,43.13621395969833,0 13.2263456448847,43.1352948302299,0 13.2264837597041,43.135038911594,0 13.22653150520652,43.1347825439415,0 13.2266279678243,43.1345636341272,0 13.2269570060706,43.1335623016864,0 13.2269366950677,43.1334790265747,0 13.2268493577555,43.1334262179673,0 13.22613261852626,43.13313294676253,317.29 13.225564956665,43.1321310997009,321.8399999999999 13.2252216339111,43.1313157081604,326.01 13.22267417803724,43.12944880212655,340.3 13.22206917363431,43.12921522052528,343.4999999999999 13.22123469537118,43.1286487906163,348.3099999999999 13.22011348152092,43.12752120483574,356.1600000000001 13.21954792354047,43.12706655283711,357.72 13.2195353507996,43.1269598007202,358.3799999999999 13.2185697555542,43.1265735626221,360.89 13.2183980941772,43.1264233589172,361.51 13.2183980941772,43.1263160705566,362.04 13.21850774750788,43.12614404978398,362.61 13.2184624671936,43.1259727478027,363.7500000000001 13.2180976867676,43.1257581710815,365.17 13.21781873703,43.1252646446228,366.1299999999999 13.2177543640137,43.1248784065247,367.3399999999999 13.2171750068665,43.124577999115,368.9800000000001 13.2168316841125,43.1241273880005,370.39 13.21692036592634,43.12340789586196,372.5599999999999 13.21686901270894,43.12329761543353,373.34 13.21634901374939,43.12309127337073,374.8899999999999 13.2148361206055,43.1219387054443,381.78 13.2148575782776,43.1215953826904,384.2799999999999 13.2145142555237,43.1209087371826,388.73 13.214385509491,43.1207586172968,390.3500000000001 13.214385509491,43.1207371596247,392.0099999999998 13.2139348983765,43.1199216842651,397.6800000000001 13.2134199142456,43.1196212768555,404.7900000000001 13.2133555412292,43.1194496154785,407.4599999999999 13.2131195068359,43.1192564964295,410.35 13.212947845459,43.1191921234131,413.1999999999999 13.21290498160764,43.11897476043853,416.23 13.21254840009578,43.11909026950214,419.21 13.21209035790928,43.11887875710131,425.8099999999998 13.2119178771973,43.1188273429871,429.0299999999999 13.2114672660828,43.1185484770685,435.6999999999998 13.21136452198911,43.1184692117015,438.85 13.21083298501062,43.11786071863924,450.97 13.2108449935913,43.1176042556763,453.71 13.2110166549683,43.1174540519714,456.45 13.2112526893616,43.1173896789551,459.1900000000001 13.2111024856567,43.1171107292175,462.4 13.211145401001,43.1170463562012,465.1000000000001 13.2110595703125,43.1169390678406,467.8000000000001 13.2110381126404,43.1165099143982,473.1999999999999 13.2108879089355,43.1162524223328,475.8100000000001 13.2109093666077,43.1161452177912,478.1 13.2106733322144,43.1160807609558,480.1 13.2102656364441,43.1158661842346,483.8600000000001 13.2094931602478,43.1156086921692,486.5400000000001 13.2087206840515,43.1155014038086,488.3999999999999 13.20851059850428,43.11535680737934,489.5699999999999 13.20841852346432,43.11532888766421,490.52 13.20834157517314,43.11534479929507,491.3199999999998 13.20829866067933,43.11541685238694,491.8699999999997 13.2084134982018,43.11559935976511,491.9100000000001 13.20847108402866,43.11580704841177,492.54 13.2086992263794,43.1161022186279,492.7799999999999 13.20882422502813,43.11648427883112,492.5799999999999 13.20870251206192,43.11686665269401,492.3099999999999 13.20873044814009,43.11699856296178,491.76 13.20909312529476,43.11728925566594,489.97 13.20975083335917,43.11805096811729,485.8699999999997 13.20974933260773,43.1181789830344,484.89 13.20968808134728,43.11829174618913,484.04 13.20956685654021,43.11836080299734,482.5699999999998 13.20918839988092,43.11841919780115,481.5199999999999 13.20812889379649,43.11841930970893,480.8799999999998 13.2073259353638,43.1183768156916,480.6899999999999 13.2070255279541,43.1184626463801,480.29 13.2068967819214,43.1185699347407,480.0699999999998 13.2064890861511,43.1191278342158,479.8299999999999 13.2064461708069,43.1192136649042,479.73 13.206467628479,43.1193209532648,479.4900000000001 13.2065534591675,43.1193638686091,479.0700000000001 13.2069826126099,43.1195999030024,477.8899999999999 13.2071328163147,43.1201148033142,476.66 13.20756523386762,43.12063176066957,474.2499999999997 13.207368850708,43.1210160255432,473.4299999999999 13.2073473930359,43.121166229248,473.0199999999999 13.20751001908588,43.1215932897734,471.4499999999998 13.2081277469491,43.12227087652118,470.0199999999999 13.20815310903659,43.12241462655688,469.72 13.20801506722245,43.12256350241192,469.4900000000001 13.20783104589135,43.12260851986878,469.58 13.20597851932397,43.12264012086266,471.7099999999999 13.2052230834961,43.1228613853455,474.2099999999999 13.2046222686768,43.1229686737061,477.96 13.204493522644,43.1230759620667,480.2099999999999 13.2046008110046,43.1238913536072,491.8199999999998 13.2044506072998,43.1241703033447,495.5699999999998 13.203763961792,43.1248998641968,507.0699999999998 13.2034850120544,43.125114440918,510.4999999999997 13.2032918930054,43.1253290176392,516.5600000000001 13.2030799487536,43.12551963666224,519.4400000000001 13.20303610715823,43.12576118515479,522.2200000000001 13.2031416893005,43.1267023086548,530.4699999999999 13.2032918930054,43.127110004425,533.16 13.2034741993994,43.1273244973272,533.7 13.2038121168891,43.1277102223077,534.17 13.2040226154933,43.1278514428903,534.0199999999999 13.2042304495583,43.1281365485947,533.5999999999998 13.20395928605104,43.12822959512025,533.16 13.20372732903478,43.12907381933238,527.88 13.2034420967102,43.1297707557678,521.6500000000001 13.2031202316284,43.130157077685,517.3099999999999 13.20264860724095,43.13068315114643,510.3600000000001 13.2021975517273,43.1309723854065,505.3500000000001 13.2018327713013,43.1310796737671,502.7699999999999 13.2016611099243,43.1310367584229,500.92 13.2015752792358,43.1310367584229,498.8700000000001 13.2013392448425,43.1311869621277,496.36 13.2008028030396,43.1312084197998,493.1100000000002 13.2004594802856,43.1313800811768,489.2400000000001 13.2002449035645,43.1316161155701,486.85 13.2001161575317,43.1317019462585,485.3099999999998 13.2000088691711,43.1317234039307,484.1799999999997 13.1999444961548,43.1317019462585,483.3299999999999 13.1999015808105,43.1316375732422,482.7499999999998 13.19908618927,43.1316375732422,481.3299999999999 13.1988286972046,43.1315732002258,481.3 13.1986784934998,43.1315946578979,481.0699999999999 13.1983780860901,43.1318092346191,480.74 13.1983995437622,43.1318736076355,480.2099999999999 13.1983137130737,43.1320667266846,479.23 13.1983351707458,43.1323027610779,478.41 13.1982493400574,43.1324100494385,477.96 13.1983137130737,43.1327748298645,475.5500000000001 13.1980133056641,43.1331825256348,474.2099999999999 13.1977772712708,43.1336760520935,472.7699999999999 13.1977772712708,43.1341481208801,469.2799999999999 13.1982064247131,43.1345772743225,465.4399999999998 13.1982064247131,43.1349205970764,461.54 13.1981205940247,43.135027885437,459.34 13.1980133056641,43.1350493431091,457.23 13.197283744812,43.135392665863,449.5699999999999 13.19599322986661,43.13669174453198,431 13.1956315040588,43.1376886367798,419.1499999999999 13.1954598426819,43.1378388404846,416.5299999999999 13.19547693284045,43.13807760420283,413.83 13.1954118836175,43.138164637763,411.4100000000001 13.19506772257058,43.13855156868765,409.1999999999998 13.1951110638251,43.138862651522,0 13.1950639826714,43.1389650714494,0 13.195032459916,43.1389945462171,0 13.194896568412,43.1390345143065,0 13.1948486067047,43.1390318497672,0 13.1948459421654,43.1390624919691,0 13.1948632616708,43.1390731501262,0 13.194873919828,43.1391091214067,0 13.1948446098958,43.1391544185747,0 13.1948019772671,43.1391837285069,0 13.1947593446384,43.1392343547535,0 13.194651430797,43.1393209522806,0 13.1945635010003,43.139315623202,0 13.1944502580803,43.1392330224839,0 13.1943649928229,43.1391264409121,0 13.194424944957,43.1390118657225,0 13.1945355233377,43.1389385908919,0 13.1946554276059,43.1388786387578,0 13.1946820729988,43.1388360061291,0 13.1946620889541,43.1388000348486,0 13.1944942474365,43.1387186050415,401.1100000000001 13.1943869590759,43.1387186050415,399.1999999999998 13.1937217712402,43.1381393317133,391.98 13.19366155048825,43.13796725425477,389.4299999999998 13.19353712760775,43.13782939259643,388.36 13.19094796650272,43.1360915390628,382.91 13.1904172897339,43.136100769043,383.6299999999998 13.1899881362915,43.1360149383545,386.1100000000001 13.1898593902588,43.1359720230103,387.67 13.18975232208592,43.13600713449135,389.42 13.18969680258528,43.13610663816565,393.1300000000001 13.18947091150404,43.1362743281235,395.4399999999999 13.18915216441438,43.13635433848901,397.9599999999999 13.18909676007473,43.13650841163005,400.1999999999998 13.18905505745903,43.13671008888024,402.4499999999999 13.1889474391937,43.1368623487651,404.7699999999999 13.18890424465272,43.13703964039651,406.99 13.18863109704741,43.13723674774464,409.5199999999999 13.1883573532104,43.137366771698,411.8999999999999 13.18792507237462,43.13745155975293,415.77 13.18754889854462,43.13749225650385,417.29 13.187069222331,43.1373987905681,419.26 13.1867909431458,43.1373453140259,419.6000000000001 13.1851808633655,43.1369661167264,418.2099999999999 13.1833362579346,43.136830329895,411.6999999999999 13.1825423240662,43.1368517875671,408.3699999999997 13.1819844245911,43.1368088722229,405.3899999999998 13.1818342208862,43.1367659568787,403.97 13.1816662460418,43.136654922894,402.8699999999997 13.17980058851301,43.1361554505326,396.1200000000001 13.1789784226567,43.1359609588981,394.1499999999999 13.17683756057336,43.13560679163796,389.54 13.1765549629927,43.135574972257,388.97 13.1762766838074,43.13556432724,388.43 13.1748819351196,43.1353712081909,386.93 13.1746503768829,43.13547822853745,386.47 13.17436501933154,43.13544988709487,386.18 13.1741094589233,43.1354570388794,385.69 13.17388289811351,43.13547099127972,385.3099999999999 13.17371370418,43.13553730161491,384.8999999999999 13.1733576860279,43.1353817693889,384.54 13.1730151176453,43.1353069189936,384.3399999999999 13.1725859642029,43.1349635124207,385.9100000000001 13.17246776440851,43.1346810868596,387.4999999999999 13.17228220274849,43.13471733483272,388.0199999999999 13.17206574754655,43.13478523681616,388.8000000000001 13.17184710201201,43.13489206257496,389.6499999999999 13.171706199646,43.1350493431091,390.48 13.1714487075806,43.1356072425842,393.3899999999999 13.1710410118103,43.1358647346497,395.5500000000002 13.1708264350891,43.1359076499939,396.73 13.1701397895813,43.135929107666,398.9599999999999 13.1696677207947,43.1358432769775,400.85 13.16932756489335,43.13560205270995,402.41 13.16918791933905,43.13560955645146,402.6 13.16896464241602,43.13565895477275,402.5000000000001 13.1684875488281,43.1357359886169,401.91 13.1684446334839,43.1357789039612,401.2099999999999 13.1686162948608,43.1358432769775,399.16 13.1700754165649,43.1361865997315,392.2699999999999 13.1701827049255,43.1362509727478,390.2400000000001 13.1701827049255,43.1362939719111,388.1700000000001 13.17014205426184,43.13635461810018,386.0500000000001 13.1694102287292,43.1364011764526,378.9399999999999 13.1694746017456,43.136465549469,376.3899999999999 13.1696891784668,43.136465549469,374.0699999999999 13.169903755188,43.1365513801575,371.51 13.170226290822,43.1365835666656,368.9399999999999 13.1705474853516,43.1366157531738,366.0699999999999 13.170773210004,43.1366802100092,363.1899999999999 13.1709980964661,43.1367444992065,360.4499999999999 13.1712341308594,43.1367659568787,357.8700000000001 13.1714272499084,43.1367230415344,355.4100000000001 13.1716420780867,43.1366155855358,353.0299999999999 13.1721981821656,43.13650511379868,345.66 13.172311404915,43.13655155423916,343.26 13.17229633404413,43.13662812702558,340.93 13.17208345157241,43.13674688134782,338.6399999999999 13.17204949609894,43.13683836889795,336.4399999999999 13.17214714388062,43.13691525356386,334.1700000000001 13.17244691006827,43.13686013583339,331.8200000000001 13.17268931668993,43.13671454403751,329.8800000000001 13.17276505078065,43.13672305426255,327.8600000000001 13.17276814227731,43.13679403878484,325.78 13.17257326642313,43.13688984649315,323.68 13.1724572181702,43.1370663642883,321.36 13.1723713874817,43.1371307373047,319.5000000000001 13.1719851493835,43.137195110321,318.0500000000001 13.1718349456787,43.1373023986816,316.3200000000001 13.1718564033508,43.1373453140259,314.89 13.172242641449,43.137366771698,313.58 13.172435760498,43.1374526023865,312.4300000000001 13.1725859642029,43.1375813484192,311.45 13.1728434562683,43.1377101782709,310.67 13.17303907821791,43.13769517487184,310.28 13.17317954208427,43.13766569714214,310.1199999999999 13.1746459007263,43.1367874145508,312.8699999999999 13.1751823425293,43.1367015838623,314.1 13.1767916679382,43.1367230415344,318.4999999999999 13.1782507896423,43.1369805335999,321.14 13.1798815727234,43.137195110321,322.92 13.18130869933134,43.13794241429208,321.12 13.18154106124031,43.13797364053437,320.4700000000001 13.18321380480975,43.13831692790662,316.98 13.183958530426,43.1381821632385,315.85 13.1841731071472,43.1381821632385,314.9900000000001 13.1852459907532,43.138439655304,312.63 13.1879067420959,43.1394910812378,311.29 13.18868038632539,43.13991132012676,312.76 13.18986377415212,43.13993559105822,316.9300000000001 13.19101818084627,43.13957389226332,323.6299999999999 13.19124775798466,43.13955662491266,324.9299999999999 13.19136854819281,43.13956708842203,326.19 13.19157346698179,43.13963747081431,327.5199999999999 13.1932497024536,43.1402206420898,331.89 13.1934857368469,43.1403708457947,332.3399999999999 13.1940221786499,43.1409502029419,332.3399999999999 13.19458067027395,43.14216667671602,328.99 13.19514022786949,43.14264718793283,326.36 13.19537969485591,43.14262274535064,325.71 13.19551004373908,43.14257656712812,325.11 13.19575955914233,43.14219023688348,324.06 13.19626639577748,43.14194362090632,324.06 13.1996440887451,43.1406713370234,318.09 13.1997728347778,43.1406712532043,317.7400000000001 13.19990666871245,43.14071848618513,317.29 13.200492169708,43.140961099416,316.2 13.2013808782842,43.14125997097023,314.48 13.2017284324658,43.1413095927465,313.93 13.20206451705969,43.14132415512992,313.31 13.20314910286302,43.14125792520322,310.3999999999999 13.20386829056607,43.14130181258246,307.41 13.2040214538574,43.1413793563843,306.36 13.20417628089375,43.14155143024935,305.1899999999999 13.20446220509269,43.14238600458166,300.14 13.20536062460152,43.14349577606786,291.93 13.2055234909058,43.1436109542847,290.69 13.20695754820649,43.14423331492792,285.86 13.20788280185095,43.1429413907461,283.04 13.20797136286355,43.14274203142633,283.07 13.20818802616076,43.14121798297909,285.2900000000001 13.2084202766418,43.1410789489746,285.9299999999999 13.21151725878796,43.14091742223476,290.99 13.2118535041809,43.1409287452698,291.41 13.21212133337339,43.14103284070284,291.8199999999999 13.21447500312163,43.14297241382888,290.6600000000001 13.21471526814883,43.14306580496988,290.4499999999999 13.21490387613182,43.14308084014225,290.3099999999999 13.2230391861821,43.14185922626491,304.79 13.22323306334876,43.14175131061803,0 13.22334560201428,43.14177966109949,0 13.22336857953245,43.14189424892896,0 13.22330021384296,43.14199289836314,0 13.2237823963244,43.1456991414422,0 13.223928635545,43.1459428734764,0 13.2240992479689,43.1459834954821,0 13.22434694486454,43.14595822158114,0 
			</coordinates>
		</LineString>
	</Placemark>
	<Placemark>
		<name>1</name>
		<description>Segui le indicazioni;Follow the directions</description>
		<LookAt>
			<longitude>13.2232601720767</longitude>
			<latitude>43.14483656350077</latitude>
			<altitude>0</altitude>
			<heading>0</heading>
			<tilt>0</tilt>
			<range>494.8919821306366</range>
			<gx:altitudeMode>relativeToSeaFloor</gx:altitudeMode>
		</LookAt>
		<styleUrl>#msn_ylw-pushpin</styleUrl>
		<Point>
			<gx:drawOrder>1</gx:drawOrder>
			<coordinates>13.22441884685398,43.14588858750287,0</coordinates>
		</Point>
	</Placemark>
	<Placemark>
		<name>2</name>
		<description>Prosegui fino all&apos;incrocio;Continue to the crossroads</description>
		<LookAt>
			<longitude>13.2232601720767</longitude>
			<latitude>43.14483656350077</latitude>
			<altitude>0</altitude>
			<heading>6.36110936292703e-15</heading>
			<tilt>0</tilt>
			<range>494.8919821295429</range>
			<gx:altitudeMode>relativeToSeaFloor</gx:altitudeMode>
		</LookAt>
		<styleUrl>#msn_ylw-pushpin</styleUrl>
		<Point>
			<gx:drawOrder>1</gx:drawOrder>
			<coordinates>13.22446456433025,43.14573847010536,0</coordinates>
		</Point>
	</Placemark>
	<Placemark>
		<name>3</name>
		<description>Gira a destra;Turn right</description>
		<LookAt>
			<longitude>13.2232601720767</longitude>
			<latitude>43.14483656350077</latitude>
			<altitude>0</altitude>
			<heading>6.36110936292703e-15</heading>
			<tilt>0</tilt>
			<range>494.8919821295429</range>
			<gx:altitudeMode>relativeToSeaFloor</gx:altitudeMode>
		</LookAt>
		<styleUrl>#msn_ylw-pushpin</styleUrl>
		<Point>
			<gx:drawOrder>1</gx:drawOrder>
			<coordinates>13.22529468464444,43.14489446656275,0</coordinates>
		</Point>
	</Placemark>
	<Placemark>
		<name>4</name>
		<description>Gira a sinistra;Turn left</description>
		<LookAt>
			<longitude>13.22344615026495</longitude>
			<latitude>43.14265872876683</latitude>
			<altitude>0</altitude>
			<heading>0.0001272387508368154</heading>
			<tilt>0</tilt>
			<range>494.8919821267544</range>
			<gx:altitudeMode>relativeToSeaFloor</gx:altitudeMode>
		</LookAt>
		<styleUrl>#msn_ylw-pushpin</styleUrl>
		<Point>
			<gx:drawOrder>1</gx:drawOrder>
			<coordinates>13.22345295184307,43.14185280067061,0</coordinates>
		</Point>
	</Placemark>
	<Placemark>
		<name>5</name>
		<description>Continua sulla SP 502;Continue on SP 502</description>
		<LookAt>
			<longitude>13.22313262740549</longitude>
			<latitude>43.14127154434414</latitude>
			<altitude>0</altitude>
			<heading>-8.713398056751647e-05</heading>
			<tilt>0</tilt>
			<range>494.8919821300461</range>
			<gx:altitudeMode>relativeToSeaFloor</gx:altitudeMode>
		</LookAt>
		<styleUrl>#msn_ylw-pushpin</styleUrl>
		<Point>
			<gx:drawOrder>1</gx:drawOrder>
			<coordinates>13.22345695047635,43.14158431683811,0</coordinates>
		</Point>
	</Placemark>
	<Placemark>
		<name>6</name>
		<description>Gira a destra;Turn right</description>
		<LookAt>
			<longitude>13.22379941205979</longitude>
			<latitude>43.14015945768742</latitude>
			<altitude>0</altitude>
			<heading>0.0003688391305276816</heading>
			<tilt>0</tilt>
			<range>494.8919821298013</range>
			<gx:altitudeMode>relativeToSeaFloor</gx:altitudeMode>
		</LookAt>
		<styleUrl>#msn_ylw-pushpin</styleUrl>
		<Point>
			<gx:drawOrder>1</gx:drawOrder>
			<coordinates>13.22480410741539,43.13995258820781,0</coordinates>
		</Point>
	</Placemark>
	<Placemark>
		<name>7</name>
		<description>Gira a Sinistra in Via Rimessa;Turn left in Via Rimessa</description>
		<LookAt>
			<longitude>13.22379941205979</longitude>
			<latitude>43.14015945768742</latitude>
			<altitude>0</altitude>
			<heading>0.0003688391305276816</heading>
			<tilt>0</tilt>
			<range>494.8919821298013</range>
			<gx:altitudeMode>relativeToSeaFloor</gx:altitudeMode>
		</LookAt>
		<styleUrl>#msn_ylw-pushpin</styleUrl>
		<Point>
			<gx:drawOrder>1</gx:drawOrder>
			<coordinates>13.22294439874647,43.13957197494346,0</coordinates>
		</Point>
	</Placemark>
	<Placemark>
		<name>8</name>
		<description>Gira a Sinistra, continua su Via Rimessa;Turn left, go on Via Rimessa</description>
		<LookAt>
			<longitude>13.2228964138919</longitude>
			<latitude>43.13793702791526</latitude>
			<altitude>0</altitude>
			<heading>-0.0002492094859405597</heading>
			<tilt>0</tilt>
			<range>721.0247973731985</range>
			<gx:altitudeMode>relativeToSeaFloor</gx:altitudeMode>
		</LookAt>
		<styleUrl>#msn_ylw-pushpin</styleUrl>
		<Point>
			<gx:drawOrder>1</gx:drawOrder>
			<coordinates>13.22271468501002,43.13816125503897,0</coordinates>
		</Point>
	</Placemark>
	<Placemark>
		<name>9</name>
		<description>Gira a Destra;Turn right</description>
		<LookAt>
			<longitude>13.2228964138919</longitude>
			<latitude>43.13793702791526</latitude>
			<altitude>0</altitude>
			<heading>-0.0002492094859405597</heading>
			<tilt>0</tilt>
			<range>721.0247973731985</range>
			<gx:altitudeMode>relativeToSeaFloor</gx:altitudeMode>
		</LookAt>
		<styleUrl>#msn_ylw-pushpin</styleUrl>
		<Point>
			<gx:drawOrder>1</gx:drawOrder>
			<coordinates>13.22336229524072,43.13772726689352,0</coordinates>
		</Point>
	</Placemark>
	<Placemark>
		<name>10</name>
		<description>Continua su Via Caldoro;Continue on Via Caldoro</description>
		<LookAt>
			<longitude>13.2228964138919</longitude>
			<latitude>43.13793702791526</latitude>
			<altitude>0</altitude>
			<heading>-0.0002492094859405597</heading>
			<tilt>0</tilt>
			<range>721.0247973731985</range>
			<gx:altitudeMode>relativeToSeaFloor</gx:altitudeMode>
		</LookAt>
		<styleUrl>#msn_ylw-pushpin</styleUrl>
		<Point>
			<gx:drawOrder>1</gx:drawOrder>
			<coordinates>13.22426101760227,43.13783817087755,0</coordinates>
		</Point>
	</Placemark>
	<Placemark>
		<name>11</name>
		<description>Gira a Sinistra su Via de Magistris;Turn left on Via de Magistris</description>
		<LookAt>
			<longitude>13.2228964138919</longitude>
			<latitude>43.13793702791526</latitude>
			<altitude>0</altitude>
			<heading>-0.0002492094859405597</heading>
			<tilt>0</tilt>
			<range>721.0247973731985</range>
			<gx:altitudeMode>relativeToSeaFloor</gx:altitudeMode>
		</LookAt>
		<styleUrl>#msn_ylw-pushpin</styleUrl>
		<Point>
			<gx:drawOrder>1</gx:drawOrder>
			<coordinates>13.22495488422014,43.13773207595263,0</coordinates>
		</Point>
	</Placemark>
	<Placemark>
		<name>12</name>
		<description>Gira a Destra in Piazza;Turn right into the square</description>
		<LookAt>
			<longitude>13.2228964138919</longitude>
			<latitude>43.13793702791526</latitude>
			<altitude>0</altitude>
			<heading>-0.0002492094859405597</heading>
			<tilt>0</tilt>
			<range>721.0247973731985</range>
			<gx:altitudeMode>relativeToSeaFloor</gx:altitudeMode>
		</LookAt>
		<styleUrl>#msn_ylw-pushpin</styleUrl>
		<Point>
			<gx:drawOrder>1</gx:drawOrder>
			<coordinates>13.2262435266247,43.1380888872585,0</coordinates>
		</Point>
	</Placemark>
	<Placemark>
		<name>13</name>
		<description>Gira a Sinistra e attraversa sulle striscie pedonali verso la Collegiata;Turn left and cross on the pedestrian crossing towards the Collegiata</description>
		<LookAt>
			<longitude>13.22524234589848</longitude>
			<latitude>43.13615763699808</latitude>
			<altitude>0</altitude>
			<heading>0.001354887858122415</heading>
			<tilt>0</tilt>
			<range>721.0247973711142</range>
			<gx:altitudeMode>relativeToSeaFloor</gx:altitudeMode>
		</LookAt>
		<styleUrl>#msn_ylw-pushpin</styleUrl>
		<Point>
			<gx:drawOrder>1</gx:drawOrder>
			<coordinates>13.22630303181318,43.13791527932066,0</coordinates>
		</Point>
	</Placemark>
	<Placemark>
		<name>14</name>
		<description>Gira a Destra e continua in Via Concie;Turn right and go on Via Concie</description>
		<LookAt>
			<longitude>13.22524234589848</longitude>
			<latitude>43.13615763699808</latitude>
			<altitude>0</altitude>
			<heading>0.001354887858122415</heading>
			<tilt>0</tilt>
			<range>721.0247973711142</range>
			<gx:altitudeMode>relativeToSeaFloor</gx:altitudeMode>
		</LookAt>
		<styleUrl>#msn_ylw-pushpin</styleUrl>
		<Point>
			<gx:drawOrder>1</gx:drawOrder>
			<coordinates>13.2264880634597,43.13790563044433,0</coordinates>
		</Point>
	</Placemark>
	<Placemark>
		<name>15</name>
		<description>Continua su Via Concie;Continue on Via Concie</description>
		<LookAt>
			<longitude>13.22640686102413</longitude>
			<latitude>43.1370373042777</latitude>
			<altitude>0</altitude>
			<heading>0.002104694076295605</heading>
			<tilt>14.76022759956598</tilt>
			<range>199.3273261552251</range>
			<gx:altitudeMode>relativeToSeaFloor</gx:altitudeMode>
		</LookAt>
		<styleUrl>#msn_ylw-pushpin</styleUrl>
		<Point>
			<gx:drawOrder>1</gx:drawOrder>
			<coordinates>13.22662654121395,43.13720165699026,0</coordinates>
		</Point>
	</Placemark>
	<Placemark>
		<name>16</name>
		<description>Attraversa la strada e continua verso la ex Chiesa di Santa Maria della Neve;Cross the road and continue towards the former Church of Santa Maria della Neve</description>
		<LookAt>
			<longitude>13.22620912001512</longitude>
			<latitude>43.13316624815278</latitude>
			<altitude>0</altitude>
			<heading>0.001969518856993117</heading>
			<tilt>14.76022759956595</tilt>
			<range>199.3273261549001</range>
			<gx:altitudeMode>relativeToSeaFloor</gx:altitudeMode>
		</LookAt>
		<styleUrl>#msn_ylw-pushpin</styleUrl>
		<Point>
			<gx:drawOrder>1</gx:drawOrder>
			<coordinates>13.22635957916312,43.13324166666667,0</coordinates>
		</Point>
	</Placemark>
	<Placemark>
		<name>17</name>
		<description>Gira a Sinistra e prendi il Sentiero de Magistris;Turn left and take the Sentiero de Magistris</description>
		<LookAt>
			<longitude>13.21941202816272</longitude>
			<latitude>43.1266581794215</latitude>
			<altitude>0</altitude>
			<heading>-0.002677285941330625</heading>
			<tilt>14.760227599566</tilt>
			<range>199.3273261539523</range>
			<gx:altitudeMode>relativeToSeaFloor</gx:altitudeMode>
		</LookAt>
		<styleUrl>#msn_ylw-pushpin</styleUrl>
		<Point>
			<gx:drawOrder>1</gx:drawOrder>
			<coordinates>13.21954639143609,43.12707047469697,0</coordinates>
		</Point>
	</Placemark>
	<Placemark>
		<name>18</name>
		<description>Continua su Sentiero de Magistris;Continue on Sentiero de Magistris</description>
		<LookAt>
			<longitude>13.21941202816272</longitude>
			<latitude>43.1266581794215</latitude>
			<altitude>0</altitude>
			<heading>-0.002677285941330625</heading>
			<tilt>14.760227599566</tilt>
			<range>199.3273261539523</range>
			<gx:altitudeMode>relativeToSeaFloor</gx:altitudeMode>
		</LookAt>
		<styleUrl>#msn_ylw-pushpin</styleUrl>
		<Point>
			<gx:drawOrder>1</gx:drawOrder>
			<coordinates>13.21954640609504,43.12696537198265,0</coordinates>
		</Point>
	</Placemark>
	<Placemark>
		<name>19</name>
		<description>Gira a Destra;Turn right</description>
		<LookAt>
			<longitude>13.21211241064566</longitude>
			<latitude>43.11835287415874</latitude>
			<altitude>0</altitude>
			<heading>-0.007666624317540586</heading>
			<tilt>14.76066673360052</tilt>
			<range>391.1320820642236</range>
			<gx:altitudeMode>relativeToSeaFloor</gx:altitudeMode>
		</LookAt>
		<styleUrl>#msn_ylw-pushpin</styleUrl>
		<Point>
			<gx:drawOrder>1</gx:drawOrder>
			<coordinates>13.21292373140093,43.11898526370233,0</coordinates>
		</Point>
	</Placemark>
	<Placemark>
		<name>20</name>
		<description>Gira a Sinistra;Turn Left</description>
		<LookAt>
			<longitude>13.21211241064566</longitude>
			<latitude>43.11835287415874</latitude>
			<altitude>0</altitude>
			<heading>-0.007666624317540586</heading>
			<tilt>14.76066673360052</tilt>
			<range>391.1320820642236</range>
			<gx:altitudeMode>relativeToSeaFloor</gx:altitudeMode>
		</LookAt>
		<styleUrl>#msn_ylw-pushpin</styleUrl>
		<Point>
			<gx:drawOrder>1</gx:drawOrder>
			<coordinates>13.21256008477039,43.1191045641695,0</coordinates>
		</Point>
	</Placemark>
	<Placemark>
		<name>21</name>
		<description>Continua dritto;Continue straight</description>
		<LookAt>
			<longitude>13.21172825948643</longitude>
			<latitude>43.11843121534178</latitude>
			<altitude>0</altitude>
			<heading>-0.007870770587623453</heading>
			<tilt>19.93760838657935</tilt>
			<range>185.2307829247735</range>
			<gx:altitudeMode>relativeToSeaFloor</gx:altitudeMode>
		</LookAt>
		<styleUrl>#msn_ylw-pushpin</styleUrl>
		<Point>
			<gx:drawOrder>1</gx:drawOrder>
			<coordinates>13.21147323893338,43.11855620764734,0</coordinates>
		</Point>
	</Placemark>
	<Placemark>
		<name>22</name>
		<description>Continua dritto;Continue straight</description>
		<LookAt>
			<longitude>13.21172825948643</longitude>
			<latitude>43.11843121534178</latitude>
			<altitude>0</altitude>
			<heading>-0.007870770587623453</heading>
			<tilt>19.93760838657935</tilt>
			<range>185.2307829247735</range>
			<gx:altitudeMode>relativeToSeaFloor</gx:altitudeMode>
		</LookAt>
		<styleUrl>#msn_ylw-pushpin</styleUrl>
		<Point>
			<gx:drawOrder>1</gx:drawOrder>
			<coordinates>13.21137735151181,43.11848514091794,0</coordinates>
		</Point>
	</Placemark>
	<Placemark>
		<name>23</name>
		<description>Gira a Sinistra;Turn Left</description>
		<LookAt>
			<longitude>13.21127880953004</longitude>
			<latitude>43.11752579030313</latitude>
			<altitude>0</altitude>
			<heading>-0.008177981420195784</heading>
			<tilt>19.93760838657936</tilt>
			<range>185.2307829219276</range>
			<gx:altitudeMode>relativeToSeaFloor</gx:altitudeMode>
		</LookAt>
		<styleUrl>#msn_ylw-pushpin</styleUrl>
		<Point>
			<gx:drawOrder>1</gx:drawOrder>
			<coordinates>13.21085144080853,43.11786317915134,0</coordinates>
		</Point>
	</Placemark>
	<Placemark>
		<name>24</name>
		<description>Gira a Destra;Turn right</description>
		<LookAt>
			<longitude>13.21127880953004</longitude>
			<latitude>43.11752579030313</latitude>
			<altitude>0</altitude>
			<heading>-0.008177981420195784</heading>
			<tilt>19.93760838657936</tilt>
			<range>185.2307829219276</range>
			<gx:altitudeMode>relativeToSeaFloor</gx:altitudeMode>
		</LookAt>
		<styleUrl>#msn_ylw-pushpin</styleUrl>
		<Point>
			<gx:drawOrder>1</gx:drawOrder>
			<coordinates>13.21125984908399,43.11739310703837,0</coordinates>
		</Point>
	</Placemark>
	<Placemark>
		<name>25</name>
		<description>Gira a Sinistra;Turn Left</description>
		<LookAt>
			<longitude>13.21112944725495</longitude>
			<latitude>43.11683158104955</latitude>
			<altitude>0</altitude>
			<heading>-0.008280067573233298</heading>
			<tilt>19.93760838657936</tilt>
			<range>185.2307829232708</range>
			<gx:altitudeMode>relativeToSeaFloor</gx:altitudeMode>
		</LookAt>
		<styleUrl>#msn_ylw-pushpin</styleUrl>
		<Point>
			<gx:drawOrder>1</gx:drawOrder>
			<coordinates>13.21111770170054,43.11712273026082,0</coordinates>
		</Point>
	</Placemark>
	<Placemark>
		<name>26</name>
		<description>Gira a Destra;Turn right</description>
		<LookAt>
			<longitude>13.21112944725495</longitude>
			<latitude>43.11683158104955</latitude>
			<altitude>0</altitude>
			<heading>-0.008280067573233298</heading>
			<tilt>19.93760838657936</tilt>
			<range>185.2307829232708</range>
			<gx:altitudeMode>relativeToSeaFloor</gx:altitudeMode>
		</LookAt>
		<styleUrl>#msn_ylw-pushpin</styleUrl>
		<Point>
			<gx:drawOrder>1</gx:drawOrder>
			<coordinates>13.21116041494339,43.11704691719205,0</coordinates>
		</Point>
	</Placemark>
	<Placemark>
		<name>27</name>
		<description>All&apos;incrocio Gira a Destra;At the crossroads turn right</description>
		<LookAt>
			<longitude>13.21106234056119</longitude>
			<latitude>43.11615350089557</latitude>
			<altitude>0</altitude>
			<heading>-0.008325933293459148</heading>
			<tilt>19.93760838657936</tilt>
			<range>185.2307829225232</range>
			<gx:altitudeMode>relativeToSeaFloor</gx:altitudeMode>
		</LookAt>
		<styleUrl>#msn_ylw-pushpin</styleUrl>
		<Point>
			<gx:drawOrder>1</gx:drawOrder>
			<coordinates>13.21091730188162,43.11615150996972,0</coordinates>
		</Point>
	</Placemark>
	<Placemark>
		<name>28</name>
		<description>Segui la strada principale;Follow the main road</description>
		<LookAt>
			<longitude>13.20894843795183</longitude>
			<latitude>43.11530352079088</latitude>
			<altitude>0</altitude>
			<heading>-0.00977072952478439</heading>
			<tilt>19.93760838657936</tilt>
			<range>185.2307829236209</range>
			<gx:altitudeMode>relativeToSeaFloor</gx:altitudeMode>
		</LookAt>
		<styleUrl>#msn_ylw-pushpin</styleUrl>
		<Point>
			<gx:drawOrder>1</gx:drawOrder>
			<coordinates>13.20873682400099,43.11551452160572,0</coordinates>
		</Point>
	</Placemark>
	<Placemark>
		<name>29</name>
		<description>Segui la strada principale;Follow the main road</description>
		<LookAt>
			<longitude>13.20894843795183</longitude>
			<latitude>43.11530352079088</latitude>
			<altitude>0</altitude>
			<heading>-0.00977072952478439</heading>
			<tilt>19.93760838657936</tilt>
			<range>185.2307829236209</range>
			<gx:altitudeMode>relativeToSeaFloor</gx:altitudeMode>
		</LookAt>
		<styleUrl>#msn_ylw-pushpin</styleUrl>
		<Point>
			<gx:drawOrder>1</gx:drawOrder>
			<coordinates>13.20843308747566,43.11533863011879,0</coordinates>
		</Point>
	</Placemark>
	<Placemark>
		<name>30</name>
		<description>Segui la strada principale;Follow the main road</description>
		<LookAt>
			<longitude>13.20322498732585</longitude>
			<latitude>43.12543552565806</latitude>
			<altitude>0</altitude>
			<heading>-0.01368306608346797</heading>
			<tilt>19.93760838657932</tilt>
			<range>185.2307829250526</range>
			<gx:altitudeMode>relativeToSeaFloor</gx:altitudeMode>
		</LookAt>
		<styleUrl>#msn_ylw-pushpin</styleUrl>
		<Point>
			<gx:drawOrder>1</gx:drawOrder>
			<coordinates>13.20308229034622,43.12552747017074,0</coordinates>
		</Point>
	</Placemark>
	<Placemark>
		<name>31</name>
		<description>Gira a Sinistra;Turn Left</description>
		<LookAt>
			<longitude>13.20465381248844</longitude>
			<latitude>43.12775547346173</latitude>
			<altitude>0</altitude>
			<heading>-0.01270629560347399</heading>
			<tilt>19.93760838657927</tilt>
			<range>185.2307829185878</range>
			<gx:altitudeMode>relativeToSeaFloor</gx:altitudeMode>
		</LookAt>
		<styleUrl>#msn_ylw-pushpin</styleUrl>
		<Point>
			<gx:drawOrder>1</gx:drawOrder>
			<coordinates>13.20423344835844,43.12813995691573,0</coordinates>
		</Point>
	</Placemark>
	<Placemark>
		<name>32</name>
		<description>Gira a Destra e segui la strada principale;Turn right and follow the main road</description>
		<LookAt>
			<longitude>13.2044367434256</longitude>
			<latitude>43.12795025914614</latitude>
			<altitude>0</altitude>
			<heading>-0.01285469091773467</heading>
			<tilt>19.93760838657931</tilt>
			<range>185.230782923968</range>
			<gx:altitudeMode>relativeToSeaFloor</gx:altitudeMode>
		</LookAt>
		<styleUrl>#msn_ylw-pushpin</styleUrl>
		<Point>
			<gx:drawOrder>1</gx:drawOrder>
			<coordinates>13.2039668442084,43.12823542140178,0</coordinates>
		</Point>
	</Placemark>
	<Placemark>
		<name>33</name>
		<description>Prendi la strada sterrata sulla Destra;Take the dirt road on the right</description>
		<LookAt>
			<longitude>13.20298855737026</longitude>
			<latitude>43.13043165691462</latitude>
			<altitude>0</altitude>
			<heading>-0.01384476915250738</heading>
			<tilt>19.93760838657932</tilt>
			<range>185.2307829214053</range>
			<gx:altitudeMode>relativeToSeaFloor</gx:altitudeMode>
		</LookAt>
		<styleUrl>#msn_ylw-pushpin</styleUrl>
		<Point>
			<gx:drawOrder>1</gx:drawOrder>
			<coordinates>13.20291188371645,43.13039697062949,0</coordinates>
		</Point>
	</Placemark>
	<Placemark>
		<name>34</name>
		<description>Continua lungo il percorso;Continue along the path</description>
		<LookAt>
			<longitude>13.19657591128242</longitude>
			<latitude>43.13640199526602</latitude>
			<altitude>0</altitude>
			<heading>-0.01822955859862099</heading>
			<tilt>19.91700345868318</tilt>
			<range>693.5925310275653</range>
			<gx:altitudeMode>relativeToSeaFloor</gx:altitudeMode>
		</LookAt>
		<styleUrl>#msn_ylw-pushpin</styleUrl>
		<Point>
			<gx:drawOrder>1</gx:drawOrder>
			<coordinates>13.19601680575391,43.13670531354636,0</coordinates>
		</Point>
	</Placemark>
	<Placemark>
		<name>35</name>
		<description>Gira a Destra;Turn right</description>
		<LookAt>
			<longitude>13.19573922624293</longitude>
			<latitude>43.13801957107779</latitude>
			<altitude>0</altitude>
			<heading>-0.01886832333100469</heading>
			<tilt>18.45710005678719</tilt>
			<range>326.0944176591544</range>
			<gx:altitudeMode>relativeToSeaFloor</gx:altitudeMode>
		</LookAt>
		<styleUrl>#msn_ylw-pushpin</styleUrl>
		<Point>
			<gx:drawOrder>1</gx:drawOrder>
			<coordinates>13.19506547569458,43.13857898125692,0</coordinates>
		</Point>
	</Placemark>
	<Placemark>
		<name>36</name>
		<description>Gira a Sinistra;Turn Left</description>
		<LookAt>
			<longitude>13.19556810666213</longitude>
			<latitude>43.13837820589616</latitude>
			<altitude>0</altitude>
			<heading>-0.01898532905276255</heading>
			<tilt>18.45710005678715</tilt>
			<range>326.0944176612994</range>
			<gx:altitudeMode>relativeToSeaFloor</gx:altitudeMode>
		</LookAt>
		<styleUrl>#msn_ylw-pushpin</styleUrl>
		<Point>
			<gx:drawOrder>1</gx:drawOrder>
			<coordinates>13.19508869302987,43.13898181336143,0</coordinates>
		</Point>
	</Placemark>
	<Placemark>
		<name>37</name>
		<description>Gira a Destra;Turn right</description>
		<LookAt>
			<longitude>13.19543432682212</longitude>
			<latitude>43.13858784543549</latitude>
			<altitude>0</altitude>
			<heading>-0.01895812501418455</heading>
			<tilt>20.68988849645587</tilt>
			<range>176.9850057034368</range>
			<gx:altitudeMode>relativeToSeaFloor</gx:altitudeMode>
		</LookAt>
		<styleUrl>#msn_ylw-pushpin</styleUrl>
		<Point>
			<gx:drawOrder>1</gx:drawOrder>
			<coordinates>13.19485526655115,43.13903644755953,0</coordinates>
		</Point>
	</Placemark>
	<Placemark>
		<name>38</name>
		<description>Gira a Sinistra;Turn Left</description>
		<LookAt>
			<longitude>13.19527070531498</longitude>
			<latitude>43.13881777145507</latitude>
			<altitude>0</altitude>
			<heading>-0.01907000295748424</heading>
			<tilt>20.68988849645584</tilt>
			<range>176.9850056998697</range>
			<gx:altitudeMode>relativeToSeaFloor</gx:altitudeMode>
		</LookAt>
		<styleUrl>#msn_ylw-pushpin</styleUrl>
		<Point>
			<gx:drawOrder>1</gx:drawOrder>
			<coordinates>13.19488879858228,43.13912087071763,0</coordinates>
		</Point>
	</Placemark>
	<Placemark>
		<name>39</name>
		<description>Gira a Sinistra;Turn Left</description>
		<LookAt>
			<longitude>13.19527070531498</longitude>
			<latitude>43.13881777145507</latitude>
			<altitude>0</altitude>
			<heading>-0.01907000295748424</heading>
			<tilt>20.68988849645584</tilt>
			<range>176.9850056998697</range>
			<gx:altitudeMode>relativeToSeaFloor</gx:altitudeMode>
		</LookAt>
		<styleUrl>#msn_ylw-pushpin</styleUrl>
		<Point>
			<gx:drawOrder>1</gx:drawOrder>
			<coordinates>13.19464882607491,43.13932363502474,0</coordinates>
		</Point>
	</Placemark>
	<Placemark>
		<name>40</name>
		<description>Gira a Sinistra;Turn Left</description>
		<LookAt>
			<longitude>13.19527070531498</longitude>
			<latitude>43.13881777145507</latitude>
			<altitude>0</altitude>
			<heading>-0.01907000295748424</heading>
			<tilt>20.68988849645584</tilt>
			<range>176.9850056998697</range>
			<gx:altitudeMode>relativeToSeaFloor</gx:altitudeMode>
		</LookAt>
		<styleUrl>#msn_ylw-pushpin</styleUrl>
		<Point>
			<gx:drawOrder>1</gx:drawOrder>
			<coordinates>13.19437321772109,43.13912797019405,0</coordinates>
		</Point>
	</Placemark>
	<Placemark>
		<name>41</name>
		<description>Gira a Destra;Turn right</description>
		<LookAt>
			<longitude>13.19479689148728</longitude>
			<latitude>43.13872774072051</latitude>
			<altitude>0</altitude>
			<heading>-0.01939398228290806</heading>
			<tilt>20.68988849645584</tilt>
			<range>176.985005703336</range>
			<gx:altitudeMode>relativeToSeaFloor</gx:altitudeMode>
		</LookAt>
		<styleUrl>#msn_ylw-pushpin</styleUrl>
		<Point>
			<gx:drawOrder>1</gx:drawOrder>
			<coordinates>13.19469123958468,43.13884121782352,0</coordinates>
		</Point>
	</Placemark>
	<Placemark>
		<name>42</name>
		<description>Gira a Destra;Turn right</description>
		<LookAt>
			<longitude>13.19479689148728</longitude>
			<latitude>43.13872774072051</latitude>
			<altitude>0</altitude>
			<heading>-0.01939398228290806</heading>
			<tilt>20.68988849645584</tilt>
			<range>176.985005703336</range>
			<gx:altitudeMode>relativeToSeaFloor</gx:altitudeMode>
		</LookAt>
		<styleUrl>#msn_ylw-pushpin</styleUrl>
		<Point>
			<gx:drawOrder>1</gx:drawOrder>
			<coordinates>13.1945010667932,43.13872451053295,0</coordinates>
		</Point>
	</Placemark>
	<Placemark>
		<name>43</name>
		<description>Gira a Sinistra;Turn Left</description>
		<LookAt>
			<longitude>13.19479689148728</longitude>
			<latitude>43.13872774072051</latitude>
			<altitude>0</altitude>
			<heading>-0.01939398228290806</heading>
			<tilt>20.68988849645584</tilt>
			<range>176.985005703336</range>
			<gx:altitudeMode>relativeToSeaFloor</gx:altitudeMode>
		</LookAt>
		<styleUrl>#msn_ylw-pushpin</styleUrl>
		<Point>
			<gx:drawOrder>1</gx:drawOrder>
			<coordinates>13.19439246189733,43.13872448498158,0</coordinates>
		</Point>
	</Placemark>
	<Placemark>
		<name>44</name>
		<description>Prendi la strada a Destra;Take the road on the right</description>
		<LookAt>
			<longitude>13.19104017166804</longitude>
			<latitude>43.13598271570458</latitude>
			<altitude>0</altitude>
			<heading>-0.02196263084918139</heading>
			<tilt>20.68988849645587</tilt>
			<range>176.9850057001917</range>
			<gx:altitudeMode>relativeToSeaFloor</gx:altitudeMode>
		</LookAt>
		<styleUrl>#msn_ylw-pushpin</styleUrl>
		<Point>
			<gx:drawOrder>1</gx:drawOrder>
			<coordinates>13.19094784837293,43.13609486339836,0</coordinates>
		</Point>
	</Placemark>
	<Placemark>
		<name>45</name>
		<description>Gira a Sinistra e prendi la strada principale;Turn left and take the main road</description>
		<LookAt>
			<longitude>13.17328506922355</longitude>
			<latitude>43.13522562098463</latitude>
			<altitude>0</altitude>
			<heading>-0.03410241789447853</heading>
			<tilt>20.69005027186168</tilt>
			<range>227.9491859366641</range>
			<gx:altitudeMode>relativeToSeaFloor</gx:altitudeMode>
		</LookAt>
		<styleUrl>#msn_ylw-pushpin</styleUrl>
		<Point>
			<gx:drawOrder>1</gx:drawOrder>
			<coordinates>13.17302502708295,43.13531738815105,0</coordinates>
		</Point>
	</Placemark>
	<Placemark>
		<name>46</name>
		<description>Gira a Destra;Turn right</description>
		<LookAt>
			<longitude>13.1729493971647</longitude>
			<latitude>43.13490261092172</latitude>
			<altitude>0</altitude>
			<heading>-0.0343319218944619</heading>
			<tilt>20.69005027186159</tilt>
			<range>227.9491859367706</range>
			<gx:altitudeMode>relativeToSeaFloor</gx:altitudeMode>
		</LookAt>
		<styleUrl>#msn_ylw-pushpin</styleUrl>
		<Point>
			<gx:drawOrder>1</gx:drawOrder>
			<coordinates>13.17248056934372,43.13467914196726,0</coordinates>
		</Point>
	</Placemark>
	<Placemark>
		<name>47</name>
		<description>Gira a Sinistra dopo la casa;Turn left after the house</description>
		<LookAt>
			<longitude>13.17204955742836</longitude>
			<latitude>43.13528127781278</latitude>
			<altitude>0</altitude>
			<heading>-0.03494716258169783</heading>
			<tilt>20.69005027186159</tilt>
			<range>227.949185934333</range>
			<gx:altitudeMode>relativeToSeaFloor</gx:altitudeMode>
		</LookAt>
		<styleUrl>#msn_ylw-pushpin</styleUrl>
		<Point>
			<gx:drawOrder>1</gx:drawOrder>
			<coordinates>13.17145812280321,43.13561631612726,0</coordinates>
		</Point>
	</Placemark>
	<Placemark>
		<name>48</name>
		<description>Continua a Destra e vai verso la strada principale;Continue right and go towards the main road</description>
		<LookAt>
			<longitude>13.16981435488619</longitude>
			<latitude>43.13570499549884</latitude>
			<altitude>0</altitude>
			<heading>-0.03647543792584138</heading>
			<tilt>20.69005027186159</tilt>
			<range>227.94918593484</range>
			<gx:altitudeMode>relativeToSeaFloor</gx:altitudeMode>
		</LookAt>
		<styleUrl>#msn_ylw-pushpin</styleUrl>
		<Point>
			<gx:drawOrder>1</gx:drawOrder>
			<coordinates>13.16933287229537,43.13560626271532,0</coordinates>
		</Point>
	</Placemark>
	<Placemark>
		<name>49</name>
		<description>Prosegui girando a Destra;Continue turning right</description>
		<LookAt>
			<longitude>13.16924266235795</longitude>
			<latitude>43.13572393243832</latitude>
			<altitude>0</altitude>
			<heading>-0.03687940862337435</heading>
			<tilt>20.46590773266843</tilt>
			<range>199.0806219633072</range>
			<gx:altitudeMode>relativeToSeaFloor</gx:altitudeMode>
		</LookAt>
		<styleUrl>#msn_ylw-pushpin</styleUrl>
		<Point>
			<gx:drawOrder>1</gx:drawOrder>
			<coordinates>13.16844591637228,43.13578468834654,0</coordinates>
		</Point>
	</Placemark>
	<Placemark>
		<name>50</name>
		<description>Gira a Sinistra;Turn Left</description>
		<LookAt>
			<longitude>13.16982831171542</longitude>
			<latitude>43.13597440297481</latitude>
			<altitude>0</altitude>
			<heading>-0.03647898242957689</heading>
			<tilt>20.46590773266842</tilt>
			<range>199.0806219611896</range>
			<gx:altitudeMode>relativeToSeaFloor</gx:altitudeMode>
		</LookAt>
		<styleUrl>#msn_ylw-pushpin</styleUrl>
		<Point>
			<gx:drawOrder>1</gx:drawOrder>
			<coordinates>13.17018107271249,43.13625250482349,0</coordinates>
		</Point>
	</Placemark>
	<Placemark>
		<name>51</name>
		<description>Continua su questa strada;Continue on this path</description>
		<LookAt>
			<longitude>13.16981439994864</longitude>
			<latitude>43.13617600116727</latitude>
			<altitude>0</altitude>
			<heading>-0.03648849636619737</heading>
			<tilt>20.46590773266838</tilt>
			<range>199.0806219601446</range>
			<gx:altitudeMode>relativeToSeaFloor</gx:altitudeMode>
		</LookAt>
		<styleUrl>#msn_ylw-pushpin</styleUrl>
		<Point>
			<gx:drawOrder>1</gx:drawOrder>
			<coordinates>13.16940540626308,43.13640367784783,0</coordinates>
		</Point>
	</Placemark>
	<Placemark>
		<name>52</name>
		<description>Continua su questa strada;Continue on this path</description>
		<LookAt>
			<longitude>13.17097962147873</longitude>
			<latitude>43.13614783913614</latitude>
			<altitude>0</altitude>
			<heading>-0.03554978011213682</heading>
			<tilt>23.37914950765294</tilt>
			<range>303.2712148492977</range>
			<gx:altitudeMode>relativeToSeaFloor</gx:altitudeMode>
		</LookAt>
		<styleUrl>#msn_ylw-pushpin</styleUrl>
		<Point>
			<gx:drawOrder>1</gx:drawOrder>
			<coordinates>13.17126783445315,43.13675002391516,0</coordinates>
		</Point>
	</Placemark>
	<Placemark>
		<name>53</name>
		<description>Continua su questa strada;Continue on this path</description>
		<LookAt>
			<longitude>13.17225878354158</longitude>
			<latitude>43.13648607393332</latitude>
			<altitude>0</altitude>
			<heading>-0.03467517431147555</heading>
			<tilt>23.37914950765292</tilt>
			<range>303.2712148472227</range>
			<gx:altitudeMode>relativeToSeaFloor</gx:altitudeMode>
		</LookAt>
		<styleUrl>#msn_ylw-pushpin</styleUrl>
		<Point>
			<gx:drawOrder>1</gx:drawOrder>
			<coordinates>13.17277571599082,43.13673709108007,0</coordinates>
		</Point>
	</Placemark>
	<Placemark>
		<name>54</name>
		<description>Continua su questa strada;Continue on this path</description>
		<LookAt>
			<longitude>13.17225878354158</longitude>
			<latitude>43.13648607393332</latitude>
			<altitude>0</altitude>
			<heading>-0.03467517431147555</heading>
			<tilt>23.37914950765292</tilt>
			<range>303.2712148472227</range>
			<gx:altitudeMode>relativeToSeaFloor</gx:altitudeMode>
		</LookAt>
		<styleUrl>#msn_ylw-pushpin</styleUrl>
		<Point>
			<gx:drawOrder>1</gx:drawOrder>
			<coordinates>13.17184273839127,43.13730588300394,0</coordinates>
		</Point>
	</Placemark>
	<Placemark>
		<name>55</name>
		<description>All&apos;incrocio gira a Sinistra e immettiti sulla strada principale;At the crossroads turn left and join the main road</description>
		<LookAt>
			<longitude>13.17270396215349</longitude>
			<latitude>43.13683846682439</latitude>
			<altitude>0</altitude>
			<heading>-0.03437079833913874</heading>
			<tilt>23.37977483735049</tilt>
			<range>478.7351504390964</range>
			<gx:altitudeMode>relativeToSeaFloor</gx:altitudeMode>
		</LookAt>
		<styleUrl>#msn_ylw-pushpin</styleUrl>
		<Point>
			<gx:drawOrder>1</gx:drawOrder>
			<coordinates>13.17285264652303,43.1377151134749,0</coordinates>
		</Point>
	</Placemark>
	<Placemark>
		<name>56</name>
		<description>Gira a Sinistra;Turn Left</description>
		<LookAt>
			<longitude>13.199605354761</longitude>
			<latitude>43.14093159508227</latitude>
			<altitude>0</altitude>
			<heading>-0.0159766530601841</heading>
			<tilt>23.37977483735049</tilt>
			<range>478.7351504402229</range>
			<gx:altitudeMode>relativeToSeaFloor</gx:altitudeMode>
		</LookAt>
		<styleUrl>#msn_ylw-pushpin</styleUrl>
		<Point>
			<gx:drawOrder>1</gx:drawOrder>
			<coordinates>13.19965045369968,43.14068115346932,0</coordinates>
		</Point>
	</Placemark>
	<Placemark>
		<name>57</name>
		<description>Gira a Destra su SP 502;Turn right onto SP 502</description>
		<LookAt>
			<longitude>13.20695641101737</longitude>
			<latitude>43.14352758243339</latitude>
			<altitude>0</altitude>
			<heading>-0.01094999964454436</heading>
			<tilt>23.37977483735047</tilt>
			<range>478.7351504378861</range>
			<gx:altitudeMode>relativeToSeaFloor</gx:altitudeMode>
		</LookAt>
		<styleUrl>#msn_ylw-pushpin</styleUrl>
		<Point>
			<gx:drawOrder>1</gx:drawOrder>
			<coordinates>13.20697728680231,43.14424339652228,0</coordinates>
		</Point>
	</Placemark>
	<Placemark>
		<name>58</name>
		<description>Alla rotatoria prendi la 4 uscita su Via A. Moro;At the roundabout take the 4th exit onto Via A. Moro</description>
		<LookAt>
			<longitude>13.22359447397238</longitude>
			<latitude>43.14173526897311</latitude>
			<altitude>0</altitude>
			<heading>0.000427316588303982</heading>
			<tilt>23.3797748373505</tilt>
			<range>478.7351504380451</range>
			<gx:altitudeMode>relativeToSeaFloor</gx:altitudeMode>
		</LookAt>
		<styleUrl>#msn_ylw-pushpin</styleUrl>
		<Point>
			<gx:drawOrder>1</gx:drawOrder>
			<coordinates>13.22324073437715,43.14175099374872,0</coordinates>
		</Point>
	</Placemark>
	<Placemark>
		<name>59</name>
		<description>Prendi via A. Moro;Take A. Moro Street</description>
		<LookAt>
			<longitude>13.22359447397238</longitude>
			<latitude>43.14173526897311</latitude>
			<altitude>0</altitude>
			<heading>0.000427316588303982</heading>
			<tilt>23.3797748373505</tilt>
			<range>478.7351504380451</range>
			<gx:altitudeMode>relativeToSeaFloor</gx:altitudeMode>
		</LookAt>
		<styleUrl>#msn_ylw-pushpin</styleUrl>
		<Point>
			<gx:drawOrder>1</gx:drawOrder>
			<coordinates>13.223313033974,43.14201985963079,0</coordinates>
		</Point>
	</Placemark>
	<Placemark>
		<name>60</name>
		<description>Alla rotatoria prendi la 1 uscita;At the roundabout take the 1st exit</description>
		<LookAt>
			<longitude>13.22429734888158</longitude>
			<latitude>43.14583267419477</latitude>
			<altitude>0</altitude>
			<heading>0.0009079125352114286</heading>
			<tilt>23.37977483735047</tilt>
			<range>478.7351504353085</range>
			<gx:altitudeMode>relativeToSeaFloor</gx:altitudeMode>
		</LookAt>
		<styleUrl>#msn_ylw-pushpin</styleUrl>
		<Point>
			<gx:drawOrder>1</gx:drawOrder>
			<coordinates>13.22394013509465,43.14595437277114,0</coordinates>
		</Point>
	</Placemark>
	<Placemark>
		<name>61</name>
		<description>Arrivo;END</description>
		<LookAt>
			<longitude>13.22429734888158</longitude>
			<latitude>43.14583267419477</latitude>
			<altitude>0</altitude>
			<heading>0.0009079125352114286</heading>
			<tilt>23.37977483735047</tilt>
			<range>478.7351504353085</range>
			<gx:altitudeMode>relativeToSeaFloor</gx:altitudeMode>
		</LookAt>
		<styleUrl>#msn_ylw-pushpin</styleUrl>
		<Point>
			<gx:drawOrder>1</gx:drawOrder>
			<coordinates>13.22434851922516,43.14598297325625,0</coordinates>
		</Point>
	</Placemark>
</Document>
</kml>
