<?xml version="1.0" encoding="UTF-8"?>
<kml xmlns="http://www.opengis.net/kml/2.2" xmlns:gx="http://www.google.com/kml/ext/2.2" xmlns:kml="http://www.opengis.net/kml/2.2" xmlns:atom="http://www.w3.org/2005/Atom">
<Document id="1ha8NvrgJhmkucyYgegnKZn9U29Y414tz">
	<name>AR</name>
	<open>1</open>
	<atom:link rel="app" href="https://www.google.com/earth/about/versions/#earth-pro" title="Google Earth Pro 7.3.6.10441"></atom:link><gx:CascadingStyle kml:id="__managed_style_2E16995C753768FA8E80">
		<Style>
			<IconStyle>
				<scale>1.2</scale>
				<Icon>
					<href>https://earth.google.com/earth/document/icon?color=1976d2<![CDATA[&]]>id=2345<![CDATA[&]]>scale=4</href>
				</Icon>
				<hotSpot x="64" y="128" xunits="pixels" yunits="insetPixels"></hotSpot>
			</IconStyle>
			<LabelStyle>
			</LabelStyle>
			<LineStyle>
				<color>ff2dc0fb</color>
				<width>6</width>
			</LineStyle>
			<PolyStyle>
				<color>40ffffff</color>
			</PolyStyle>
			<BalloonStyle>
			</BalloonStyle>
		</Style>
	</gx:CascadingStyle><gx:CascadingStyle kml:id="__managed_style_17CEEA4A643768FA8E80">
		<Style>
			<IconStyle>
				<Icon>
					<href>https://earth.google.com/earth/document/icon?color=1976d2<![CDATA[&]]>id=2345<![CDATA[&]]>scale=4</href>
				</Icon>
				<hotSpot x="64" y="128" xunits="pixels" yunits="insetPixels"></hotSpot>
			</IconStyle>
			<LabelStyle>
			</LabelStyle>
			<LineStyle>
				<color>ff2dc0fb</color>
				<width>4</width>
			</LineStyle>
			<PolyStyle>
				<color>40ffffff</color>
			</PolyStyle>
			<BalloonStyle>
			</BalloonStyle>
		</Style>
	</gx:CascadingStyle><gx:CascadingStyle kml:id="__managed_style_2D34D2923A3768F65009">
		<Style>
			<IconStyle>
				<scale>1.2</scale>
				<Icon>
					<href>https://earth.google.com/earth/document/icon?color=1976d2<![CDATA[&]]>id=2000<![CDATA[&]]>scale=4</href>
				</Icon>
				<hotSpot x="64" y="128" xunits="pixels" yunits="insetPixels"></hotSpot>
			</IconStyle>
			<LabelStyle>
			</LabelStyle>
			<LineStyle>
				<color>ff2dc0fb</color>
				<width>6</width>
			</LineStyle>
			<PolyStyle>
				<color>40ffffff</color>
			</PolyStyle>
			<BalloonStyle>
			</BalloonStyle>
		</Style>
	</gx:CascadingStyle><gx:CascadingStyle kml:id="__managed_style_15FCE063D83768F65009">
		<Style>
			<IconStyle>
				<Icon>
					<href>https://earth.google.com/earth/document/icon?color=1976d2<![CDATA[&]]>id=2000<![CDATA[&]]>scale=4</href>
				</Icon>
				<hotSpot x="64" y="128" xunits="pixels" yunits="insetPixels"></hotSpot>
			</IconStyle>
			<LabelStyle>
			</LabelStyle>
			<LineStyle>
				<color>ff2dc0fb</color>
				<width>4</width>
			</LineStyle>
			<PolyStyle>
				<color>40ffffff</color>
			</PolyStyle>
			<BalloonStyle>
			</BalloonStyle>
		</Style>
	</gx:CascadingStyle>
	<StyleMap id="__managed_style_07305EC1343768F65009">
		<Pair>
			<key>normal</key>
			<styleUrl>#failed90000</styleUrl>
		</Pair>
		<Pair>
			<key>highlight</key>
			<styleUrl>#failed8000</styleUrl>
		</Pair>
	</StyleMap>
	<Style id="failed8000">
		<LineStyle>
			<color>ffff0000</color>
			<width>2</width>
		</LineStyle>
	</Style>
	<Style id="failed90000">
		<LineStyle>
			<color>ffff0000</color>
			<width>2</width>
		</LineStyle>
	</Style>
	<StyleMap id="m_ylw-pushpin">
		<Pair>
			<key>normal</key>
			<styleUrl>#s_ylw-pushpin</styleUrl>
		</Pair>
		<Pair>
			<key>highlight</key>
			<styleUrl>#s_ylw-pushpin_hl</styleUrl>
		</Pair>
	</StyleMap>
	<Style id="s_ylw-pushpin">
		<IconStyle>
			<scale>1.1</scale>
			<Icon>
				<href>http://maps.google.com/mapfiles/kml/pushpin/red-pushpin.png</href>
			</Icon>
			<hotSpot x="20" y="2" xunits="pixels" yunits="pixels"/>
		</IconStyle>
		<ListStyle>
		</ListStyle>
	</Style>
	<Style id="s_ylw-pushpin_hl">
		<IconStyle>
			<scale>1.3</scale>
			<Icon>
				<href>http://maps.google.com/mapfiles/kml/pushpin/red-pushpin.png</href>
			</Icon>
			<hotSpot x="20" y="2" xunits="pixels" yunits="pixels"/>
		</IconStyle>
		<ListStyle>
		</ListStyle>
	</Style>
	<Placemark id="5446A51882000001">
		<name>AR</name>
		<styleUrl>#__managed_style_07305EC1343768F65009</styleUrl>
		<LineString>
			<coordinates>
				13.11035528817194,43.08430791742176,422.17 13.10905605994797,43.08377836173998,441.8199999999999 13.10853,43.08395,437.39 13.10823,43.08401,433.8299999999999 13.10793,43.08397,430.36 13.10732,43.08386,423.08 13.10671,43.08372,415.79 13.1061,43.08363,410.78 13.10584,43.08365,409.22 13.10564,43.08369,408.0199999999999 13.10527,43.08364,405.7799999999999 13.10495,43.08345,403.3 13.10475,43.08326,401.32 13.10469,43.08318,402.36 13.10472,43.08288,407.4300000000001 13.10444,43.08209,420.9299999999999 13.10433,43.08198,423.13 13.1042,43.0819,422.67 13.10408,43.08184,422.2499999999998 13.10322,43.08164,420.1199999999999 13.10315,43.08162,419.48 13.10242,43.08121,427.68 13.10187,43.08104,433.0699999999999 13.10134,43.08093,431.28 13.10079,43.08089,424.73 13.09953,43.08101,409.2699999999999 13.09902,43.08082,408.2699999999999 13.09874,43.08066,407.6 13.09847,43.08065,407.11 13.09821,43.08055,406.55 13.0979,43.08037,405.8099999999999 13.09783,43.08016,409.61 13.09817,43.07988,418.78 13.09806,43.07975,417.55 13.09781,43.07963,418.3299999999999 13.0975,43.07954,419.18 13.09726,43.07934,420.17 13.0976,43.07938,421.08 13.09708,43.07914,420.91 13.09597,43.07847,420.2799999999999 13.0957,43.07837,420.14 13.09534,43.07836,419.99 13.0947,43.07845,419.7099999999999 13.0944,43.07854,416.45 13.09403,43.07852,411.66 13.09384,43.07841,408.56 13.09347,43.07803,408.86 13.09307,43.0778,409.1199999999998 13.09251,43.07757,409.4400000000001 13.09206,43.07727,409.74 13.09115,43.07634,421.6999999999998 13.09073,43.07609,421.4499999999999 13.09004,43.0759,418.29 13.0893,43.07573,414.5299999999999 13.08862,43.07576,411.2300000000001 13.0885,43.07579,410.135 13.08828,43.07585,409.5875 13.0882,43.07587,409.04 13.08803,43.07596,408.9700000000001 13.08799,43.07598,408.9 13.08787,43.07582,409.34 13.08775,43.07555,410.03 13.08759,43.07506,411.2499999999999 13.08734,43.07454,412.5599999999998 13.08734,43.07439,412.9300000000001 13.08745,43.07415,413.55 13.08744,43.07396,414 13.08726,43.07361,414.8899999999999 13.08715,43.07331,415.65 13.08712,43.07308,416.1900000000001 13.08691,43.07268,417.2300000000001 13.08685,43.07252,417.63 13.08688,43.07232,418.1199999999999 13.08698,43.07207,418.7500000000001 13.08692,43.07168,419.7 13.0868,43.07135,420.52 13.08654,43.07076,422.0199999999999 13.08621,43.07053,422.82 13.08609067849851,43.07033448213721,422.82 13.08613,43.07011,425.69 13.08651790081395,43.0699375829261,428.23 13.08695,43.06974,431.36 13.08710303044198,43.0696686381583,432.92 13.0871990791612,43.06959882794221,432.8800000000001 13.08713424992474,43.06951569948146,433.1 13.08636,43.06881,434.2 13.08611236096599,43.06859762680673,433.5400000000001 13.0858845012428,43.06834115381155,432.8899999999999 13.08581220285047,43.06794165649245,431.83 13.08555543564973,43.06694832398319,430.85 13.08540130425897,43.06630669755193,432.77 13.08531680213917,43.06600777830504,433.6200000000001 13.08514479303425,43.06541893498977,435.2099999999999 13.08508542199992,43.0652752213382,435.35 13.08500979524249,43.06494910782244,436.86 13.08491158099743,43.06454576390963,438.8899999999999 13.08487328165495,43.06440525609736,439.79 13.08475,43.06432,440.13 13.08449,43.06405,441.41 13.08426,43.06378,442.6100000000001 13.08424,43.06344,443.1999999999999 13.08425,43.06342,443.3 13.08435,43.06324,443.73 13.08451,43.06308,444.3299999999999 13.08461,43.06294,444.79 13.08465085537066,43.06277184961936,445.3200000000001 13.08465279874085,43.0624573057341,446.24 13.08465,43.06245,446.3699999999999 13.08473,43.06239,446.49 13.08478,43.06228,446.87 13.08481,43.06213,447.36 13.08479,43.06183,447.6799999999999 13.08475856207927,43.06181337591238,447.7300000000001 13.08464,43.06177,446.91 13.08454,43.06158,446.88 13.08441667675946,43.06088254532509,446.76 13.08429,43.06012,447.1999999999999 13.08423473242996,43.06006160696825,447.2400000000001 13.08376,43.05923,448.6999999999999 13.08369,43.05909,448.6999999999999 13.08366,43.05903,449.3099999999999 13.08365,43.05871,452.3099999999998 13.08359171220471,43.05861248442758,453.36 13.08352621319372,43.05855954902177,453.84 13.08347242201195,43.05848077824356,454.57 13.08333,43.0582,454.99 13.08286,43.05795,455.5699999999999 13.08258,43.05776,455.96 13.08246,43.05755,456.2099999999999 13.08245974881451,43.05755002124717,456.2099999999999 13.08198,43.05732,456.2099999999999 13.08134,43.05657,456.23 13.07953,43.05514,464.98 13.07918,43.05493,467.58 13.07857,43.05438,473.05 13.07837,43.05431,472.17 13.07803,43.05402,470.1199999999999 13.0779,43.05378,468.87 13.07777,43.05372,471.28 13.07735,43.05376,477.49 13.07699,43.05366,488.32 13.07671,43.05354,497.22 13.07656,43.0533,500.98 13.07652,43.05315,500.66 13.07652,43.05304,500.5299999999999 13.07675,43.05265,490.1299999999999 13.07678,43.05233,486.49 13.07686,43.05216,484.5400000000001 13.07682,43.05195,490.0299999999999 13.07703,43.05196,490.7400000000001 13.07746,43.05171,503.13 13.07781,43.05199,495.63 13.07796,43.05203,494.24 13.078,43.05204,492.85 13.07815,43.05231,487.84 13.07802,43.05247,483.48 13.07785,43.05261,479.11 13.07805,43.05266,479.2499999999999 13.07825,43.05265,479.3699999999999 13.07858,43.05285,479.64 13.07894,43.05317,479.99 13.07918,43.05343,480.21 13.07924,43.05369,474.82 13.07924,43.0537,473.29 13.07924,43.05369,474.82 13.07944,43.05396,471.76 13.07977,43.0545,465.74 13.08076,43.05547,463.54 13.081,43.05573,463.5199999999999 13.08142,43.05613,463.48 13.08169,43.05642,463.4599999999999 13.08189,43.0567,463.44 13.08195,43.05673,463.43 13.08197,43.05662,463.44 13.08198,43.0566,463.44 13.08223,43.05713,459.4399999999998 13.08248497121302,43.05754582444887,456.2099999999999 13.08259482726106,43.05775455472116,455.96 13.08287929822093,43.05793797498261,455.5699999999999 13.08334742796907,43.05819387512547,454.99 13.08349715735027,43.0584724970517,454.57 13.08355594419082,43.05856060552824,453.84 13.08362649817138,43.05859603136247,453.36 13.08399620919519,43.05816166189376,454.7805023193359 13.08466409094433,43.05765775177721,451.3319854736328 13.08529567477254,43.05748801270053,451.3319854736328 13.08641365074436,43.05681966051816,457.573501586914 13.08686374496711,43.05681966051816,457.573501586914 13.08701197710068,43.05696050547277,457.573501586914 13.08710154998622,43.0570370056622,457.573501586914 13.0871779810029,43.05697122509765,457.573501586914 13.08727327397765,43.057028032544,457.573501586914 13.08706701332585,43.05729175130719,457.573501586914 13.08677,43.05757,456.29 13.08626,43.05798,453.11 13.08594152178992,43.05852817862954,452.67 13.08570845223017,43.05897495738068,452.29 13.08567,43.05903,452.3299999999999 13.08554,43.05924,452.3700000000001 13.08546,43.05946,452.44 13.08527,43.05964,451.8699999999999 13.08507,43.05989,451.16 13.08495,43.06014,450.4999999999999 13.08478,43.06059,449.3399999999999 13.08477,43.06078,448.9299999999998 13.08478,43.06082,449.68 13.0847,43.06149,447.69 13.08472755327355,43.06172949627647,446.91 13.08485332333997,43.0617733290964,447.7300000000001 13.08486140748529,43.06182982870696,447.6799999999999 13.08485253826633,43.06212424955411,447.36 13.08484640239602,43.06227863253277,446.87 13.08479871954697,43.06239818469881,446.49 13.08473461175441,43.06244445065236,446.3699999999999 13.08467104003617,43.0625278026655,445.7815093994141 13.08478183355879,43.06252505870799,445.7815093994141 13.08499027560953,43.06253466255882,446.4939880371094 13.08508416842497,43.06271576345998,447.4109954833983 13.08513299270211,43.06288863199876,447.4109954833983 13.0850935577198,43.06314244603968,445.5879974365233 13.08508988368544,43.06328940403966,445.5879974365233 13.08523816706039,43.06343345595199,442.2754974365234 13.08490736574409,43.06435600881434,442.2799999999999 13.08491946757666,43.06444876866634,439.79 13.08494205495495,43.06452599691869,438.8899999999999 13.08505924167606,43.06496909895005,436.86 13.08513710319397,43.06526773077487,435.35 13.08518113859571,43.06538157808659,435.2099999999999 13.08534830635437,43.06600265648985,433.6200000000001 13.08542954430883,43.06631441214105,432.77 13.08559513450343,43.06695166901925,430.85 13.08583901957141,43.06793957557266,431.83 13.08591664236168,43.06835552659539,432.8899999999999 13.08613319671797,43.06858717477192,433.5400000000001 13.08639125742154,43.06879400167534,434.2 13.0870468490345,43.06941619343336,433.1 13.08722448306262,43.06955798861213,432.8399999999999 13.08796,43.06994,436.47 13.08962,43.07097,441.2499999999999 13.08981,43.07108,446.0199999999999 13.0902,43.07117,449.8699999999999 13.09054,43.07116,453.3800000000001 13.09102859326039,43.07111287239356,458.47 13.09167,43.07114,462.53 13.09236,43.07138,463.9 13.0927,43.07166,464.8199999999999 13.09277,43.072,462.77 13.09271,43.07224,463.27 13.09264,43.07248,463.7699999999999 13.09265,43.07259,465.05 13.0927,43.07269,466.3 13.0928,43.07276,467.5699999999999 13.09325,43.07278,474.82 13.0939,43.07298,486.3999999999999 13.0945,43.07312,488.86 13.09515,43.07319,491.51 13.09571,43.07343,494.16 13.09609,43.07375,493.3000000000001 13.09624,43.07399,492.7500000000001 13.09639,43.07408,492.4499999999999 13.09672,43.07402,497.8 13.09695,43.07401,502.3999999999999 13.09711,43.07412,506.57 13.09703,43.07455,499.5599999999998 13.09716,43.07498,492.27 13.09793,43.07538,505.66 13.09938,43.07571,521.64 13.09982,43.07591,521.8 13.1001,43.07608,521.92 13.10048,43.07625,522.08 13.10078,43.07627,525.13 13.101,43.07627,527.4400000000001 13.10155,43.07615,533.55 13.10166,43.0762,532.88 13.10192,43.07659,528.86 13.1023,43.07678,533.65 13.10256,43.07689,536.87 13.10282,43.07694,539.83 13.10298,43.07688,541.66 13.10334,43.07678,546.49 13.10424,43.07675,557.42 13.10435,43.07695,556.52 13.1045,43.07699,556.02 13.10435,43.07695,556.52 13.10424,43.07675,557.42 13.10334,43.07678,546.49 13.10298,43.07688,541.66 13.10282,43.07694,539.83 13.10256,43.07689,536.87 13.1023,43.07678,533.65 13.10192,43.07659,528.86 13.10166,43.0762,532.88 13.10155,43.07615,533.55 13.101,43.07627,527.4400000000001 13.10078,43.07627,525.13 13.10048,43.07625,522.08 13.1001,43.07608,521.92 13.09982,43.07591,521.8 13.09938,43.07571,521.64 13.09932,43.0757,513.65 13.09938,43.07571,521.64 13.09982,43.07591,521.8 13.1001,43.07608,521.92 13.10048,43.07625,522.08 13.10078,43.07627,525.13 13.101,43.07627,527.4400000000001 13.10155,43.07615,533.55 13.10166,43.0762,532.88 13.10192,43.07659,528.86 13.1023,43.07678,533.65 13.10256,43.07689,536.87 13.10282,43.07694,539.83 13.10298,43.07688,541.66 13.10334,43.07678,546.49 13.10424,43.07675,557.42 13.10435,43.07695,556.52 13.1046,43.07702,555.52 13.10502,43.0769,560.91 13.10553,43.07655,573.4 13.10579,43.07655,570.72 13.10614,43.077,557.91 13.10637,43.07721,551.27 13.10675,43.07721,554.9 13.10698,43.07733,558.01 13.10694,43.0775,552.3 13.1067,43.07772,541.97 13.10649,43.07789,533.54 13.10658,43.07801,532.1 13.10727,43.0781,543.98 13.10762,43.07836,541.26 13.10787,43.07869,531.38 13.10794,43.07918,517.47 13.10802,43.07944,510.03 13.10853,43.0797,511.4 13.10874,43.07992,512.21 13.10885,43.08014,506.4299999999998 13.10872,43.08026,501.85 13.10854110880602,43.08024228210652,499.73 13.10846594755792,43.08018584403872,497.61 13.10845,43.08005,502.92 13.10809,43.07989,500.07 13.10708,43.07986,484.6499999999999 13.1066,43.0798,477.3399999999999 13.10616,43.07964,475.1799999999998 13.10583,43.07914,487.22 13.10561,43.07914,489.14 13.10517,43.07973,478.8 13.10466,43.08026,473.7499999999998 13.10453,43.08061,464.66 13.10435,43.08079,459.04 13.10402,43.08089,454.0299999999999 13.10397,43.08097,451.5099999999999 13.10408,43.08102,449.9700000000001 13.1043,43.08102,450.97 13.1044,43.0811,449.03 13.10435,43.08117,447.6199999999999 13.10387,43.08123,444.73 13.10374,43.08129,438.54 13.10505,43.0816,435.06 13.10528,43.0817,432.3699999999999 13.10544,43.08197,428.4 13.10562,43.08242,423.4900000000001 13.1061,43.08296,422.5099999999998 13.10706,43.08359,425.55 13.10755,43.08378,430.3099999999998 13.10796,43.08388,436.1 13.10843,43.08384,442.42 13.10906,43.08372,450 13.10945,43.08384,442.0299999999999 13.10983308954652,43.08401263349158,434.49 13.11025450274961,43.08420573306823,434.49 13.11133592359704,43.08458622668245,434.49 13.11154060341304,43.08480688437238,434.49 13.11202812479244,43.08555187528899,434.49 13.11243621492849,43.08589466722788,434.49 13.11368742411033,43.08622112288324,434.49 13.11409376834009,43.08633623055123,434.49 13.11553710679797,43.08677127443559,434.49 13.11587847737931,43.08695273394042,434.49 13.11658803995284,43.08739901989871,434.49 13.11804023639566,43.0882213646448,434.49 13.11820535012553,43.08830218720466,434.49 13.11783148258948,43.08880480749217,434.49 13.11786080168775,43.08887607965463,434.49 13.11795624341895,43.0889926722751,434.49 13.11814747366958,43.08911151971533,434.49 13.11830430340388,43.08922416145562,434.49 13.11840113921853,43.08929125540061,434.49 13.11846543334969,43.08942636385435,434.49 13.1184418002136,43.08957397490065,434.49 13.11837651509453,43.08979264353519,434.49 13.11833860631783,43.09001779788516,434.49 13.1183516954429,43.09010013554246,434.49 13.11886218889926,43.09092798101106,434.49 13.11885499439169,43.09097287655607,434.49 13.11818216563634,43.09161760218334,434.49 13.11820417229871,43.09162983331783,434.49 13.1185005873809,43.09177696907202,434.49 13.11873481935885,43.09188506563394,434.49 13.11899224615119,43.09199835293698,434.49 13.11915739461294,43.09203314775679,434.49 13.11930389300781,43.09206677401399,434.49 13.11964739505052,43.09209598409327,434.49 13.11988029042069,43.09210603295476,434.49 13.12015869340286,43.09214794666902,434.49 13.12035414857109,43.09219228852204,434.49 13.12062369292221,43.09230086456041,434.49 13.12083975086227,43.09252647490165,434.49 13.12102034602389,43.0927533585845,434.49 13.12163737880494,43.0935454373621,434.49 13.12230432690121,43.094406452052,434.49 13.12257928714621,43.09492714646045,434.49 13.12273231739294,43.09546928862915,434.49 13.12277021363175,43.09612284297656,434.49 13.12273881316252,43.09702896722585,434.49 13.12283160956328,43.09725674111633,434.49 13.1230710840546,43.09754235935998,434.49 13.12366338162449,43.09820653300691,434.49 13.12468077967886,43.09926001769251,434.49 13.12490679043223,43.09936764658307,434.49 13.12551040157921,43.09945303511314,434.49 13.12562076675773,43.09945842880578,434.49 13.12582287714276,43.0995505594904,434.49 13.12604280525298,43.09967622122555,434.49 13.1261456037172,43.0996944704489,434.49 13.12624025451336,43.09951211571202,434.49 13.12637874605052,43.09930398740073,434.49 13.12635822723547,43.09912210359679,434.49 13.12628960029608,43.09876770041839,434.49 13.12614691693812,43.09854696774575,434.49 13.12595447253045,43.09817298319872,434.49 13.12576442138458,43.09786695938447,434.49 13.12572895728657,43.09776559602493,434.49 13.12570652553493,43.09765492441554,434.49 13.12576888370484,43.09753886454412,434.49 13.1265184228549,43.09685783666761,434.49 13.12684905369101,43.09674576371058,434.49 13.12737779367063,43.0968474577525,434.49 13.12777687052306,43.09686419927506,434.49 13.12798374977733,43.09678994099392,434.49 13.12806324796284,43.09660419433321,434.49 13.1280410288572,43.09634702674101,434.49 13.12802669502836,43.09576963424963,434.49 13.12805135940916,43.09555787906377,434.49 13.1281522081904,43.09548420839631,434.49 13.12841418092703,43.09549760238647,434.49 13.12864003263252,43.09553923332904,434.49 13.12904250738715,43.0955218538947,434.49 13.12931728899695,43.09546720447819,434.49 13.129604918587,43.09533445089301,434.49 13.12972847953264,43.09520599521995,434.49 13.12988078602028,43.09501486023348,434.49 13.12999861017483,43.09492819796622,434.49 13.13021693361212,43.0948389101566,434.49 13.13084397315397,43.09456444493794,434.49 13.13125550029603,43.09434609087896,434.49 13.13154862022134,43.09415363097185,434.49 13.1318563907867,43.09402822317215,434.49 13.13227952649649,43.09403292622876,434.49 13.13295562066764,43.09408807859022,434.49 13.13330637861412,43.09402178725095,434.49 13.13368325318989,43.09394021605561,434.49 13.13414073769221,43.09393148752049,434.49 13.13451141327624,43.09402356486028,434.49 13.13480805849079,43.09412090170648,434.49 13.13539727208169,43.09428490676662,434.49 13.13559795945663,43.09430007800874,434.49 13.135748849862,43.09432507433129,434.49 13.13596515721905,43.09444428640863,434.49 13.13614289227718,43.0944853104794,434.49 13.13629420354777,43.09450091018423,434.49 13.1364497237037,43.09450228910659,434.49 13.13668703415511,43.09448890127685,434.49 13.13686967865148,43.09448849057659,434.49 13.13714878223922,43.09446577081881,434.49 13.1373377014999,43.09445323771688,434.49 13.13758292933284,43.09446093280391,434.49 13.13769332375864,43.09447437567616,434.49 13.13783267712932,43.09452147881557,434.49 13.13789382347595,43.09455367304496,434.49 13.13796996511556,43.09460848512067,434.49 13.13803933210987,43.09463793663192,434.49 13.13808881856524,43.09461604160575,434.49 13.13814289433858,43.09456829587388,434.49 13.13815534913112,43.09449327318168,434.49 13.13819279088893,43.09440069288121,434.49 13.13830789925211,43.09429988467156,434.49 13.13840587065197,43.0942327165704,434.49 13.13849257914273,43.09419905833091,434.49 13.13853715902086,43.09428394871204,434.49 13.13872439695388,43.09424993944647,434.49 13.13886559938193,43.09424123694984,434.49 13.13886614954169,43.09425946770315,434.49 13.13873706184573,43.09426957492955,434.49 13.13852986663393,43.09430150557795,434.49 13.13849007954838,43.09420965795106,434.49 13.13842194380885,43.09424216412051,434.49 13.13832808559693,43.09430754699099,434.49 13.13821415826848,43.09440694817594,434.49 13.1381778759345,43.09450161069232,434.49 13.13816255883617,43.09457240695737,434.49 13.13810818159888,43.09463403538771,434.49 13.13804023685059,43.09465904389321,434.49 13.13795702323505,43.09462845578811,434.49 13.13788260203223,43.09456956704204,434.49 13.13781547796798,43.09454073793517,434.49 13.13771613480369,43.09450965226725,434.49 13.13766178283369,43.09449225325591,434.49 13.1375912210837,43.09448133404209,434.49 13.13733868056417,43.09447862153215,434.49 13.13713192202026,43.09449934878833,434.49 13.13687624431479,43.09450407894278,434.49 13.13668492779582,43.09449868751141,434.49 13.13644435262344,43.09451893960879,434.49 13.1362885419254,43.09451887790772,434.49 13.13613511549706,43.09450157536791,434.49 13.13594852405832,43.09445897508547,434.49 13.1356979959714,43.09434122428419,434.49 13.13558124203626,43.09432579669661,434.49 13.13535505214582,43.0943075776451,434.49 13.13507537519746,43.09423010807514,434.49 13.13471905892831,43.09412157860972,434.49 13.13447187275528,43.09405447633144,434.49 13.13413151683238,43.09397149638808,434.49 13.13369243434037,43.09396687369544,434.49 13.13341662880802,43.09402159979324,434.49 13.13297860275679,43.09412084456997,434.49 13.13275794813432,43.09411953467133,434.49 13.13232435559974,43.09407806229633,434.49 13.13196586259953,43.094048785026,434.49 13.13179433027894,43.09408275607725,434.49 13.1316320573624,43.09414957831488,434.49 13.13140373405394,43.09428059318931,434.49 13.13118737337873,43.09441733711104,434.49 13.13071975309255,43.09465921469878,434.49 13.13000261890716,43.09495452800636,434.49 13.12989233592937,43.09504573667413,434.49 13.12977851280596,43.09518440409543,434.49 13.12963169259615,43.09535125882337,434.49 13.12933001305782,43.09549978570728,434.49 13.12904587296127,43.09555066116495,434.49 13.12863184282453,43.09556485064814,434.49 13.12840176827003,43.09552395894038,434.49 13.12817223325921,43.0955233251651,434.49 13.12810331609333,43.09557612924294,434.49 13.12807639878215,43.09577753439793,434.49 13.1280930515266,43.09635236819692,434.49 13.12811047937468,43.09660815067404,434.49 13.12801259485633,43.09683526900504,434.49 13.12778793377151,43.0969160150219,434.49 13.12736012645372,43.09688113353222,434.49 13.12686797376372,43.09677736120681,434.49 13.12654304009093,43.09688834144215,434.49 13.12582021373398,43.097534887518,434.49 13.1257552762994,43.09765050593349,434.49 13.12576965746533,43.09776585515235,434.49 13.1258078288361,43.09786022446128,434.49 13.12599646922463,43.09816848841462,434.49 13.12618438349535,43.09852828301273,434.49 13.12632651599063,43.09876484350505,434.49 13.12640775852694,43.09911932527258,434.49 13.12643289063796,43.09930943561811,434.49 13.12625366923414,43.09954050071495,434.49 13.12622446100832,43.0997361812849,434.49 13.12619084112132,43.09979076185044,434.49 13.12580813685864,43.09957376568421,434.49 13.12565067147923,43.09950725362794,434.49 13.12485333233554,43.09939448245748,434.49 13.12462217263822,43.09926859560642,434.49 13.12301666433951,43.09754064096435,434.49 13.12273221381024,43.09718413461948,434.49 13.12265866138493,43.09695936993801,434.49 13.12267389172038,43.09664867810616,434.49 13.12271283941481,43.09596858789035,434.49 13.12264476893588,43.0954143716143,434.49 13.12249190381697,43.09490685506913,434.49 13.12222468709574,43.09440672872324,434.49 13.12159953990209,43.09355206762332,434.49 13.12095265166819,43.09272577586532,434.49 13.12076022057165,43.09248219710337,434.49 13.12057378621205,43.09233051317365,434.49 13.12031936224001,43.09220824484956,434.49 13.11998235006153,43.09214598389441,434.49 13.11958517844749,43.09211647092477,434.49 13.11919720742183,43.09207992541555,434.49 13.11888730329167,43.09198316411172,434.49 13.11860404779727,43.09185424213369,434.49 13.11834688988782,43.09171789956098,434.49 13.11811599097927,43.09160760289376,434.49 13.11813915208794,43.0915779705569,434.49 13.11820790870898,43.09152809242183,434.49 13.11879242103516,43.0909934804576,434.49 13.118806619476,43.0909295243228,434.49 13.11831690694351,43.0901116674883,434.49 13.11830978160368,43.09001692091684,434.49 13.11835657833005,43.0897830352887,434.49 13.11842544108725,43.0895739973182,434.49 13.11844042816089,43.08943054745625,434.49 13.11837875687151,43.08930866918549,434.49 13.11829021874047,43.08923552224268,434.49 13.11793589316315,43.08898872451488,434.49 13.11782526309756,43.08889581042622,434.49 13.11779682194521,43.08880946793747,434.49 13.11782740226888,43.08875052936598,434.49 13.11812531292806,43.08829300579713,434.49 13.1178237550145,43.08815400067124,434.49 13.11660234950335,43.08747566795916,434.49 13.11581852350382,43.08697368127655,434.49 13.11545903497504,43.086790944288,434.49 13.11409992455873,43.08639413614344,434.49 13.11369704159206,43.08626429881917,434.49 13.11327582497817,43.08615546295832,434.49 13.11241339911441,43.08591007850369,434.49 13.11200761136077,43.08555927262538,434.49 13.11151865119883,43.08481636070863,434.49 13.11130880685575,43.0846043302365,434.49 13.1104364733039,43.08433435178836,434.49 
			</coordinates>
		</LineString>
	</Placemark>
	<Placemark>
		<name>1</name>
		<description>Procedi verso sudovest;Proceed southwest</description>
		<LookAt>
			<longitude>13.1098493405001</longitude>
			<latitude>43.08410440355507</latitude>
			<altitude>0</altitude>
			<heading>-0.4163176224272866</heading>
			<tilt>17.00221958138127</tilt>
			<range>130.3405394527982</range>
			<gx:altitudeMode>relativeToSeaFloor</gx:altitudeMode>
		</LookAt>
		<styleUrl>#m_ylw-pushpin</styleUrl>
		<Point>
			<gx:drawOrder>1</gx:drawOrder>
			<coordinates>13.11032398641034,43.08431461374433,0</coordinates>
		</Point>
	</Placemark>
	<Placemark>
		<name>2</name>
		<description>Svolta a sinistra;Turn left</description>
		<LookAt>
			<longitude>13.08791418960634</longitude>
			<latitude>43.07584557968624</latitude>
			<altitude>0</altitude>
			<heading>-0.4312987675708119</heading>
			<tilt>17.10458213113399</tilt>
			<range>150.2717193581958</range>
			<gx:altitudeMode>relativeToSeaFloor</gx:altitudeMode>
		</LookAt>
		<styleUrl>#m_ylw-pushpin</styleUrl>
		<Point>
			<gx:drawOrder>1</gx:drawOrder>
			<coordinates>13.08801651493883,43.07599817601078,0</coordinates>
		</Point>
	</Placemark>
	<Placemark>
		<name>3</name>
		<description>Svolta tutto a sinistra verso Via Rancia;Turn sharp left onto Via Rancia</description>
		<LookAt>
			<longitude>13.08603608584867</longitude>
			<latitude>43.0698525969509</latitude>
			<altitude>0</altitude>
			<heading>-0.4325813559719976</heading>
			<tilt>17.10458213113408</tilt>
			<range>150.2717193576961</range>
			<gx:altitudeMode>relativeToSeaFloor</gx:altitudeMode>
		</LookAt>
		<styleUrl>#m_ylw-pushpin</styleUrl>
		<Point>
			<gx:drawOrder>1</gx:drawOrder>
			<coordinates>13.08604729616684,43.07034341376104,0</coordinates>
		</Point>
	</Placemark>
	<Placemark>
		<name>4</name>
		<description>Svolta a destra e prendi Via Rancia;Turn right and take Via Rancia</description>
		<LookAt>
			<longitude>13.0872071552774</longitude>
			<latitude>43.06968284034581</latitude>
			<altitude>0</altitude>
			<heading>2.499195697306162</heading>
			<tilt>35.86602462673071</tilt>
			<range>95.56684166994644</range>
			<gx:altitudeMode>relativeToSeaFloor</gx:altitudeMode>
		</LookAt>
		<styleUrl>#m_ylw-pushpin</styleUrl>
		<Point>
			<gx:drawOrder>1</gx:drawOrder>
			<coordinates>13.0871987265284,43.06961660361773,0</coordinates>
		</Point>
	</Placemark>
	<Placemark>
		<name>5</name>
		<description>Svolta a destra per rimanere su Via Rancia;Turn right to stay on Via Rancia</description>
		<LookAt>
			<longitude>13.08464401207208</longitude>
			<latitude>43.06421547843748</latitude>
			<altitude>0</altitude>
			<heading>3.479085494251847</heading>
			<tilt>0</tilt>
			<range>226.9829124667889</range>
			<gx:altitudeMode>relativeToSeaFloor</gx:altitudeMode>
		</LookAt>
		<styleUrl>#m_ylw-pushpin</styleUrl>
		<Point>
			<gx:drawOrder>1</gx:drawOrder>
			<coordinates>13.08482019775406,43.06441506508691,0</coordinates>
		</Point>
	</Placemark>
	<Placemark>
		<name>6</name>
		<description>Continua su Via Roma;Continue on Via Roma</description>
		<LookAt>
			<longitude>13.08417586538468</longitude>
			<latitude>43.06350994554656</latitude>
			<altitude>0</altitude>
			<heading>3.47876584229206</heading>
			<tilt>0</tilt>
			<range>226.9829124668111</range>
			<gx:altitudeMode>relativeToSeaFloor</gx:altitudeMode>
		</LookAt>
		<styleUrl>#m_ylw-pushpin</styleUrl>
		<Point>
			<gx:drawOrder>1</gx:drawOrder>
			<coordinates>13.08419938693113,43.0634804325159,0</coordinates>
		</Point>
	</Placemark>
	<Placemark>
		<name>7</name>
		<description>Continua su Piazza Vittorio Veneto;Continue on Piazza Vittorio Veneto</description>
		<LookAt>
			<longitude>13.08416331181246</longitude>
			<latitude>43.06351363503966</latitude>
			<altitude>0</altitude>
			<heading>3.478757270701555</heading>
			<tilt>0</tilt>
			<range>226.9829124646816</range>
			<gx:altitudeMode>relativeToSeaFloor</gx:altitudeMode>
		</LookAt>
		<styleUrl>#m_ylw-pushpin</styleUrl>
		<Point>
			<gx:drawOrder>1</gx:drawOrder>
			<coordinates>13.08459339258953,43.06243848653693,0</coordinates>
		</Point>
	</Placemark>
	<Placemark>
		<name>8</name>
		<description>Svolta leggermente a destra verso Piazza Vittorio Veneto;Turn slightly right towards Piazza Vittorio Veneto</description>
		<LookAt>
			<longitude>13.08446974182538</longitude>
			<latitude>43.06171057181496</latitude>
			<altitude>0</altitude>
			<heading>3.478966515894318</heading>
			<tilt>0</tilt>
			<range>226.9829124702696</range>
			<gx:altitudeMode>relativeToSeaFloor</gx:altitudeMode>
		</LookAt>
		<styleUrl>#m_ylw-pushpin</styleUrl>
		<Point>
			<gx:drawOrder>1</gx:drawOrder>
			<coordinates>13.08474797062282,43.06184326642737,0</coordinates>
		</Point>
	</Placemark>
	<Placemark>
		<name>9</name>
		<description>Continua su Piazza Vittorio Veneto;Continue on Piazza Vittorio Veneto</description>
		<LookAt>
			<longitude>13.08446626930731</longitude>
			<latitude>43.06171343740223</latitude>
			<altitude>0</altitude>
			<heading>3.478964144905008</heading>
			<tilt>0</tilt>
			<range>226.9829124670677</range>
			<gx:altitudeMode>relativeToSeaFloor</gx:altitudeMode>
		</LookAt>
		<styleUrl>#m_ylw-pushpin</styleUrl>
		<Point>
			<gx:drawOrder>1</gx:drawOrder>
			<coordinates>13.08454422590762,43.06162456966857,0</coordinates>
		</Point>
	</Placemark>
	<Placemark>
		<name>10</name>
		<description>Continua su Via Valga;Continue on Via Valga</description>
		<LookAt>
			<longitude>13.08446766090563</longitude>
			<latitude>43.06124161267707</latitude>
			<altitude>0</altitude>
			<heading>3.478965098601699</heading>
			<tilt>0</tilt>
			<range>226.98291246573</range>
			<gx:altitudeMode>relativeToSeaFloor</gx:altitudeMode>
		</LookAt>
		<styleUrl>#m_ylw-pushpin</styleUrl>
		<Point>
			<gx:drawOrder>1</gx:drawOrder>
			<coordinates>13.08437502639075,43.06088648348674,0</coordinates>
		</Point>
	</Placemark>
	<Placemark>
		<name>11</name>
		<description>Continua su V. Fornace;Continue on V. Fornace</description>
		<LookAt>
			<longitude>13.08374399111839</longitude>
			<latitude>43.06037965179111</latitude>
			<altitude>0</altitude>
			<heading>3.47847100550998</heading>
			<tilt>0</tilt>
			<range>226.9829124642929</range>
			<gx:altitudeMode>relativeToSeaFloor</gx:altitudeMode>
		</LookAt>
		<styleUrl>#m_ylw-pushpin</styleUrl>
		<Point>
			<gx:drawOrder>1</gx:drawOrder>
			<coordinates>13.08425571932496,43.06015222258402,0</coordinates>
		</Point>
	</Placemark>
	<Placemark>
		<name>12</name>
		<description>Prendi il sentiero a destra;Take the path on the right</description>
		<LookAt>
			<longitude>13.08239407869277</longitude>
			<latitude>43.05746789684869</latitude>
			<altitude>0</altitude>
			<heading>3.245998313436399</heading>
			<tilt>47.01211873403064</tilt>
			<range>97.97499624654814</range>
			<gx:altitudeMode>relativeToSeaFloor</gx:altitudeMode>
		</LookAt>
		<styleUrl>#m_ylw-pushpin</styleUrl>
		<Point>
			<gx:drawOrder>1</gx:drawOrder>
			<coordinates>13.08245526715177,43.05757896301478,0</coordinates>
		</Point>
	</Placemark>
	<Placemark>
		<name>13</name>
		<description>Svolta a destra e prendi il sentiero;Turn right and take the path</description>
		<LookAt>
			<longitude>13.08349708597186</longitude>
			<latitude>43.05821548008763</latitude>
			<altitude>0</altitude>
			<heading>4.827449635260237</heading>
			<tilt>0</tilt>
			<range>58.89601324755505</range>
			<gx:altitudeMode>relativeToSeaFloor</gx:altitudeMode>
		</LookAt>
		<styleUrl>#m_ylw-pushpin</styleUrl>
		<Point>
			<gx:drawOrder>1</gx:drawOrder>
			<coordinates>13.08362226964089,43.05858089808896,0</coordinates>
		</Point>
	</Placemark>
	<Placemark>
		<name>14</name>
		<description>Svolta a destra;Turn right</description>
		<LookAt>
			<longitude>13.0869810810707</longitude>
			<latitude>43.05639148033183</latitude>
			<altitude>0</altitude>
			<heading>0.6072504303043992</heading>
			<tilt>0</tilt>
			<range>138.3114392883268</range>
			<gx:altitudeMode>relativeToSeaFloor</gx:altitudeMode>
		</LookAt>
		<styleUrl>#m_ylw-pushpin</styleUrl>
		<Point>
			<gx:drawOrder>1</gx:drawOrder>
			<coordinates>13.08709665793406,43.05704612617393,0</coordinates>
		</Point>
	</Placemark>
	<Placemark>
		<name>15</name>
		<description>Svolta a sinistra e prendi le scale;Turn left and take the stairs</description>
		<LookAt>
			<longitude>13.08733013049395</longitude>
			<latitude>43.05696791018073</latitude>
			<altitude>0</altitude>
			<heading>-1.399108048411444</heading>
			<tilt>45.37516953257504</tilt>
			<range>98.330879790853</range>
			<gx:altitudeMode>relativeToSeaFloor</gx:altitudeMode>
		</LookAt>
		<styleUrl>#m_ylw-pushpin</styleUrl>
		<Point>
			<gx:drawOrder>1</gx:drawOrder>
			<coordinates>13.08718611111111,43.05695833333333,0</coordinates>
		</Point>
	</Placemark>
	<Placemark>
		<name>16</name>
		<description>Svolta a sinistra e orendi Via Capodacqua;Turn left and take Via Capodacqua</description>
		<LookAt>
			<longitude>13.08733946233185</longitude>
			<latitude>43.0569690030207</latitude>
			<altitude>0</altitude>
			<heading>-1.399101677380351</heading>
			<tilt>45.37516953257499</tilt>
			<range>98.33087978727839</range>
			<gx:altitudeMode>relativeToSeaFloor</gx:altitudeMode>
		</LookAt>
		<styleUrl>#m_ylw-pushpin</styleUrl>
		<Point>
			<gx:drawOrder>1</gx:drawOrder>
			<coordinates>13.08729240306491,43.05702307731367,0</coordinates>
		</Point>
	</Placemark>
	<Placemark>
		<name>17</name>
		<description>Svolta leggermente a destra e prendi Via Flaminio Napoleoni;Turn slightly right and take Via Flaminio Napoleoni</description>
		<LookAt>
			<longitude>13.08647443565898</longitude>
			<latitude>43.05735408351467</latitude>
			<altitude>0</altitude>
			<heading>-1.39957606094725</heading>
			<tilt>24.88654842061031</tilt>
			<range>116.8242218379029</range>
			<gx:altitudeMode>relativeToSeaFloor</gx:altitudeMode>
		</LookAt>
		<styleUrl>#m_ylw-pushpin</styleUrl>
		<Point>
			<gx:drawOrder>1</gx:drawOrder>
			<coordinates>13.08630322083832,43.0579786869239,0</coordinates>
		</Point>
	</Placemark>
	<Placemark>
		<name>18</name>
		<description>Continua su Piazza Vittorio Veneto;Continue on Piazza Vittorio Veneto</description>
		<LookAt>
			<longitude>13.08506122188877</longitude>
			<latitude>43.06050562443531</latitude>
			<altitude>0</altitude>
			<heading>-1.400540930673456</heading>
			<tilt>24.88654842061024</tilt>
			<range>116.8242218402296</range>
			<gx:altitudeMode>relativeToSeaFloor</gx:altitudeMode>
		</LookAt>
		<styleUrl>#m_ylw-pushpin</styleUrl>
		<Point>
			<gx:drawOrder>1</gx:drawOrder>
			<coordinates>13.08480676714557,43.06077463414964,0</coordinates>
		</Point>
	</Placemark>
	<Placemark>
		<name>19</name>
		<description>Continua su Via Roma;Continue on Via Roma</description>
		<LookAt>
			<longitude>13.08483794519</longitude>
			<latitude>43.06286635287518</latitude>
			<altitude>0</altitude>
			<heading>-1.400693378819502</heading>
			<tilt>24.88654842061024</tilt>
			<range>116.824221836804</range>
			<gx:altitudeMode>relativeToSeaFloor</gx:altitudeMode>
		</LookAt>
		<styleUrl>#m_ylw-pushpin</styleUrl>
		<Point>
			<gx:drawOrder>1</gx:drawOrder>
			<coordinates>13.08482461224405,43.0623886035566,0</coordinates>
		</Point>
	</Placemark>
	<Placemark>
		<name>20</name>
		<description>Svolta a destra e entra nel Parco Girolamo Varnelli;Turn right and enter Girolamo Varnelli Park</description>
		<LookAt>
			<longitude>13.08473830823729</longitude>
			<latitude>43.06285848097751</latitude>
			<altitude>0</altitude>
			<heading>-1.400761410630326</heading>
			<tilt>24.88654842061027</tilt>
			<range>116.8242218397027</range>
			<gx:altitudeMode>relativeToSeaFloor</gx:altitudeMode>
		</LookAt>
		<styleUrl>#m_ylw-pushpin</styleUrl>
		<Point>
			<gx:drawOrder>1</gx:drawOrder>
			<coordinates>13.08470448319498,43.06253148348433,0</coordinates>
		</Point>
	</Placemark>
	<Placemark>
		<name>21</name>
		<description>Svolta a sinistra;Turn left</description>
		<LookAt>
			<longitude>13.08454421344431</longitude>
			<latitude>43.06307717632187</latitude>
			<altitude>0</altitude>
			<heading>-1.39961373058282</heading>
			<tilt>30.00059982805307</tilt>
			<range>132.6908028679323</range>
			<gx:altitudeMode>relativeToSeaFloor</gx:altitudeMode>
		</LookAt>
		<styleUrl>#m_ylw-pushpin</styleUrl>
		<Point>
			<gx:drawOrder>1</gx:drawOrder>
			<coordinates>13.08500936283,43.06252976252834,0</coordinates>
		</Point>
	</Placemark>
	<Placemark>
		<name>22</name>
		<description>Procedi verso Via Rancia;Proceed towards Via Rancia</description>
		<LookAt>
			<longitude>13.08497976060463</longitude>
			<latitude>43.06326000107888</latitude>
			<altitude>0</altitude>
			<heading>-1.399316337492222</heading>
			<tilt>30.00059982805309</tilt>
			<range>132.690802865309</range>
			<gx:altitudeMode>relativeToSeaFloor</gx:altitudeMode>
		</LookAt>
		<styleUrl>#m_ylw-pushpin</styleUrl>
		<Point>
			<gx:drawOrder>1</gx:drawOrder>
			<coordinates>13.08512309939675,43.06328003951799,0</coordinates>
		</Point>
	</Placemark>
	<Placemark>
		<name>23</name>
		<description>Continua su Via Rancia;Continue on Via Rancia</description>
		<LookAt>
			<longitude>13.08520722101306</longitude>
			<latitude>43.06372939682756</latitude>
			<altitude>0</altitude>
			<heading>-1.399161026080691</heading>
			<tilt>30.00059982805304</tilt>
			<range>132.6908028655398</range>
			<gx:altitudeMode>relativeToSeaFloor</gx:altitudeMode>
		</LookAt>
		<styleUrl>#m_ylw-pushpin</styleUrl>
		<Point>
			<gx:drawOrder>1</gx:drawOrder>
			<coordinates>13.08494709393506,43.06433962430238,0</coordinates>
		</Point>
	</Placemark>
	<Placemark>
		<name>24</name>
		<description>Svolta leggermente a sinistra e prendi Via Sant&apos;Andrea;Turn slightly left and take Via Sant&apos;Andrea</description>
		<LookAt>
			<longitude>13.09566858302988</longitude>
			<latitude>43.07331907254716</latitude>
			<altitude>0</altitude>
			<heading>-1.392876575984766</heading>
			<tilt>24.69017966876273</tilt>
			<range>144.2756846466357</range>
			<gx:altitudeMode>relativeToSeaFloor</gx:altitudeMode>
		</LookAt>
		<styleUrl>#m_ylw-pushpin</styleUrl>
		<Point>
			<gx:drawOrder>1</gx:drawOrder>
			<coordinates>13.09565766483735,43.07342767009494,0</coordinates>
		</Point>
	</Placemark>
	<Placemark>
		<name>25</name>
		<description>Svolta a sinistra;Turn right</description>
		<LookAt>
			<longitude>13.10132664858394</longitude>
			<latitude>43.07578453605639</latitude>
			<altitude>0</altitude>
			<heading>-1.389012411329635</heading>
			<tilt>24.6901796687627</tilt>
			<range>144.2756846452228</range>
			<gx:altitudeMode>relativeToSeaFloor</gx:altitudeMode>
		</LookAt>
		<styleUrl>#m_ylw-pushpin</styleUrl>
		<Point>
			<gx:drawOrder>1</gx:drawOrder>
			<coordinates>13.1015581335426,43.07612324989889,0</coordinates>
		</Point>
	</Placemark>
	<Placemark>
		<name>26</name>
		<description>Svolta a sinistra e prendi Via Isola;Turn left and take Via Isola</description>
		<LookAt>
			<longitude>13.10453775123286</longitude>
			<latitude>43.07605089370582</latitude>
			<altitude>0</altitude>
			<heading>-1.386819331259414</heading>
			<tilt>24.6901796687627</tilt>
			<range>144.2756846456118</range>
			<gx:altitudeMode>relativeToSeaFloor</gx:altitudeMode>
		</LookAt>
		<styleUrl>#m_ylw-pushpin</styleUrl>
		<Point>
			<gx:drawOrder>1</gx:drawOrder>
			<coordinates>13.10423690135635,43.07672550606364,0</coordinates>
		</Point>
	</Placemark>
	<Placemark>
		<name>27</name>
		<description>Svolta a sinistra:Turn left</description>
		<LookAt>
			<longitude>13.10692536058123</longitude>
			<latitude>43.07724944313664</latitude>
			<altitude>0</altitude>
			<heading>55.96374499747039</heading>
			<tilt>45.14743833148299</tilt>
			<range>103.3310429093431</range>
			<gx:altitudeMode>relativeToSeaFloor</gx:altitudeMode>
		</LookAt>
		<styleUrl>#m_ylw-pushpin</styleUrl>
		<Point>
			<gx:drawOrder>1</gx:drawOrder>
			<coordinates>13.10673611111111,43.07718888888889,0</coordinates>
		</Point>
	</Placemark>
	<Placemark>
		<name>28</name>
		<description>Svolta a sinistra;Turn left</description>
		<LookAt>
			<longitude>13.10806500893899</longitude>
			<latitude>43.07981558384692</latitude>
			<altitude>0</altitude>
			<heading>-0.9805591552177869</heading>
			<tilt>9.935539718998456</tilt>
			<range>143.7788117155593</range>
			<gx:altitudeMode>relativeToSeaFloor</gx:altitudeMode>
		</LookAt>
		<styleUrl>#m_ylw-pushpin</styleUrl>
		<Point>
			<gx:drawOrder>1</gx:drawOrder>
			<coordinates>13.10847222222222,43.08021944444445,0</coordinates>
		</Point>
	</Placemark>
	<Placemark>
		<name>29</name>
		<description>Svolta tutto a destra;Turn hard right</description>
		<LookAt>
			<longitude>13.1041243546655</longitude>
			<latitude>43.08094490654251</latitude>
			<altitude>0</altitude>
			<heading>-0.9835313489885918</heading>
			<tilt>10.36604988219961</tilt>
			<range>127.8449572356955</range>
			<gx:altitudeMode>relativeToSeaFloor</gx:altitudeMode>
		</LookAt>
		<styleUrl>#m_ylw-pushpin</styleUrl>
		<Point>
			<gx:drawOrder>1</gx:drawOrder>
			<coordinates>13.10375019948408,43.08126852886616,0</coordinates>
		</Point>
	</Placemark>
	<Placemark>
		<name>30</name>
		<description>Svolta a sinistra;Turn left</description>
		<LookAt>
			<longitude>13.11796728853667</longitude>
			<latitude>43.08755861328428</latitude>
			<altitude>0</altitude>
			<heading>-0.9740758170375559</heading>
			<tilt>10.36612874549568</tilt>
			<range>176.6490344278396</range>
			<gx:altitudeMode>relativeToSeaFloor</gx:altitudeMode>
		</LookAt>
		<styleUrl>#m_ylw-pushpin</styleUrl>
		<Point>
			<gx:drawOrder>1</gx:drawOrder>
			<coordinates>13.11823133156103,43.08831623572948,0</coordinates>
		</Point>
	</Placemark>
	<Placemark>
		<name>31</name>
		<description>Continua su Frazione Polverina;Continue on Polverina hamlet</description>
		<LookAt>
			<longitude>13.1186226819159</longitude>
			<latitude>43.08977364524131</latitude>
			<altitude>0</altitude>
			<heading>-0.9736281218770063</heading>
			<tilt>10.36612874549582</tilt>
			<range>176.6490344251982</range>
			<gx:altitudeMode>relativeToSeaFloor</gx:altitudeMode>
		</LookAt>
		<styleUrl>#m_ylw-pushpin</styleUrl>
		<Point>
			<gx:drawOrder>1</gx:drawOrder>
			<coordinates>13.1185885211319,43.09043755041998,0</coordinates>
		</Point>
	</Placemark>
	<Placemark>
		<name>32</name>
		<description>Svolta a sinistra e prendi SP98;Turn left and take SP98</description>
		<LookAt>
			<longitude>13.11878273633545</longitude>
			<latitude>43.09061521575524</latitude>
			<altitude>0</altitude>
			<heading>-0.9749649744242175</heading>
			<tilt>13.33866702917013</tilt>
			<range>107.6829825404552</range>
			<gx:altitudeMode>relativeToSeaFloor</gx:altitudeMode>
		</LookAt>
		<styleUrl>#m_ylw-pushpin</styleUrl>
		<Point>
			<gx:drawOrder>1</gx:drawOrder>
			<coordinates>13.11889267094215,43.09098480876166,0</coordinates>
		</Point>
	</Placemark>
	<Placemark>
		<name>33</name>
		<description>Svolta a destra;Turn right</description>
		<LookAt>
			<longitude>13.11882852164997</longitude>
			<latitude>43.09133710495808</latitude>
			<altitude>0</altitude>
			<heading>-0.9749336914423858</heading>
			<tilt>13.33866702917019</tilt>
			<range>107.6829825395123</range>
			<gx:altitudeMode>relativeToSeaFloor</gx:altitudeMode>
		</LookAt>
		<styleUrl>#m_ylw-pushpin</styleUrl>
		<Point>
			<gx:drawOrder>1</gx:drawOrder>
			<coordinates>13.11822878719791,43.09161352686402,0</coordinates>
		</Point>
	</Placemark>
	<Placemark>
		<name>34</name>
		<description>Svolta a destra;Turn right</description>
		<LookAt>
			<longitude>13.1261185552261</longitude>
			<latitude>43.09938682773334</latitude>
			<altitude>0</altitude>
			<heading>-0.9699530823794473</heading>
			<tilt>13.33866702917019</tilt>
			<range>107.6829825398635</range>
			<gx:altitudeMode>relativeToSeaFloor</gx:altitudeMode>
		</LookAt>
		<styleUrl>#m_ylw-pushpin</styleUrl>
		<Point>
			<gx:drawOrder>1</gx:drawOrder>
			<coordinates>13.12615474249398,43.09969843934942,0</coordinates>
		</Point>
	</Placemark>
	<Placemark>
		<name>35</name>
		<description>Svolta a sinistra;Turn left</description>
		<LookAt>
			<longitude>13.13558446270749</longitude>
			<latitude>43.09465405939149</latitude>
			<altitude>0</altitude>
			<heading>-4.90544565586533</heading>
			<tilt>26.60918950360994</tilt>
			<range>130.0290622736538</range>
			<gx:altitudeMode>relativeToSeaFloor</gx:altitudeMode>
		</LookAt>
		<styleUrl>#m_ylw-pushpin</styleUrl>
		<Point>
			<gx:drawOrder>1</gx:drawOrder>
			<coordinates>13.13559479281432,43.09427207836405,0</coordinates>
		</Point>
	</Placemark>
	<Placemark>
		<name>36</name>
		<description>Torna indietro seguendo la stesso percorso fino ad arrivare alla strada principale;Go back following the same path until you reach the main road</description>
		<LookAt>
			<longitude>13.13900854873439</longitude>
			<latitude>43.09392676563072</latitude>
			<altitude>0</altitude>
			<heading>8.763908570828548</heading>
			<tilt>12.56484239603764</tilt>
			<range>246.3577919880548</range>
			<gx:altitudeMode>relativeToSeaFloor</gx:altitudeMode>
		</LookAt>
		<styleUrl>#m_ylw-pushpin</styleUrl>
		<Point>
			<gx:drawOrder>1</gx:drawOrder>
			<coordinates>13.13890833333333,43.09423055555555,0</coordinates>
		</Point>
	</Placemark>
	<Placemark>
		<name>37</name>
		<description>Svolta a destra;Turn right</description>
		<LookAt>
			<longitude>13.13562921123967</longitude>
			<latitude>43.09411590214745</latitude>
			<altitude>0</altitude>
			<heading>0.1193118232782028</heading>
			<tilt>0</tilt>
			<range>123.3098277903526</range>
			<gx:altitudeMode>relativeToSeaFloor</gx:altitudeMode>
		</LookAt>
		<styleUrl>#m_ylw-pushpin</styleUrl>
		<Point>
			<gx:drawOrder>1</gx:drawOrder>
			<coordinates>13.13569635781025,43.09436352947481,0</coordinates>
		</Point>
	</Placemark>
	<Placemark>
		<name>38</name>
		<description>Svolta asinistra e prendi Località Sfercia;Turn left and take Località Sfercia</description>
		<LookAt>
			<longitude>13.12642837278558</longitude>
			<latitude>43.09935445720453</latitude>
			<altitude>0</altitude>
			<heading>0.1130257029416979</heading>
			<tilt>0</tilt>
			<range>123.3098277949397</range>
			<gx:altitudeMode>relativeToSeaFloor</gx:altitudeMode>
		</LookAt>
		<styleUrl>#m_ylw-pushpin</styleUrl>
		<Point>
			<gx:drawOrder>1</gx:drawOrder>
			<coordinates>13.12621111111111,43.09979444444445,0</coordinates>
		</Point>
	</Placemark>
	<Placemark>
		<name>39</name>
		<description>Svolta a sinistra su SP98;Turn left onto SP98</description>
		<LookAt>
			<longitude>13.11791781909445</longitude>
			<latitude>43.09174915352686</latitude>
			<altitude>0</altitude>
			<heading>0.1072202368378515</heading>
			<tilt>7.181529469300757</tilt>
			<range>63.26927462773163</range>
			<gx:altitudeMode>relativeToSeaFloor</gx:altitudeMode>
		</LookAt>
		<styleUrl>#m_ylw-pushpin</styleUrl>
		<Point>
			<gx:drawOrder>1</gx:drawOrder>
			<coordinates>13.11810343812667,43.09160353888787,0</coordinates>
		</Point>
	</Placemark>
	<Placemark>
		<name>40</name>
		<description><![CDATA[Svolta a destra su Fra<ione Polverina;Turn right onto Fra<ione Polverina]]></description>
		<LookAt>
			<longitude>13.11888631106237</longitude>
			<latitude>43.09094938579879</latitude>
			<altitude>0</altitude>
			<heading>0.1078786753120284</heading>
			<tilt>10.64328290506692</tilt>
			<range>67.36473981826019</range>
			<gx:altitudeMode>relativeToSeaFloor</gx:altitudeMode>
		</LookAt>
		<styleUrl>#m_ylw-pushpin</styleUrl>
		<Point>
			<gx:drawOrder>1</gx:drawOrder>
			<coordinates>13.11877222222222,43.09097777777778,0</coordinates>
		</Point>
	</Placemark>
	<Placemark>
		<name>41</name>
		<description>Svolta a destra;Turn right</description>
		<LookAt>
			<longitude>13.11799927720564</longitude>
			<latitude>43.0887218549987</latitude>
			<altitude>0</altitude>
			<heading>0.1072726974835244</heading>
			<tilt>10.64328290506696</tilt>
			<range>67.36473981962165</range>
			<gx:altitudeMode>relativeToSeaFloor</gx:altitudeMode>
		</LookAt>
		<styleUrl>#m_ylw-pushpin</styleUrl>
		<Point>
			<gx:drawOrder>1</gx:drawOrder>
			<coordinates>13.1181159303097,43.08834136455148,0</coordinates>
		</Point>
	</Placemark>
</Document>
</kml>
