<?xml version="1.0" encoding="UTF-8"?>
<kml xmlns="http://www.opengis.net/kml/2.2" xmlns:gx="http://www.google.com/kml/ext/2.2" xmlns:kml="http://www.opengis.net/kml/2.2" xmlns:atom="http://www.w3.org/2005/Atom">
<Document id="1XC5tLU0i2c20j2F3ubTRFvwjAA9ezRJZ">
	<name>IOT</name>
	<open>1</open>
	<atom:link rel="app" href="https://www.google.com/earth/about/versions/#earth-pro" title="Google Earth Pro 7.3.6.10441"></atom:link><gx:CascadingStyle kml:id="__managed_style_2BEDC66A8E38E104233C">
		<styleUrl>https://earth.google.com/balloon_components/base/1.1.0.0/none_template.kml#main</styleUrl>
		<Style>
			<IconStyle>
				<scale>1.2</scale>
				<Icon>
					<href>https://earth.google.com/earth/document/icon?color=fbc02d<![CDATA[&]]>id=2000<![CDATA[&]]>scale=4</href>
				</Icon>
				<hotSpot x="64" y="128" xunits="pixels" yunits="insetPixels"></hotSpot>
			</IconStyle>
			<LabelStyle>
			</LabelStyle>
			<LineStyle>
				<color>ff2dc0fb</color>
				<width>6</width>
			</LineStyle>
			<PolyStyle>
				<color>40ffffff</color>
			</PolyStyle>
			<BalloonStyle>
				<displayMode>hide</displayMode>
			</BalloonStyle>
		</Style>
	</gx:CascadingStyle><gx:CascadingStyle kml:id="__managed_style_2393171DB038E10296D0">
		<styleUrl>https://earth.google.com/balloon_components/base/1.1.0.0/none_template.kml#main</styleUrl>
		<Style>
			<IconStyle>
				<scale>1.2</scale>
				<Icon>
					<href>https://earth.google.com/earth/document/icon?color=fbc02d<![CDATA[&]]>id=2283<![CDATA[&]]>scale=4</href>
				</Icon>
				<hotSpot x="64" y="128" xunits="pixels" yunits="insetPixels"></hotSpot>
			</IconStyle>
			<LabelStyle>
			</LabelStyle>
			<LineStyle>
				<color>ff2dc0fb</color>
				<width>6</width>
			</LineStyle>
			<PolyStyle>
				<color>40ffffff</color>
			</PolyStyle>
			<BalloonStyle>
				<displayMode>hide</displayMode>
			</BalloonStyle>
		</Style>
	</gx:CascadingStyle><gx:CascadingStyle kml:id="__managed_style_5C9B72C24038E0EFA7B4">
		<Style>
			<IconStyle>
				<scale>1.2</scale>
				<Icon>
					<href>https://earth.google.com/earth/document/icon?color=1976d2<![CDATA[&]]>id=2000<![CDATA[&]]>scale=4</href>
				</Icon>
				<hotSpot x="64" y="128" xunits="pixels" yunits="insetPixels"></hotSpot>
			</IconStyle>
			<LabelStyle>
				<scale>0</scale>
			</LabelStyle>
			<LineStyle>
				<color>ff2dc0fb</color>
				<width>6</width>
			</LineStyle>
			<PolyStyle>
				<color>40ffffff</color>
			</PolyStyle>
			<BalloonStyle>
				<text>$[description]</text>
			</BalloonStyle>
		</Style>
	</gx:CascadingStyle><gx:CascadingStyle kml:id="__managed_style_201037818838E0F42DF8">
		<Style>
			<IconStyle>
				<scale>1.2</scale>
				<Icon>
					<href>https://earth.google.com/earth/document/icon?color=1976d2<![CDATA[&]]>id=2253<![CDATA[&]]>scale=4</href>
				</Icon>
				<hotSpot x="64" y="128" xunits="pixels" yunits="insetPixels"></hotSpot>
			</IconStyle>
			<LabelStyle>
			</LabelStyle>
			<LineStyle>
				<color>ff2dc0fb</color>
				<width>6</width>
			</LineStyle>
			<PolyStyle>
				<color>40ffffff</color>
			</PolyStyle>
			<BalloonStyle>
			</BalloonStyle>
		</Style>
	</gx:CascadingStyle><gx:CascadingStyle kml:id="__managed_style_19ED534EC838E0F2C87C">
		<Style>
			<IconStyle>
				<Icon>
					<href>https://earth.google.com/earth/document/icon?color=1976d2<![CDATA[&]]>id=2112<![CDATA[&]]>scale=4</href>
				</Icon>
				<hotSpot x="64" y="128" xunits="pixels" yunits="insetPixels"></hotSpot>
			</IconStyle>
			<LabelStyle>
			</LabelStyle>
			<LineStyle>
				<color>ff2dc0fb</color>
				<width>4</width>
			</LineStyle>
			<PolyStyle>
				<color>40ffffff</color>
			</PolyStyle>
			<BalloonStyle>
			</BalloonStyle>
		</Style>
	</gx:CascadingStyle><gx:CascadingStyle kml:id="__managed_style_237B916C9A38E0F2C87C">
		<Style>
			<IconStyle>
				<scale>1.2</scale>
				<Icon>
					<href>https://earth.google.com/earth/document/icon?color=1976d2<![CDATA[&]]>id=2112<![CDATA[&]]>scale=4</href>
				</Icon>
				<hotSpot x="64" y="128" xunits="pixels" yunits="insetPixels"></hotSpot>
			</IconStyle>
			<LabelStyle>
			</LabelStyle>
			<LineStyle>
				<color>ff2dc0fb</color>
				<width>6</width>
			</LineStyle>
			<PolyStyle>
				<color>40ffffff</color>
			</PolyStyle>
			<BalloonStyle>
			</BalloonStyle>
		</Style>
	</gx:CascadingStyle><gx:CascadingStyle kml:id="__managed_style_1994D6AEF438E0F34BE3">
		<Style>
			<IconStyle>
				<Icon>
					<href>https://earth.google.com/earth/document/icon?color=1976d2<![CDATA[&]]>id=2345<![CDATA[&]]>scale=4</href>
				</Icon>
				<hotSpot x="64" y="128" xunits="pixels" yunits="insetPixels"></hotSpot>
			</IconStyle>
			<LabelStyle>
			</LabelStyle>
			<LineStyle>
				<color>ff2dc0fb</color>
				<width>4</width>
			</LineStyle>
			<PolyStyle>
				<color>40ffffff</color>
			</PolyStyle>
			<BalloonStyle>
			</BalloonStyle>
		</Style>
	</gx:CascadingStyle><gx:CascadingStyle kml:id="__managed_style_27F1B08A1338E0F34BE3">
		<Style>
			<IconStyle>
				<scale>1.2</scale>
				<Icon>
					<href>https://earth.google.com/earth/document/icon?color=1976d2<![CDATA[&]]>id=2345<![CDATA[&]]>scale=4</href>
				</Icon>
				<hotSpot x="64" y="128" xunits="pixels" yunits="insetPixels"></hotSpot>
			</IconStyle>
			<LabelStyle>
			</LabelStyle>
			<LineStyle>
				<color>ff2dc0fb</color>
				<width>6</width>
			</LineStyle>
			<PolyStyle>
				<color>40ffffff</color>
			</PolyStyle>
			<BalloonStyle>
			</BalloonStyle>
		</Style>
	</gx:CascadingStyle><gx:CascadingStyle kml:id="__managed_style_1B581F7C0F38E0EFA7B4">
		<Style>
			<IconStyle>
				<Icon>
					<href>https://earth.google.com/earth/document/icon?color=1976d2<![CDATA[&]]>id=2000<![CDATA[&]]>scale=4</href>
				</Icon>
				<hotSpot x="64" y="128" xunits="pixels" yunits="insetPixels"></hotSpot>
			</IconStyle>
			<LabelStyle>
			</LabelStyle>
			<LineStyle>
				<color>ff2dc0fb</color>
				<width>4</width>
			</LineStyle>
			<PolyStyle>
				<color>40ffffff</color>
			</PolyStyle>
			<BalloonStyle>
			</BalloonStyle>
		</Style>
	</gx:CascadingStyle><gx:CascadingStyle kml:id="__managed_style_108001AD9338E10296D0">
		<styleUrl>https://earth.google.com/balloon_components/base/1.1.0.0/none_template.kml#main</styleUrl>
		<Style>
			<IconStyle>
				<Icon>
					<href>https://earth.google.com/earth/document/icon?color=fbc02d<![CDATA[&]]>id=2283<![CDATA[&]]>scale=4</href>
				</Icon>
				<hotSpot x="64" y="128" xunits="pixels" yunits="insetPixels"></hotSpot>
			</IconStyle>
			<LabelStyle>
			</LabelStyle>
			<LineStyle>
				<color>ff2dc0fb</color>
				<width>4</width>
			</LineStyle>
			<PolyStyle>
				<color>40ffffff</color>
			</PolyStyle>
			<BalloonStyle>
				<displayMode>hide</displayMode>
			</BalloonStyle>
		</Style>
	</gx:CascadingStyle><gx:CascadingStyle kml:id="__managed_style_EAF5618A1138E0EFA7B4">
		<Style>
			<IconStyle>
				<scale>1.2</scale>
				<Icon>
					<href>https://earth.google.com/earth/document/icon?color=1976d2<![CDATA[&]]>id=2000<![CDATA[&]]>scale=4</href>
				</Icon>
				<hotSpot x="64" y="128" xunits="pixels" yunits="insetPixels"></hotSpot>
			</IconStyle>
			<LabelStyle>
			</LabelStyle>
			<LineStyle>
				<color>f03399ff</color>
				<width>6</width>
			</LineStyle>
			<PolyStyle>
				<color>40ffffff</color>
			</PolyStyle>
			<BalloonStyle>
			</BalloonStyle>
		</Style>
	</gx:CascadingStyle><gx:CascadingStyle kml:id="__managed_style_1C123DDF3C38E0F42DF8">
		<Style>
			<IconStyle>
				<Icon>
					<href>https://earth.google.com/earth/document/icon?color=1976d2<![CDATA[&]]>id=2253<![CDATA[&]]>scale=4</href>
				</Icon>
				<hotSpot x="64" y="128" xunits="pixels" yunits="insetPixels"></hotSpot>
			</IconStyle>
			<LabelStyle>
			</LabelStyle>
			<LineStyle>
				<color>ff2dc0fb</color>
				<width>4</width>
			</LineStyle>
			<PolyStyle>
				<color>40ffffff</color>
			</PolyStyle>
			<BalloonStyle>
			</BalloonStyle>
		</Style>
	</gx:CascadingStyle><gx:CascadingStyle kml:id="__managed_style_4B8279E9AE38E0EFA7B4">
		<Style>
			<IconStyle>
				<Icon>
					<href>https://earth.google.com/earth/document/icon?color=1976d2<![CDATA[&]]>id=2000<![CDATA[&]]>scale=4</href>
				</Icon>
				<hotSpot x="64" y="128" xunits="pixels" yunits="insetPixels"></hotSpot>
			</IconStyle>
			<LabelStyle>
				<scale>0</scale>
			</LabelStyle>
			<LineStyle>
				<color>ff2dc0fb</color>
				<width>4</width>
			</LineStyle>
			<PolyStyle>
				<color>40ffffff</color>
			</PolyStyle>
			<BalloonStyle>
				<text>$[description]</text>
			</BalloonStyle>
		</Style>
	</gx:CascadingStyle><gx:CascadingStyle kml:id="__managed_style_DF036529D338E0EFA7B4">
		<Style>
			<IconStyle>
				<Icon>
					<href>https://earth.google.com/earth/document/icon?color=1976d2<![CDATA[&]]>id=2000<![CDATA[&]]>scale=4</href>
				</Icon>
				<hotSpot x="64" y="128" xunits="pixels" yunits="insetPixels"></hotSpot>
			</IconStyle>
			<LabelStyle>
			</LabelStyle>
			<LineStyle>
				<color>f03399ff</color>
				<width>4</width>
			</LineStyle>
			<PolyStyle>
				<color>40ffffff</color>
			</PolyStyle>
			<BalloonStyle>
			</BalloonStyle>
		</Style>
	</gx:CascadingStyle><gx:CascadingStyle kml:id="__managed_style_173954702838E104233C">
		<styleUrl>https://earth.google.com/balloon_components/base/1.1.0.0/none_template.kml#main</styleUrl>
		<Style>
			<IconStyle>
				<Icon>
					<href>https://earth.google.com/earth/document/icon?color=fbc02d<![CDATA[&]]>id=2000<![CDATA[&]]>scale=4</href>
				</Icon>
				<hotSpot x="64" y="128" xunits="pixels" yunits="insetPixels"></hotSpot>
			</IconStyle>
			<LabelStyle>
			</LabelStyle>
			<LineStyle>
				<color>ff2dc0fb</color>
				<width>4</width>
			</LineStyle>
			<PolyStyle>
				<color>40ffffff</color>
			</PolyStyle>
			<BalloonStyle>
				<displayMode>hide</displayMode>
			</BalloonStyle>
		</Style>
	</gx:CascadingStyle><gx:CascadingStyle kml:id="__managed_style_23EBCA710338E0EFA7B4">
		<Style>
			<IconStyle>
				<scale>1.2</scale>
				<Icon>
					<href>https://earth.google.com/earth/document/icon?color=1976d2<![CDATA[&]]>id=2000<![CDATA[&]]>scale=4</href>
				</Icon>
				<hotSpot x="64" y="128" xunits="pixels" yunits="insetPixels"></hotSpot>
			</IconStyle>
			<LabelStyle>
			</LabelStyle>
			<LineStyle>
				<color>ff2dc0fb</color>
				<width>6</width>
			</LineStyle>
			<PolyStyle>
				<color>40ffffff</color>
			</PolyStyle>
			<BalloonStyle>
			</BalloonStyle>
		</Style>
	</gx:CascadingStyle><gx:CascadingStyle kml:id="__managed_style_1BCCE7BD8D38E1053589">
		<styleUrl>https://earth.google.com/balloon_components/base/1.1.0.0/card_template.kml#main</styleUrl>
		<Style>
			<IconStyle>
				<Icon>
					<href>https://earth.google.com/earth/document/icon?color=1976d2<![CDATA[&]]>id=2000<![CDATA[&]]>scale=4</href>
				</Icon>
				<hotSpot x="64" y="128" xunits="pixels" yunits="insetPixels"></hotSpot>
			</IconStyle>
			<LabelStyle>
			</LabelStyle>
			<LineStyle>
				<color>ff2dc0fb</color>
				<width>4</width>
			</LineStyle>
			<PolyStyle>
				<color>40ffffff</color>
			</PolyStyle>
			<BalloonStyle>
			</BalloonStyle>
		</Style>
	</gx:CascadingStyle><gx:CascadingStyle kml:id="__managed_style_24E7D250B138E1053589">
		<styleUrl>https://earth.google.com/balloon_components/base/1.1.0.0/card_template.kml#main</styleUrl>
		<Style>
			<IconStyle>
				<scale>1.2</scale>
				<Icon>
					<href>https://earth.google.com/earth/document/icon?color=1976d2<![CDATA[&]]>id=2000<![CDATA[&]]>scale=4</href>
				</Icon>
				<hotSpot x="64" y="128" xunits="pixels" yunits="insetPixels"></hotSpot>
			</IconStyle>
			<LabelStyle>
			</LabelStyle>
			<LineStyle>
				<color>ff2dc0fb</color>
				<width>6</width>
			</LineStyle>
			<PolyStyle>
				<color>40ffffff</color>
			</PolyStyle>
			<BalloonStyle>
			</BalloonStyle>
		</Style>
	</gx:CascadingStyle>
	<StyleMap id="__managed_style_CA3F3F22D438E0EFA7B4">
		<Pair>
			<key>normal</key>
			<styleUrl>#failed120</styleUrl>
		</Pair>
		<Pair>
			<key>highlight</key>
			<styleUrl>#failed1100</styleUrl>
		</Pair>
	</StyleMap>
	<Style id="failed1100">
		<LineStyle>
			<color>ff0affff</color>
			<width>2</width>
		</LineStyle>
	</Style>
	<Style id="failed120">
		<LineStyle>
			<color>ff0affff</color>
			<width>2</width>
		</LineStyle>
	</Style>
	<StyleMap id="m_ylw-pushpin">
		<Pair>
			<key>normal</key>
			<styleUrl>#s_ylw-pushpin</styleUrl>
		</Pair>
		<Pair>
			<key>highlight</key>
			<styleUrl>#s_ylw-pushpin_hl</styleUrl>
		</Pair>
	</StyleMap>
	<Style id="s_ylw-pushpin">
		<IconStyle>
			<scale>1.1</scale>
			<Icon>
				<href>http://maps.google.com/mapfiles/kml/pushpin/red-pushpin.png</href>
			</Icon>
			<hotSpot x="20" y="2" xunits="pixels" yunits="pixels"/>
		</IconStyle>
		<ListStyle>
		</ListStyle>
	</Style>
	<Style id="s_ylw-pushpin_hl">
		<IconStyle>
			<scale>1.3</scale>
			<Icon>
				<href>http://maps.google.com/mapfiles/kml/pushpin/red-pushpin.png</href>
			</Icon>
			<hotSpot x="20" y="2" xunits="pixels" yunits="pixels"/>
		</IconStyle>
		<ListStyle>
		</ListStyle>
	</Style>
	<Placemark id="55BE9E912F000005">
		<name>IOT</name>
		<styleUrl>#__managed_style_CA3F3F22D438E0EFA7B4</styleUrl>
		<LineString>
			<coordinates>
				12.94096,43.12084,586.569 12.94104,43.12076,589.34 12.9412,43.12071,590.634 12.94129,43.12062,592.647 12.94122,43.12037,603.326 12.94119,43.11987,618.2910000000001 12.94138,43.11971,617.7809999999999 12.94152,43.11937,625.561 12.94187,43.11928,625.917 12.94211,43.11933,628.109 12.94228,43.11922,631.92 12.94251,43.11902,638.349 12.94273,43.11878,646.567 12.94281,43.11858,651.8630000000001 12.94277,43.11829,659.144 12.94254,43.11765,668.898 12.9426,43.11759,672.2809999999999 12.94269,43.11759,675.74 12.9429,43.11779,679.425 12.94308,43.11802,677.311 12.94332,43.11863,664.521 12.94331,43.1188,662.903 12.94337,43.11887,663.609 12.94346,43.11886,664.963 12.94379,43.1186,674.442 12.94408,43.11828,683.73 12.94428,43.11797,693.086 12.94462,43.11757,704.897 12.94481,43.11752,703.961 12.94487,43.11765,698.354 12.94508,43.11769,696.313 12.94534,43.11769,698.058 12.94564,43.11772,699.626 12.9459,43.11777,701.447 12.94605,43.1179,700.9109999999999 12.94614,43.11809,697.7089999999999 12.94626,43.11817,697.544 12.94643,43.11814,700.123 12.94682,43.11801,704.121 12.94701,43.11798,703.2369999999999 12.94728,43.11791,700.398 12.94756,43.11779,696.422 12.94766,43.1178,694.035 12.9477,43.11786,691.794 12.9477,43.11794,689.8889999999999 12.94766,43.11809,687.224 12.94747,43.11832,687.004 12.94727,43.11872,681.814 12.94693,43.11927,671.109 12.94683,43.11938,668.074 12.94675,43.11942,666.833 12.94669,43.11944,666.1609999999999 12.94647,43.11943,666.577 12.94641,43.11945,665.9880000000001 12.94637,43.1195,664.742 12.94639,43.11955,663.785 12.94644,43.1196,662.614 12.94656,43.11964,661.829 12.9469,43.11971,659.516 12.94703,43.11971,658.776 12.94718,43.11966,658.713 12.94746,43.1195,658.009 12.94785,43.11921,655.673 12.94826,43.11887,648.962 12.94868,43.11864,646.54 12.9486,43.11852,650.526 12.94863,43.11843,652.317 12.9489,43.11832,651.191 12.94897,43.11824,651.724 12.94899,43.11792,657.463 12.94929,43.11782,656.258 12.94932,43.11767,659.287 12.94958,43.11769,656.6420000000001 12.94983,43.11766,654.126 12.95011,43.11764,651.2089999999999 12.95026,43.11753,651.0700000000001 12.9504,43.11756,650.949 12.95041,43.11766,650.127 12.95048,43.11767,650.143 12.95052,43.11771,649.754 12.95063,43.11801,645.788 12.95071,43.1181,644.591 12.95084,43.11819,643.8200000000001 12.95143,43.1184,651.155 12.95169,43.11853,653.855 12.95183,43.11862,654.307 12.95212,43.11899,654.417 12.95233,43.1192,656.009 12.95245,43.11934,657.727 12.95251,43.11926,658.976 12.95245,43.11912,658.694 12.9528,43.11872,669.7499999999999 12.95313,43.11859,676.511 12.95313,43.11839,683.245 12.95307,43.11832,684.848 12.95283,43.11824,683.567 12.95277,43.11817,685.542 12.95286,43.11815,688.468 12.95357,43.11818,697.342 12.95377,43.11821,697.926 12.95389,43.11823,698.2089999999999 12.95359,43.118,706.748 12.95342,43.11793,708.367 12.9534,43.11784,713.225 12.95333,43.1177,718.221 12.95313,43.11743,721.292 12.95293,43.11727,719.876 12.95287,43.1171,720.8390000000001 12.95282,43.11645,728.418 12.95286,43.11641,730.553 12.95298,43.11644,734.175 12.95316,43.11655,738.028 12.95356,43.11671,748.3200000000001 12.95373,43.11684,750.009 12.95388,43.11706,747.599 12.95432,43.11717,750.068 12.9548587710799,43.11712140752038,752.0359999999999 12.95509,43.11704,756.752 12.95542,43.11683,767.083 12.95565,43.11675,767.937 12.95598,43.11669,765.5700000000001 12.9563,43.11657,768.419 12.95663,43.11647,771.374 12.95665,43.11631,777.362 12.95666,43.11618,782.4829999999998 12.95676,43.11603,788.211 12.95702,43.11606,789.0089999999999 12.95728,43.11627,788.228 12.95765,43.11648,798.297 12.958,43.11673,806.9749999999999 12.95827,43.11701,817.061 12.95852,43.11737,828.5420000000001 12.95872,43.11791,836.486 12.95887,43.11823,845.329 12.95899,43.1182,851.3680000000003 12.95901,43.11785,849.6629999999999 12.95921,43.11724,858.1969999999999 12.95931,43.11717,863.523 12.95937,43.11722,865.525 12.95952,43.11744,871.4089999999999 12.96001,43.11839,892.2309999999999 12.96016,43.11853,897.5299999999999 12.96034,43.1188,905.7579999999999 12.96056,43.11901,914.2439999999999 12.96076,43.11908,918.0849999999999 12.96109,43.11915,925.4289999999999 12.96133,43.1191,928.3919999999999 12.96139,43.11909,929.081 12.96183,43.11908,934.1159999999999 12.96172,43.11897,935.7189999999999 12.96149,43.11879,933.309 12.96131,43.1186,931.3189999999997 12.9612,43.11843,932.2089999999999 12.96114,43.11818,935.7729999999999 12.96112,43.11795,940.0919999999999 12.96113,43.11736,950.8099999999999 12.96121,43.11671,950.316 12.96134,43.11597,962.0569999999999 12.96142,43.11523,959.171 12.96141,43.11483,963.7140000000001 12.96159,43.11443,974.763 12.9618,43.11412,981.448 12.96201,43.11389,985.246 12.96281,43.11364,987.088 12.96329,43.11351,989.4159999999999 12.96338,43.1135,989.2089999999999 12.96457,43.11341,977.2960000000002 12.96531,43.11338,972.295 12.96577,43.1134,972.8329999999999 12.96667,43.11362,972.639 12.96799,43.114,961.3799999999999 12.96821,43.11401,957.5339999999998 12.9685,43.11384,960.487 12.96881,43.11378,958.216 12.96915,43.1138,953.4910000000001 12.9693,43.11368,954.6349999999998 12.96962,43.11353,954.4859999999999 12.96989,43.11348,949.9139999999999 12.96999,43.11334,951.0089999999999 12.97016,43.11328,948.3350000000002 12.97049,43.11319,944.0339999999999 12.97069,43.11323,941.522 12.97098,43.11318,938.0779999999999 12.97125,43.11326,936.349 12.97174,43.11352,932.4229999999999 12.97194,43.1137,930.076 12.97196,43.11372,929.8150000000001 12.97207,43.11384,928.1599999999999 12.97213,43.11399,927.5369999999999 12.97221,43.11401,927.449 12.97231,43.11397,926.3129999999999 12.9725,43.11367,924.809 12.97255,43.1131,920.2149999999999 12.97255,43.11303,920.0839999999999 12.97263,43.11295,920.172 12.97261,43.11276,921.3479999999997 12.97248,43.11269,922.5189999999999 12.97261880382837,43.1127335054756,922.5189999999999 12.97265880690302,43.1129506635755,922.5189999999999 12.97257800825019,43.1130259193233,922.5189999999999 12.97258040514629,43.11309692396608,922.5189999999999 12.97252132540196,43.11366601665808,922.5189999999999 12.97233978369875,43.11398089468538,922.5189999999999 12.97223059382285,43.11402628572637,922.5189999999999 12.97211240336247,43.11400488246073,922.5189999999999 12.97204649699431,43.11385572540336,922.5189999999999 12.9719381090006,43.11373961561379,922.5189999999999 12.97191946469027,43.11371485701275,922.5189999999999 12.97172785702553,43.11352979556811,922.5189999999999 12.97123992032073,43.11327309421331,922.5189999999999 12.97098506764741,43.11320078523865,922.5189999999999 12.97069080364167,43.11325172327568,922.5189999999999 12.97049448713631,43.11321138616111,922.5189999999999 12.97016527570298,43.11329913517888,922.5189999999999 12.97002006751261,43.11335377445378,922.5189999999999 12.96991890279639,43.11349772418775,922.5189999999999 12.96962087091733,43.11354865302787,922.5189999999999 12.96930677972777,43.11370349966997,922.5189999999999 12.96914656002409,43.11382481665327,922.5189999999999 12.9688109428388,43.11380260456993,922.5189999999999 12.96850380540212,43.11386293621366,922.5189999999999 12.96820860909636,43.11403176796669,922.5189999999999 12.96798296682953,43.11402468531086,922.5189999999999 12.96665678023763,43.11363893353433,922.5189999999999 12.96576893172118,43.11341793829958,922.5189999999999 12.9653049844303,43.11339846961025,922.5189999999999 12.96457874858311,43.11342572952724,922.5189999999999 12.96338100874516,43.11351747618654,922.5189999999999 12.96329002628286,43.11352938519115,922.5189999999999 12.96281039648562,43.11365518202673,922.5189999999999 12.9620360208785,43.11390392920011,922.5189999999999 12.96183082727713,43.1141219872742,922.5189999999999 12.96161382714665,43.11443024640083,922.5189999999999 12.9614373201398,43.11482998991544,922.5189999999999 12.96144711320951,43.11522751278705,922.5189999999999 12.96136682116078,43.11596468093697,922.5189999999999 12.96123386186893,43.11670493664258,922.5189999999999 12.9611507806603,43.11735851690456,922.5189999999999 12.9611370353371,43.1179477997631,922.5189999999999 12.96116123815523,43.11817647382064,922.5189999999999 12.96122678361798,43.11842465841234,922.5189999999999 12.96133168406105,43.11859468064382,922.5189999999999 12.96150625651301,43.11878114495884,922.5189999999999 12.96173290413988,43.11896222531908,922.5189999999999 12.96184801850454,43.11908725080843,922.5189999999999 12.96139504783814,43.11910384598831,922.5189999999999 12.9613296703714,43.11911538626861,922.5189999999999 12.96108913536843,43.11916209137492,922.5189999999999 12.9607494579913,43.11909037515255,922.5189999999999 12.96054760357094,43.11901707460274,922.5189999999999 12.96032988868094,43.11881101048107,922.5189999999999 12.96014699056405,43.11853395193901,922.5189999999999 12.95999755886799,43.11839477901036,922.5189999999999 12.95950151392543,43.11744185566565,922.5189999999999 12.95936152306435,43.11722949335843,922.5189999999999 12.95930995973838,43.11718264089427,922.5189999999999 12.95922520276958,43.11724974282694,922.5189999999999 12.9590287690853,43.1178495659984,922.5189999999999 12.95899947285516,43.11820805465818,922.5189999999999 12.95886584493341,43.11824204593969,922.5189999999999 12.95870446848848,43.11791831003325,922.5189999999999 12.95850480075182,43.11737931379393,922.5189999999999 12.95826046968008,43.11701658589305,922.5189999999999 12.95799057385789,43.11673979549265,922.5189999999999 12.95763553339532,43.11649011087483,922.5189999999999 12.95726793653105,43.11627755195646,922.5189999999999 12.95701701238645,43.11607303227102,922.5189999999999 12.95676398541532,43.11604427313559,922.5189999999999 12.95667268575902,43.11618928770728,922.5189999999999 12.95666481429312,43.11630889173594,922.5189999999999 12.95664361034169,43.11647930379273,922.5189999999999 12.95630845396611,43.11657733042001,922.5189999999999 12.95598263123024,43.1166968537697,922.5189999999999 12.95565322110069,43.11675731853026,922.5189999999999 12.95542784248586,43.11683640645023,922.5189999999999 12.95510093231686,43.11704628038369,922.5189999999999 12.95485431600461,43.11713233961809,922.5189999999999 12.95431799277175,43.11717510414578,922.5189999999999 12.95387340572661,43.11706506662272,922.5189999999999 12.95371644575907,43.11684562712291,922.5189999999999 12.95354661338776,43.11671862717082,922.5189999999999 12.95315251493717,43.11655666113293,922.5189999999999 12.9529761515913,43.11645161969883,922.5189999999999 12.9528633602923,43.1164213158654,922.5189999999999 12.9528376909281,43.11645555382914,922.5189999999999 12.95288575406497,43.11709028510985,922.5189999999999 12.9529457779165,43.11725934824963,922.5189999999999 12.95314318533304,43.11742087171892,922.5189999999999 12.95334595227158,43.1176941964969,922.5189999999999 12.95341284195351,43.11784158723375,922.5189999999999 12.95343618621585,43.11791765810936,922.5189999999999 12.95359978963704,43.11798545853672,922.5189999999999 12.95390597745938,43.11822202496302,922.5189999999999 12.95390549281753,43.11824087058398,922.5189999999999 12.95376562227714,43.118220679186,922.5189999999999 12.9535714981823,43.11818872528789,922.5189999999999 12.95287307256998,43.11815978598482,922.5189999999999 12.9527891529328,43.11817156692074,922.5189999999999 12.95284749889844,43.11823004214129,922.5189999999999 12.95308645407618,43.11830798923555,922.5189999999999 12.95315015860598,43.1183885135212,922.5189999999999 12.9531454313828,43.11859909461921,922.5189999999999 12.95281275607524,43.11872795076364,922.5189999999999 12.95246893462353,43.1191204361158,922.5189999999999 12.9525279571712,43.11925990902472,922.5189999999999 12.95246366002489,43.11934800437941,922.5189999999999 12.95243818816347,43.11935060529982,922.5189999999999 12.95231531829519,43.1192091864506,922.5189999999999 12.95210520706572,43.1190004722433,922.5189999999999 12.95181618848231,43.11862867645284,922.5189999999999 12.95167614801771,43.11854002976814,922.5189999999999 12.95141660877827,43.11840801410599,922.5189999999999 12.95082945219296,43.11819862207902,922.5189999999999 12.95069647697902,43.11810653972605,922.5189999999999 12.95061882384461,43.11801730920329,922.5189999999999 12.9505031497434,43.1177113120448,922.5189999999999 12.9504704069232,43.11767913001049,922.5189999999999 12.95039958162759,43.11766956472832,922.5189999999999 12.95038939777391,43.11756818502608,922.5189999999999 12.95026081109043,43.11754208647206,922.5189999999999 12.95012085732665,43.11764740278299,922.5189999999999 12.94982936883327,43.11767163998672,922.5189999999999 12.94957670422098,43.11769830937686,922.5189999999999 12.94933411489609,43.11767797481222,922.5189999999999 12.9493055642246,43.1178289275557,922.5189999999999 12.94900303910854,43.11792926701231,922.5189999999999 12.94897914522116,43.11824687143538,922.5189999999999 12.94891562839448,43.11832698765827,922.5189999999999 12.94864514317483,43.11843844693928,922.5189999999999 12.94862224329564,43.11850906225338,922.5189999999999 12.94870167982422,43.11865430220924,922.5189999999999 12.94827495983587,43.11887712168495,922.5189999999999 12.9478678462879,43.1192193422089,922.5189999999999 12.94748173323939,43.11951235119553,922.5189999999999 12.9471887142871,43.11967614073463,922.5189999999999 12.94703543349095,43.11972628538278,922.5189999999999 12.94689943531501,43.11972627227132,922.5189999999999 12.94654568950408,43.11965051638653,922.5189999999999 12.94642863247445,43.11961100283197,922.5189999999999 12.9463616834875,43.11954887643856,922.5189999999999 12.94635039442703,43.11949861167061,922.5189999999999 12.9463905670554,43.11945069975093,922.5189999999999 12.94647192701441,43.11941529168332,922.5189999999999 12.94668920565908,43.11942265706111,922.5189999999999 12.94675551820232,43.11940361387437,922.5189999999999 12.94682291488655,43.11936590146553,922.5189999999999 12.94692013721602,43.1192584820519,922.5189999999999 12.94725459604132,43.11870607622075,922.5189999999999 12.94745839577638,43.1183083356846,922.5189999999999 12.94764604362696,43.11807948432534,922.5189999999999 12.94768502241576,43.11794081042306,922.5189999999999 12.94768117157243,43.1178622946755,922.5189999999999 12.94765358652019,43.11780890273234,922.5189999999999 12.94757294431634,43.11780077233308,922.5189999999999 12.94728919682581,43.11792093146605,922.5189999999999 12.94701596238226,43.1179953071769,922.5189999999999 12.9468326225329,43.11801916896817,922.5189999999999 12.94644079902104,43.1181471169006,922.5189999999999 12.94624293046972,43.1181823327377,922.5189999999999 12.94612471908416,43.11809340198542,922.5189999999999 12.94603121296555,43.11790045541391,922.5189999999999 12.94589542144568,43.11778546628275,922.5189999999999 12.94563865074964,43.11773298729228,922.5189999999999 12.94534101270547,43.11771056451401,922.5189999999999 12.94508011346575,43.1177133140712,922.5189999999999 12.94486454632428,43.11767175876897,922.5189999999999 12.9447902017235,43.11754753259137,922.5189999999999 12.94464707837619,43.11758750908754,922.5189999999999 12.94429982202853,43.11799167266929,922.5189999999999 12.94411691359267,43.11829411255412,922.5189999999999 12.94382028032594,43.11862019375078,922.5189999999999 12.9434881247002,43.11887584169035,922.5189999999999 12.94335658546849,43.11888623636153,922.5189999999999 12.94328985266271,43.11879996786666,922.5189999999999 12.94329584408819,43.11863133501607,922.5189999999999 12.94306178200757,43.11802114540492,922.5189999999999 12.94287458846956,43.11778885420794,922.5189999999999 12.94267991056812,43.11760233973207,922.5189999999999 12.94261074117894,43.11760232942726,922.5189999999999 12.94256019954702,43.11765395436765,922.5189999999999 12.94280167782274,43.1182858809667,922.5189999999999 12.942836912615,43.11858085339831,922.5189999999999 12.94274818544817,43.11878996418501,922.5189999999999 12.9425159510724,43.11903682260677,922.5189999999999 12.94229847655744,43.11923156759956,922.5189999999999 12.94210947150733,43.11934733718348,922.5189999999999 12.94187681637757,43.11929375091702,922.5189999999999 12.94153169335365,43.11938571465627,922.5189999999999 12.941396492625,43.11972088893641,922.5189999999999 12.94121140735253,43.11987194558141,922.5189999999999 12.94123971760405,43.12037087084519,922.5189999999999 12.94131724903813,43.12061733847586,922.5189999999999 12.94119637825111,43.12072703359576,922.5189999999999 12.94105773137583,43.12077253690073,922.5189999999999 12.94100467234758,43.12083191964074,922.5189999999999 
			</coordinates>
		</LineString>
	</Placemark>
	<Placemark>
		<name>1</name>
		<description>Prendi il sentiero in direzione sudest;Take the path heading southeast</description>
		<LookAt>
			<longitude>12.94162002279435</longitude>
			<latitude>43.12023596822868</latitude>
			<altitude>0</altitude>
			<heading>-0.02641059449643273</heading>
			<tilt>17.48354451654973</tilt>
			<range>153.6001247968001</range>
			<gx:altitudeMode>relativeToSeaFloor</gx:altitudeMode>
		</LookAt>
		<styleUrl>#m_ylw-pushpin</styleUrl>
		<Point>
			<gx:drawOrder>1</gx:drawOrder>
			<coordinates>12.94095266153112,43.12079070893051,0</coordinates>
		</Point>
	</Placemark>
	<Placemark>
		<name>2</name>
		<description>Gira a destra;Turn right</description>
		<LookAt>
			<longitude>12.9491414886946</longitude>
			<latitude>43.11825990973681</latitude>
			<altitude>0</altitude>
			<heading>-0.009411007199504811</heading>
			<tilt>30.00103606065401</tilt>
			<range>230.9790148019342</range>
			<gx:altitudeMode>relativeToSeaFloor</gx:altitudeMode>
		</LookAt>
		<styleUrl>#m_ylw-pushpin</styleUrl>
		<Point>
			<gx:drawOrder>1</gx:drawOrder>
			<coordinates>12.94861561554344,43.11862078266064,0</coordinates>
		</Point>
	</Placemark>
	<Placemark>
		<name>3</name>
		<open>1</open>
		<description>Gira a destra;Turn right</description>
		<LookAt>
			<longitude>12.94968908218767</longitude>
			<latitude>43.11778865984692</latitude>
			<altitude>0</altitude>
			<heading>-0.00903672531600455</heading>
			<tilt>30.00103606065401</tilt>
			<range>230.9790148035411</range>
			<gx:altitudeMode>relativeToSeaFloor</gx:altitudeMode>
		</LookAt>
		<styleUrl>#m_ylw-pushpin</styleUrl>
		<Point>
			<gx:drawOrder>1</gx:drawOrder>
			<coordinates>12.95042754551416,43.11763588718003,0</coordinates>
		</Point>
	</Placemark>
	<Placemark>
		<name>4</name>
		<open>1</open>
		<description>Gira a destra;Turn right</description>
		<LookAt>
			<longitude>12.95053265351792</longitude>
			<latitude>43.11769477465563</latitude>
			<altitude>0</altitude>
			<heading>-0.008460420601647809</heading>
			<tilt>30.00166834934106</tilt>
			<range>371.5336787168752</range>
			<gx:altitudeMode>relativeToSeaFloor</gx:altitudeMode>
		</LookAt>
		<styleUrl>#m_ylw-pushpin</styleUrl>
		<Point>
			<gx:drawOrder>1</gx:drawOrder>
			<coordinates>12.95239789642345,43.11922453122299,0</coordinates>
		</Point>
	</Placemark>
	<Placemark>
		<name>5</name>
		<open>1</open>
		<description>Gira a destra;Turn right</description>
		<LookAt>
			<longitude>12.95225592318285</longitude>
			<latitude>43.11825723281231</latitude>
			<altitude>0</altitude>
			<heading>-0.007299668455083985</heading>
			<tilt>28.08581753127163</tilt>
			<range>295.2227913860167</range>
			<gx:altitudeMode>relativeToSeaFloor</gx:altitudeMode>
		</LookAt>
		<styleUrl>#m_ylw-pushpin</styleUrl>
		<Point>
			<gx:drawOrder>1</gx:drawOrder>
			<coordinates>12.95303924149822,43.11854119589193,0</coordinates>
		</Point>
	</Placemark>
	<Placemark>
		<name>6</name>
		<open>1</open>
		<description>Gira a destra;Turn right</description>
		<LookAt>
			<longitude>12.96084160491533</longitude>
			<latitude>43.1190282242571</latitude>
			<altitude>0</altitude>
			<heading>-0.001560249059350322</heading>
			<tilt>22.73844127254954</tilt>
			<range>146.239583259747</range>
			<gx:altitudeMode>relativeToSeaFloor</gx:altitudeMode>
		</LookAt>
		<styleUrl>#m_ylw-pushpin</styleUrl>
		<Point>
			<gx:drawOrder>1</gx:drawOrder>
			<coordinates>12.96177444169377,43.1190566708316,0</coordinates>
		</Point>
	</Placemark>
	<Placemark>
		<name>7</name>
		<description>Gira a sinistra;Turn left</description>
		<LookAt>
			<longitude>12.96254963640262</longitude>
			<latitude>43.11477244019273</latitude>
			<altitude>0</altitude>
			<heading>-0.0003927798475185586</heading>
			<tilt>22.73906341674203</tilt>
			<range>325.4213237569234</range>
			<gx:altitudeMode>relativeToSeaFloor</gx:altitudeMode>
		</LookAt>
		<styleUrl>#m_ylw-pushpin</styleUrl>
		<Point>
			<gx:drawOrder>1</gx:drawOrder>
			<coordinates>12.96133055555556,43.114825,0</coordinates>
		</Point>
	</Placemark>
	<Placemark>
		<name>8</name>
		<description>Gira a destra;Turn right</description>
		<LookAt>
			<longitude>12.97176925094135</longitude>
			<latitude>43.11306562677893</latitude>
			<altitude>0</altitude>
			<heading>0.006133277669243526</heading>
			<tilt>30.00088259708589</tilt>
			<range>196.6363239781829</range>
			<gx:altitudeMode>relativeToSeaFloor</gx:altitudeMode>
		</LookAt>
		<styleUrl>#m_ylw-pushpin</styleUrl>
		<Point>
			<gx:drawOrder>1</gx:drawOrder>
			<coordinates>12.97248975287307,43.11300993972733,0</coordinates>
		</Point>
	</Placemark>
	<Placemark>
		<name>9</name>
		<description>Per chiudere l&apos;anello torna indietro ripercorrendo lo stesso percorso;To close the loop, go back along the same path.</description>
		<LookAt>
			<longitude>12.97176925094135</longitude>
			<latitude>43.11306562677893</latitude>
			<altitude>0</altitude>
			<heading>0.006133277669243526</heading>
			<tilt>30.00088259708589</tilt>
			<range>196.6363239781829</range>
			<gx:altitudeMode>relativeToSeaFloor</gx:altitudeMode>
		</LookAt>
		<styleUrl>#m_ylw-pushpin</styleUrl>
		<Point>
			<gx:drawOrder>1</gx:drawOrder>
			<coordinates>12.97247371530429,43.11264223569535,0</coordinates>
		</Point>
	</Placemark>
	<Placemark>
		<name>10</name>
		<description>Gira a sinistra;Turn left</description>
		<LookAt>
			<longitude>12.97175363167455</longitude>
			<latitude>43.1130328019703</latitude>
			<altitude>0</altitude>
			<heading>0.006122611829220173</heading>
			<tilt>30.00113092375591</tilt>
			<range>251.8896261130236</range>
			<gx:altitudeMode>relativeToSeaFloor</gx:altitudeMode>
		</LookAt>
		<styleUrl>#m_ylw-pushpin</styleUrl>
		<Point>
			<gx:drawOrder>1</gx:drawOrder>
			<coordinates>12.9726936629417,43.11294435527431,0</coordinates>
		</Point>
	</Placemark>
	<Placemark>
		<name>11</name>
		<description>Gira a destra;Turn right</description>
		<LookAt>
			<longitude>12.96174274812117</longitude>
			<latitude>43.11445253561634</latitude>
			<altitude>0</altitude>
			<heading>-0.0007192481988267475</heading>
			<tilt>30.00113092375586</tilt>
			<range>251.8896261101859</range>
			<gx:altitudeMode>relativeToSeaFloor</gx:altitudeMode>
		</LookAt>
		<styleUrl>#m_ylw-pushpin</styleUrl>
		<Point>
			<gx:drawOrder>1</gx:drawOrder>
			<coordinates>12.96149491862686,43.11481132981708,0</coordinates>
		</Point>
	</Placemark>
	<Placemark>
		<name>12</name>
		<description>Gira a sinistra;Turn left</description>
		<LookAt>
			<longitude>12.96059940219897</longitude>
			<latitude>43.11873895888056</latitude>
			<altitude>0</altitude>
			<heading>-0.001500743212669772</heading>
			<tilt>30.00113092375587</tilt>
			<range>251.8896261100505</range>
			<gx:altitudeMode>relativeToSeaFloor</gx:altitudeMode>
		</LookAt>
		<styleUrl>#m_ylw-pushpin</styleUrl>
		<Point>
			<gx:drawOrder>1</gx:drawOrder>
			<coordinates>12.96190098615862,43.11910466523555,0</coordinates>
		</Point>
	</Placemark>
	<Placemark>
		<name>13</name>
		<description>Gira a sinistra;Turn left</description>
		<LookAt>
			<longitude>12.95315305669936</longitude>
			<latitude>43.11858783469555</latitude>
			<altitude>0</altitude>
			<heading>-0.00659057958954741</heading>
			<tilt>30.00133586052468</tilt>
			<range>297.1500006905669</range>
			<gx:altitudeMode>relativeToSeaFloor</gx:altitudeMode>
		</LookAt>
		<styleUrl>#m_ylw-pushpin</styleUrl>
		<Point>
			<gx:drawOrder>1</gx:drawOrder>
			<coordinates>12.95322573849604,43.11861059578218,0</coordinates>
		</Point>
	</Placemark>
	<Placemark>
		<name>14</name>
		<description>Gira a sinistra;Turn left</description>
		<LookAt>
			<longitude>12.95316333453169</longitude>
			<latitude>43.11860566194927</latitude>
			<altitude>0</altitude>
			<heading>-0.006584740221323966</heading>
			<tilt>29.90544606634316</tilt>
			<range>260.6713217887572</range>
			<gx:altitudeMode>relativeToSeaFloor</gx:altitudeMode>
		</LookAt>
		<styleUrl>#m_ylw-pushpin</styleUrl>
		<Point>
			<gx:drawOrder>1</gx:drawOrder>
			<coordinates>12.95251550397846,43.11937131826012,0</coordinates>
		</Point>
	</Placemark>
	<Placemark>
		<name>15</name>
		<description>Gira a sinistra;Turn left</description>
		<LookAt>
			<longitude>12.95021874818083</longitude>
			<latitude>43.11760331932352</latitude>
			<altitude>0</altitude>
			<heading>-0.008597414265952789</heading>
			<tilt>29.90544606634315</tilt>
			<range>260.6713217817417</range>
			<gx:altitudeMode>relativeToSeaFloor</gx:altitudeMode>
		</LookAt>
		<styleUrl>#m_ylw-pushpin</styleUrl>
		<Point>
			<gx:drawOrder>1</gx:drawOrder>
			<coordinates>12.95037552474405,43.11768255409747,0</coordinates>
		</Point>
	</Placemark>
	<Placemark>
		<name>16</name>
		<description>Gira a sinistra;Turn left</description>
		<LookAt>
			<longitude>12.94794961048551</longitude>
			<latitude>43.11849357526619</latitude>
			<altitude>0</altitude>
			<heading>-0.01015703818976246</heading>
			<tilt>29.20407221832375</tilt>
			<range>225.8052705672492</range>
			<gx:altitudeMode>relativeToSeaFloor</gx:altitudeMode>
		</LookAt>
		<styleUrl>#m_ylw-pushpin</styleUrl>
		<Point>
			<gx:drawOrder>1</gx:drawOrder>
			<coordinates>12.94875994910664,43.11866754280516,0</coordinates>
		</Point>
	</Placemark>
</Document>
</kml>
