<?xml version="1.0" encoding="UTF-8"?>
<kml xmlns="http://www.opengis.net/kml/2.2" xmlns:gx="http://www.google.com/kml/ext/2.2" xmlns:kml="http://www.opengis.net/kml/2.2" xmlns:atom="http://www.w3.org/2005/Atom">
<Document>
	<name>IoT Alla scoperta della ceramica.kml</name>
	<StyleMap id="msn_ylw-pushpin010">
		<Pair>
			<key>normal</key>
			<styleUrl>#sn_ylw-pushpin2</styleUrl>
		</Pair>
		<Pair>
			<key>highlight</key>
			<styleUrl>#sh_ylw-pushpin000</styleUrl>
		</Pair>
	</StyleMap>
	<Style id="sh_ylw-pushpin000">
		<IconStyle>
			<scale>1.3</scale>
			<Icon>
				<href>http://maps.google.com/mapfiles/kml/pushpin/ylw-pushpin.png</href>
			</Icon>
			<hotSpot x="20" y="2" xunits="pixels" yunits="pixels"/>
		</IconStyle>
		<LineStyle>
			<color>ff00f8ff</color>
			<width>4</width>
		</LineStyle>
	</Style>
	<Style id="sn_ylw-pushpin2">
		<IconStyle>
			<scale>1.1</scale>
			<Icon>
				<href>http://maps.google.com/mapfiles/kml/pushpin/ylw-pushpin.png</href>
			</Icon>
			<hotSpot x="20" y="2" xunits="pixels" yunits="pixels"/>
		</IconStyle>
		<LineStyle>
			<color>ff00f8ff</color>
			<width>4</width>
		</LineStyle>
	</Style>
	<Placemark>
		<name>IoT Alla scoperta della ceramica</name>
		<styleUrl>#msn_ylw-pushpin010</styleUrl>
		<LineString>
			<tessellate>1</tessellate>
			<coordinates>
				13.34605437233823,43.36388830931242,0 13.34570441959495,43.36423893327827,0 13.34517738768865,43.36412930905266,0 13.34519708981742,43.36401502705635,0 13.34508863852568,43.36395971962524,0 13.34520004863647,43.36384736099678,0 13.34537061319591,43.36314257295541,0 13.3457923172294,43.36337860580003,0 13.345890849575,43.3633911375047,0 13.34627175873176,43.36361143834461,0 13.3462962663643,43.36375006114463,0 13.34648589534762,43.36371706931124,0 13.34673449009627,43.36358659444657,0 13.34673668943929,43.36324228066449,0 13.34647646108423,43.36299912693369,0 13.34594948050693,43.36297645539032,0 13.3456603955,43.3630193672856,0 13.34543112474568,43.3629577604264,0 13.34563645698201,43.36203667955528,0 
			</coordinates>
		</LineString>
		<atom:link rel="app" href="https://www.google.com/earth/about/versions/#earth-pro" title="Google Earth Pro 7.3.6.10201"></atom:link>
	</Placemark>
</Document>
</kml>
