<?xml version="1.0" encoding="UTF-8"?>
<kml xmlns="http://www.opengis.net/kml/2.2" xmlns:gx="http://www.google.com/kml/ext/2.2" xmlns:kml="http://www.opengis.net/kml/2.2" xmlns:atom="http://www.w3.org/2005/Atom">
<Document>
	<name>Pollenza_IOT_indicazioni.kml</name>
	<StyleMap id="m_ylw-pushpin">
		<Pair>
			<key>normal</key>
			<styleUrl>#s_ylw-pushpin</styleUrl>
		</Pair>
		<Pair>
			<key>highlight</key>
			<styleUrl>#s_ylw-pushpin_hl</styleUrl>
		</Pair>
	</StyleMap>
	<StyleMap id="msn_ylw-pushpin">
		<Pair>
			<key>normal</key>
			<styleUrl>#sn_ylw-pushpin</styleUrl>
		</Pair>
		<Pair>
			<key>highlight</key>
			<styleUrl>#sh_ylw-pushpin</styleUrl>
		</Pair>
	</StyleMap>
	<Style id="s_ylw-pushpin">
		<IconStyle>
			<scale>1.1</scale>
			<Icon>
				<href>http://maps.google.com/mapfiles/kml/pushpin/red-pushpin.png</href>
			</Icon>
			<hotSpot x="20" y="2" xunits="pixels" yunits="pixels"/>
		</IconStyle>
		<ListStyle>
		</ListStyle>
	</Style>
	<Style id="s_ylw-pushpin_hl">
		<IconStyle>
			<scale>1.3</scale>
			<Icon>
				<href>http://maps.google.com/mapfiles/kml/pushpin/red-pushpin.png</href>
			</Icon>
			<hotSpot x="20" y="2" xunits="pixels" yunits="pixels"/>
		</IconStyle>
		<ListStyle>
		</ListStyle>
	</Style>
	<Style id="sh_ylw-pushpin">
		<IconStyle>
			<scale>1.3</scale>
			<Icon>
				<href>http://maps.google.com/mapfiles/kml/pushpin/ylw-pushpin.png</href>
			</Icon>
			<hotSpot x="20" y="2" xunits="pixels" yunits="pixels"/>
		</IconStyle>
		<BalloonStyle>
		</BalloonStyle>
		<LineStyle>
			<color>ff00ffff</color>
			<width>4</width>
		</LineStyle>
	</Style>
	<Style id="sn_ylw-pushpin">
		<IconStyle>
			<scale>1.1</scale>
			<Icon>
				<href>http://maps.google.com/mapfiles/kml/pushpin/ylw-pushpin.png</href>
			</Icon>
			<hotSpot x="20" y="2" xunits="pixels" yunits="pixels"/>
		</IconStyle>
		<BalloonStyle>
		</BalloonStyle>
		<LineStyle>
			<color>ff00ffff</color>
			<width>4</width>
		</LineStyle>
	</Style>
	<Folder>
		<name>IOT</name>
		<open>1</open>
		<Placemark>
			<name>IoT</name>
			<styleUrl>#msn_ylw-pushpin</styleUrl>
			<LineString>
				<tessellate>1</tessellate>
				<coordinates>
					13.34774803715019,43.26781566185164,0 13.34670455044341,43.2689510889969,0 13.34576597058727,43.26908402166944,0 13.34634860594819,43.26816633170311,0 13.34643979208253,43.26809093433397,0 13.34758169306089,43.26733301994432,0 13.34752189570394,43.26728646754501,0 13.34689059007359,43.26760123588064,0 13.34678303330118,43.26761754748457,0 13.34606124379242,43.26751026724509,0 13.34569230222548,43.26676325802836,0 13.345758000881,43.26674576937249,0 13.34585686646366,43.26694432739608,0 13.34676388245929,43.26703238610595,0 13.34686120124532,43.26652156370878,0 13.34704474911422,43.26604171266658,0 13.34772900913687,43.26612124671191,0 13.34794926991756,43.26591287392569,0 13.34816519955039,43.26576745419882,0 13.34843003213406,43.26572658096909,0 13.34871041771699,43.26569604422075,0 13.34903410385099,43.26576666040808,0 13.34929145851816,43.26584320694761,0 13.34943648136961,43.26592046791767,0 13.34955283334712,43.26600972944818,0 13.3496475867345,43.26611716624293,0 13.34972394770457,43.26624696208479,0 13.34970035845071,43.26645863088901,0 13.34962589007583,43.26674055057737,0 13.34946064611747,43.26714506470276,0 13.34935407740628,43.26721320759801,0 13.34914770839018,43.26762538834758,0 13.34900334029212,43.26778666509222,0 13.34853435233705,43.26805325620267,0 13.34831327025319,43.2682286648436,0 13.34829210700574,43.26820620894563,0 13.34852694880033,43.26802826855234,0 13.34899816273766,43.26776173936169,0 13.34913620186747,43.26759097854335,0 13.34933527781837,43.26719763047514,0 13.34966370585899,43.26700774140461,0 13.34998896752172,43.2667920361687,0 13.35027402123953,43.26650572679394,0 13.35049892088433,43.26610746799698,0 13.35058191617909,43.26589651908912,0 13.35069862420116,43.26572087237894,0 13.35100530639624,43.26550318105767,0 13.35166188979271,43.2651651444444,0 13.35253052339274,43.2645729147706,0 13.35316683018002,43.26412820438105,0 13.35334885399156,43.26390223591944,0 13.35347996504454,43.26358845137175,0 13.35384075818904,43.26238250576479,0 13.35400238674639,43.2619541953703,0 13.3543871384404,43.26126805227669,0 13.35556803994852,43.26002089046519,0 13.35607462193784,43.25974727985414,0 13.35712851412048,43.25929519947737,0 13.35792343409423,43.25899599467218,0 13.35859705022618,43.25787969677444,0 13.3588051246121,43.25769430319608,0 13.35900206615064,43.25757851201576,0 13.35917309802122,43.25750892644315,0 13.35992579777357,43.25730730100775,0 13.36043116442843,43.2571797444273,0 13.36066100128127,43.25719793004521,0 13.36100757231486,43.25724722873912,0 13.36144436141049,43.25733808366421,0 13.36170697924677,43.25743584233838,0 13.36205115660248,43.25760355671605,0 
				</coordinates>
			</LineString>
		</Placemark>
		<Placemark>
			<name>1</name>
			<description>Procedi in direzione nord su Piazza della Libertà verso Via Roma;Proceed north on Piazza della Libertà towards Via Roma</description>
			<LookAt>
				<longitude>13.34743507229476</longitude>
				<latitude>43.26701234925296</latitude>
				<altitude>0</altitude>
				<heading>2.623457208765116</heading>
				<tilt>5.12819515022612</tilt>
				<range>519.4853560969591</range>
				<gx:altitudeMode>relativeToSeaFloor</gx:altitudeMode>
			</LookAt>
			<styleUrl>#m_ylw-pushpin</styleUrl>
			<Point>
				<gx:drawOrder>1</gx:drawOrder>
				<coordinates>13.34774483382649,43.2678894193396,0</coordinates>
			</Point>
		</Placemark>
		<Placemark>
			<name>2</name>
			<description>Via Roma svolta leggermente a sinistra e diventa Via Schiavonia;Via Roma turns slightly left and becomes Via Schiavonia</description>
			<LookAt>
				<longitude>13.34743507229476</longitude>
				<latitude>43.26701234925297</latitude>
				<altitude>0</altitude>
				<heading>2.623457208761888</heading>
				<tilt>5.12819515022612</tilt>
				<range>519.4853560939251</range>
				<gx:altitudeMode>relativeToSeaFloor</gx:altitudeMode>
			</LookAt>
			<styleUrl>#m_ylw-pushpin</styleUrl>
			<Point>
				<gx:drawOrder>1</gx:drawOrder>
				<coordinates>13.34677880721498,43.2689563592395,0</coordinates>
			</Point>
		</Placemark>
		<Placemark>
			<name>3</name>
			<description>Svolta a sinistra e prendi Viale R. Sanzio;Turn left and take Viale R. Sanzio</description>
			<LookAt>
				<longitude>13.34742794200648</longitude>
				<latitude>43.26701258716827</latitude>
				<altitude>0</altitude>
				<heading>2.623452321796608</heading>
				<tilt>5.12819515022612</tilt>
				<range>519.4853560950972</range>
				<gx:altitudeMode>relativeToSeaFloor</gx:altitudeMode>
			</LookAt>
			<styleUrl>#m_ylw-pushpin</styleUrl>
			<Point>
				<gx:drawOrder>1</gx:drawOrder>
				<coordinates>13.34574641908002,43.2690993541104,0</coordinates>
			</Point>
		</Placemark>
		<Placemark>
			<name>4</name>
			<description>Svolta tutto a destra e prendi Via Papa Giovanni XXIII;Turn right and take Via Papa Giovanni XXIII</description>
			<LookAt>
				<longitude>13.34616718977057</longitude>
				<latitude>43.26665789305152</latitude>
				<altitude>0</altitude>
				<heading>2.622588247512864</heading>
				<tilt>5.128195150225977</tilt>
				<range>519.4853560955611</range>
				<gx:altitudeMode>relativeToSeaFloor</gx:altitudeMode>
			</LookAt>
			<styleUrl>#m_ylw-pushpin</styleUrl>
			<Point>
				<gx:drawOrder>1</gx:drawOrder>
				<coordinates>13.34763056268308,43.26730515708164,0</coordinates>
			</Point>
		</Placemark>
		<Placemark>
			<name>5</name>
			<description>Procedi in direzione nord su Via Papa Giovanni XXIII verso Via Giuseppe Fammilume;Proceed north on Via Papa Giovanni XXIII towards Via Giuseppe Fammilume</description>
			<LookAt>
				<longitude>13.34614982989322</longitude>
				<latitude>43.26660097008124</latitude>
				<altitude>0</altitude>
				<heading>2.622598147855196</heading>
				<tilt>23.69930934838447</tilt>
				<range>181.5184968802248</range>
				<gx:altitudeMode>relativeToSeaFloor</gx:altitudeMode>
			</LookAt>
			<styleUrl>#m_ylw-pushpin</styleUrl>
			<Point>
				<gx:drawOrder>1</gx:drawOrder>
				<coordinates>13.34566073251162,43.26674517786422,0</coordinates>
			</Point>
		</Placemark>
		<Placemark>
			<name>6</name>
			<description>Svolta a destra e prendi Via Giuseppe Fammilume;Turn right and take Via Giuseppe Fammilume</description>
			<LookAt>
				<longitude>13.34612746698517</longitude>
				<latitude>43.26659185500377</latitude>
				<altitude>0</altitude>
				<heading>2.622582820723504</heading>
				<tilt>23.69930934838445</tilt>
				<range>181.5184968817629</range>
				<gx:altitudeMode>relativeToSeaFloor</gx:altitudeMode>
			</LookAt>
			<styleUrl>#m_ylw-pushpin</styleUrl>
			<Point>
				<gx:drawOrder>1</gx:drawOrder>
				<coordinates>13.34585967655708,43.26690063265472,0</coordinates>
			</Point>
		</Placemark>
		<Placemark>
			<name>7</name>
			<description>Svolta a destra e prendi Via Melograno;Turn right and take Via Melograno</description>
			<LookAt>
				<longitude>13.3462126637125</longitude>
				<latitude>43.26660460083349</latitude>
				<altitude>0</altitude>
				<heading>2.62264121373459</heading>
				<tilt>23.69930934838442</tilt>
				<range>181.518496879528</range>
				<gx:altitudeMode>relativeToSeaFloor</gx:altitudeMode>
			</LookAt>
			<styleUrl>#m_ylw-pushpin</styleUrl>
			<Point>
				<gx:drawOrder>1</gx:drawOrder>
				<coordinates>13.34678060588251,43.26705956950838,0</coordinates>
			</Point>
		</Placemark>
		<Placemark>
			<name>8</name>
			<description>Gira a sinistra;Turn left</description>
			<LookAt>
				<longitude>13.34741381837885</longitude>
				<latitude>43.26620977653859</latitude>
				<altitude>0</altitude>
				<heading>2.623560074133502</heading>
				<tilt>30.00073265359227</tilt>
				<range>162.4335221122479</range>
				<gx:altitudeMode>relativeToSeaFloor</gx:altitudeMode>
			</LookAt>
			<styleUrl>#m_ylw-pushpin</styleUrl>
			<Point>
				<gx:drawOrder>1</gx:drawOrder>
				<coordinates>13.34702878594901,43.26602602643897,0</coordinates>
			</Point>
		</Placemark>
		<Placemark>
			<name>9</name>
			<description>Gira a destra su Viale R.Sanzio;Turn right onto Viale R.Sanzio</description>
			<LookAt>
				<longitude>13.34742646780646</longitude>
				<latitude>43.26621078734497</latitude>
				<altitude>0</altitude>
				<heading>2.623568743825619</heading>
				<tilt>30.0007326535923</tilt>
				<range>162.4335221150474</range>
				<gx:altitudeMode>relativeToSeaFloor</gx:altitudeMode>
			</LookAt>
			<styleUrl>#m_ylw-pushpin</styleUrl>
			<Point>
				<gx:drawOrder>1</gx:drawOrder>
				<coordinates>13.34772716150224,43.26613821737408,0</coordinates>
			</Point>
		</Placemark>
		<Placemark>
			<name>10</name>
			<description>Continua su Viale Mura di Levante;Continue on Viale Mura di Levante</description>
			<LookAt>
				<longitude>13.34846511546874</longitude>
				<latitude>43.266134303291</latitude>
				<altitude>0</altitude>
				<heading>2.624280614346098</heading>
				<tilt>30.00073265359227</tilt>
				<range>162.4335221157882</range>
				<gx:altitudeMode>relativeToSeaFloor</gx:altitudeMode>
			</LookAt>
			<styleUrl>#m_ylw-pushpin</styleUrl>
			<Point>
				<gx:drawOrder>1</gx:drawOrder>
				<coordinates>13.34868989736387,43.26568413877247,0</coordinates>
			</Point>
		</Placemark>
		<Placemark>
			<name>11</name>
			<description>Tirni la sinistra;Keep left</description>
			<LookAt>
				<longitude>13.34901052235443</longitude>
				<latitude>43.2669759390387</latitude>
				<altitude>0</altitude>
				<heading>2.62465442407702</heading>
				<tilt>30.0007326535923</tilt>
				<range>162.4335221140385</range>
				<gx:altitudeMode>relativeToSeaFloor</gx:altitudeMode>
			</LookAt>
			<styleUrl>#m_ylw-pushpin</styleUrl>
			<Point>
				<gx:drawOrder>1</gx:drawOrder>
				<coordinates>13.34964444444445,43.26674444444444,0</coordinates>
			</Point>
		</Placemark>
		<Placemark>
			<name>12</name>
			<description>Gira a sinistra e prendi Via Giacomo Leopardi;Turn left and take Via Giacomo Leopardi</description>
			<LookAt>
				<longitude>13.34901052235443</longitude>
				<latitude>43.2669759390387</latitude>
				<altitude>0</altitude>
				<heading>2.62465442407702</heading>
				<tilt>30.0007326535923</tilt>
				<range>162.4335221140385</range>
				<gx:altitudeMode>relativeToSeaFloor</gx:altitudeMode>
			</LookAt>
			<styleUrl>#m_ylw-pushpin</styleUrl>
			<Point>
				<gx:drawOrder>1</gx:drawOrder>
				<coordinates>13.34948705893469,43.26715214807793,0</coordinates>
			</Point>
		</Placemark>
		<Placemark>
			<name>13</name>
			<description>Procedi in direzione sudest su Via Giacomo Leopardi verso Piaggia Sant&apos;Agostino;Proceed southeast on Via Giacomo Leopardi towards Piaggia Sant&apos;Agostino</description>
			<LookAt>
				<longitude>13.34875090759134</longitude>
				<latitude>43.26739123268821</latitude>
				<altitude>0</altitude>
				<heading>2.624468318471827</heading>
				<tilt>29.40715514402396</tilt>
				<range>146.4578412153718</range>
				<gx:altitudeMode>relativeToSeaFloor</gx:altitudeMode>
			</LookAt>
			<styleUrl>#m_ylw-pushpin</styleUrl>
			<Point>
				<gx:drawOrder>1</gx:drawOrder>
				<coordinates>13.34828514440428,43.26824495852362,0</coordinates>
			</Point>
		</Placemark>
		<Placemark>
			<name>14</name>
			<description>Svolta tutto a sinistra verso Borgo G. Murat/Strada Provinciale Stazione di Pollenza-Passo di Treia/SP124;Turn sharp left towards Borgo G. Murat/Provincial Road Stazione di Pollenza-Passo di Treia/SP124</description>
			<LookAt>
				<longitude>13.34930212652494</longitude>
				<latitude>43.26736961154169</latitude>
				<altitude>0</altitude>
				<heading>2.62483702261299</heading>
				<tilt>28.78422580998627</tilt>
				<range>99.88279159943103</range>
				<gx:altitudeMode>relativeToSeaFloor</gx:altitudeMode>
			</LookAt>
			<styleUrl>#m_ylw-pushpin</styleUrl>
			<Point>
				<gx:drawOrder>1</gx:drawOrder>
				<coordinates>13.34931235479531,43.26718303702911,0</coordinates>
			</Point>
		</Placemark>
		<Placemark>
			<name>15</name>
			<description>Svolta a destra e prendi Rione Trebbio;Turn right and take Rione Trebbio</description>
			<LookAt>
				<longitude>13.35704580429439</longitude>
				<latitude>43.25792296993868</latitude>
				<altitude>0</altitude>
				<heading>2.630144946170328</heading>
				<tilt>28.78540381723103</tilt>
				<range>372.166986854079</range>
				<gx:altitudeMode>relativeToSeaFloor</gx:altitudeMode>
			</LookAt>
			<styleUrl>#m_ylw-pushpin</styleUrl>
			<Point>
				<gx:drawOrder>1</gx:drawOrder>
				<coordinates>13.35791083387654,43.25906766913012,0</coordinates>
			</Point>
		</Placemark>
		<Placemark>
			<name>16</name>
			<description>Svolta a sinistra e prendi Via Padre U. Ciccioli;Turn left onto Via Padre U. Ciccioli</description>
			<LookAt>
				<longitude>13.36101603836664</longitude>
				<latitude>43.25741607860726</latitude>
				<altitude>0</altitude>
				<heading>2.632865655056361</heading>
				<tilt>28.78540381723108</tilt>
				<range>372.1669868561003</range>
				<gx:altitudeMode>relativeToSeaFloor</gx:altitudeMode>
			</LookAt>
			<styleUrl>#m_ylw-pushpin</styleUrl>
			<Point>
				<gx:drawOrder>1</gx:drawOrder>
				<coordinates>13.36042164145586,43.25723674062261,0</coordinates>
			</Point>
		</Placemark>
		<atom:link rel="app" href="https://www.google.com/earth/about/versions/#earth-pro" title="Google Earth Pro 7.3.6.10441"></atom:link>
	</Folder>
</Document>
</kml>
