<?xml version="1.0" encoding="UTF-8"?>
<kml xmlns="http://www.opengis.net/kml/2.2" xmlns:gx="http://www.google.com/kml/ext/2.2" xmlns:kml="http://www.opengis.net/kml/2.2" xmlns:atom="http://www.w3.org/2005/Atom">
<Document>
	<name>Serrapetrona_AR_indicazioni.kml</name>
	<StyleMap id="__managed_style_0B5A7E76A83595C788D81">
		<Pair>
			<key>normal</key>
			<styleUrl>#failed61</styleUrl>
		</Pair>
		<Pair>
			<key>highlight</key>
			<styleUrl>#failed510</styleUrl>
		</Pair>
	</StyleMap>
	<Style id="failed510">
		<LineStyle>
			<color>ffff0000</color>
			<width>4</width>
		</LineStyle>
	</Style>
	<Style id="failed61">
		<LineStyle>
			<color>ffff0000</color>
			<width>4</width>
		</LineStyle>
	</Style>
	<StyleMap id="m_ylw-pushpin8">
		<Pair>
			<key>normal</key>
			<styleUrl>#s_ylw-pushpin13</styleUrl>
		</Pair>
		<Pair>
			<key>highlight</key>
			<styleUrl>#s_ylw-pushpin_hl9</styleUrl>
		</Pair>
	</StyleMap>
	<StyleMap id="m_ylw-pushpin80">
		<Pair>
			<key>normal</key>
			<styleUrl>#s_ylw-pushpin130</styleUrl>
		</Pair>
		<Pair>
			<key>highlight</key>
			<styleUrl>#s_ylw-pushpin_hl90</styleUrl>
		</Pair>
	</StyleMap>
	<Style id="s_ylw-pushpin13">
		<IconStyle>
			<scale>1.1</scale>
			<Icon>
				<href>http://maps.google.com/mapfiles/kml/pushpin/red-pushpin.png</href>
			</Icon>
			<hotSpot x="20" y="2" xunits="pixels" yunits="pixels"/>
		</IconStyle>
	</Style>
	<Style id="s_ylw-pushpin130">
		<IconStyle>
			<scale>1.1</scale>
			<Icon>
				<href>http://maps.google.com/mapfiles/kml/pushpin/red-pushpin.png</href>
			</Icon>
			<hotSpot x="20" y="2" xunits="pixels" yunits="pixels"/>
		</IconStyle>
	</Style>
	<Style id="s_ylw-pushpin_hl9">
		<IconStyle>
			<scale>1.3</scale>
			<Icon>
				<href>http://maps.google.com/mapfiles/kml/pushpin/red-pushpin.png</href>
			</Icon>
			<hotSpot x="20" y="2" xunits="pixels" yunits="pixels"/>
		</IconStyle>
	</Style>
	<Style id="s_ylw-pushpin_hl90">
		<IconStyle>
			<scale>1.3</scale>
			<Icon>
				<href>http://maps.google.com/mapfiles/kml/pushpin/red-pushpin.png</href>
			</Icon>
			<hotSpot x="20" y="2" xunits="pixels" yunits="pixels"/>
		</IconStyle>
	</Style>
	<Folder>
		<name>AR</name>
		<open>1</open>
		<Placemark id="0742A0C3393595C6EE80">
			<name>AR</name>
			<LookAt>
				<longitude>13.18773782853447</longitude>
				<latitude>43.17606112548238</latitude>
				<altitude>483.3398282120046</altitude>
				<heading>0</heading>
				<tilt>0</tilt>
				<range>263.1385999281702</range>
				<altitudeMode>absolute</altitudeMode>
				<gx:fovy>35</gx:fovy>
			</LookAt>
			<styleUrl>#__managed_style_0B5A7E76A83595C788D81</styleUrl>
			<LineString>
				<coordinates>
					13.18712276947754,43.17589061870374,0 13.18753114106967,43.17587999597781,0 13.18778941242647,43.17593700065761,0 13.18800911782496,43.17602025419195,0 13.18815605460932,43.17603378540894,0 13.18855756734752,43.17601107616171,0 13.18871938116418,43.17572379342663,0 13.18914801950295,43.17571708641054,0 13.18939180667446,43.17568735006668,0 13.18946204412315,43.17582010412597,0 13.18955700713181,43.17596473145809,0 13.1897380862616,43.17612665203544,0 
				</coordinates>
			</LineString>
		</Placemark>
		<Placemark>
			<name>1</name>
			<description>Procedi verso est;Proceed east</description>
			<LookAt>
				<longitude>13.18831009394683</longitude>
				<latitude>43.17568863303302</latitude>
				<altitude>0</altitude>
				<heading>3.784715488210928</heading>
				<tilt>4.414518447951028</tilt>
				<range>246.244031473473</range>
				<gx:altitudeMode>relativeToSeaFloor</gx:altitudeMode>
			</LookAt>
			<styleUrl>#m_ylw-pushpin80</styleUrl>
			<Point>
				<gx:drawOrder>1</gx:drawOrder>
				<coordinates>13.18716403161097,43.1759273898314,0</coordinates>
			</Point>
		</Placemark>
		<Placemark>
			<name>2</name>
			<description>prendi Via S. Francesco;take Via S. Francesco</description>
			<LookAt>
				<longitude>13.18765217559933</longitude>
				<latitude>43.17583347083721</latitude>
				<altitude>0</altitude>
				<heading>3.784261142373246</heading>
				<tilt>11.94306848053884</tilt>
				<range>102.1294487526171</range>
				<gx:altitudeMode>relativeToSeaFloor</gx:altitudeMode>
			</LookAt>
			<styleUrl>#m_ylw-pushpin80</styleUrl>
			<Point>
				<gx:drawOrder>1</gx:drawOrder>
				<coordinates>13.18753010553747,43.17589695930474,0</coordinates>
			</Point>
		</Placemark>
		<Placemark>
			<name>3</name>
			<description>Svolta a destra e prendi Piazza S. Maria;Turn right and take Piazza S. Maria</description>
			<LookAt>
				<longitude>13.18818018970794</longitude>
				<latitude>43.17577697484906</latitude>
				<altitude>0</altitude>
				<heading>3.784622431920437</heading>
				<tilt>11.94306848053887</tilt>
				<range>102.1294487524041</range>
				<gx:altitudeMode>relativeToSeaFloor</gx:altitudeMode>
			</LookAt>
			<styleUrl>#m_ylw-pushpin80</styleUrl>
			<Point>
				<gx:drawOrder>1</gx:drawOrder>
				<coordinates>13.18855412801324,43.17602537510275,0</coordinates>
			</Point>
		</Placemark>
		<Placemark>
			<name>4</name>
			<description>Svolta a sinistra e prendi Via Umberto I;Turn left and take Via Umberto I</description>
			<LookAt>
				<longitude>13.18880727447156</longitude>
				<latitude>43.17581702635546</latitude>
				<altitude>0</altitude>
				<heading>3.785051507150138</heading>
				<tilt>11.94306848053881</tilt>
				<range>102.1294487532302</range>
				<gx:altitudeMode>relativeToSeaFloor</gx:altitudeMode>
			</LookAt>
			<styleUrl>#m_ylw-pushpin80</styleUrl>
			<Point>
				<gx:drawOrder>1</gx:drawOrder>
				<coordinates>13.18870323404496,43.17572281003499,0</coordinates>
			</Point>
		</Placemark>
		<Placemark>
			<name>5</name>
			<open>1</open>
			<description>Svolta a sinistra e prendi Via Rave;Turn left and take Via Rave</description>
			<LookAt>
				<longitude>13.18921527895352</longitude>
				<latitude>43.17590285577064</latitude>
				<altitude>0</altitude>
				<heading>0.0009715682042022641</heading>
				<tilt>25.02303936566105</tilt>
				<range>180.2757984737398</range>
				<gx:altitudeMode>relativeToSeaFloor</gx:altitudeMode>
			</LookAt>
			<styleUrl>#m_ylw-pushpin8</styleUrl>
			<Point>
				<gx:drawOrder>1</gx:drawOrder>
				<coordinates>13.18938434197536,43.17568276662718,0</coordinates>
			</Point>
		</Placemark>
		<atom:link rel="app" href="https://www.google.com/earth/about/versions/#earth-pro" title="Google Earth Pro 7.3.6.10441"></atom:link>
	</Folder>
</Document>
</kml>
