<?xml version="1.0" encoding="UTF-8"?>
<kml xmlns="http://www.opengis.net/kml/2.2" xmlns:gx="http://www.google.com/kml/ext/2.2" xmlns:kml="http://www.opengis.net/kml/2.2" xmlns:atom="http://www.w3.org/2005/Atom">
<Document id="15X43krT8WrfmQpZEZ1Btn-YuisJaZJy1">
	<name>Serrapetrona1</name>
	<gx:CascadingStyle kml:id="__managed_style_0862FFAA61359404509E">
		<Style>
			<IconStyle>
				<scale>1.2</scale>
				<Icon>
					<href>https://earth.google.com/earth/document/icon?color=1976d2&amp;id=2000&amp;scale=4</href>
				</Icon>
				<hotSpot x="64" y="128" xunits="pixels" yunits="insetPixels"/>
			</IconStyle>
			<LabelStyle>
			</LabelStyle>
			<LineStyle>
				<color>ff2dc0fb</color>
				<width>6</width>
			</LineStyle>
			<PolyStyle>
				<color>40ffffff</color>
			</PolyStyle>
			<BalloonStyle>
				<displayMode>hide</displayMode>
			</BalloonStyle>
		</Style>
	</gx:CascadingStyle>
	<gx:CascadingStyle kml:id="__managed_style_1D34979D33359404509D">
		<Style>
			<IconStyle>
				<Icon>
					<href>https://earth.google.com/earth/document/icon?color=1976d2&amp;id=2000&amp;scale=4</href>
				</Icon>
				<hotSpot x="64" y="128" xunits="pixels" yunits="insetPixels"/>
			</IconStyle>
			<LabelStyle>
			</LabelStyle>
			<LineStyle>
				<color>ff2dc0fb</color>
				<width>4</width>
			</LineStyle>
			<PolyStyle>
				<color>40ffffff</color>
			</PolyStyle>
			<BalloonStyle>
				<displayMode>hide</displayMode>
			</BalloonStyle>
		</Style>
	</gx:CascadingStyle>
	<StyleMap id="__managed_style_014CA35074359404509D">
		<Pair>
			<key>normal</key>
			<styleUrl>#__managed_style_1D34979D33359404509D</styleUrl>
		</Pair>
		<Pair>
			<key>highlight</key>
			<styleUrl>#__managed_style_0862FFAA61359404509E</styleUrl>
		</Pair>
	</StyleMap>
	<gx:CascadingStyle kml:id="__managed_style_2769FA97F9359402D58D">
		<Style>
			<IconStyle>
				<scale>1.2</scale>
				<Icon>
					<href>https://earth.google.com/earth/document/icon?color=1976d2&amp;id=2000&amp;scale=4</href>
				</Icon>
				<hotSpot x="64" y="128" xunits="pixels" yunits="insetPixels"/>
			</IconStyle>
			<LabelStyle>
			</LabelStyle>
			<LineStyle>
				<color>ff2dc0fb</color>
				<width>6</width>
			</LineStyle>
			<PolyStyle>
				<color>40ffffff</color>
			</PolyStyle>
			<BalloonStyle>
			</BalloonStyle>
		</Style>
	</gx:CascadingStyle>
	<gx:CascadingStyle kml:id="__managed_style_179C1DF51A359402D58D">
		<Style>
			<IconStyle>
				<Icon>
					<href>https://earth.google.com/earth/document/icon?color=1976d2&amp;id=2000&amp;scale=4</href>
				</Icon>
				<hotSpot x="64" y="128" xunits="pixels" yunits="insetPixels"/>
			</IconStyle>
			<LabelStyle>
			</LabelStyle>
			<LineStyle>
				<color>ff2dc0fb</color>
				<width>4</width>
			</LineStyle>
			<PolyStyle>
				<color>40ffffff</color>
			</PolyStyle>
			<BalloonStyle>
			</BalloonStyle>
		</Style>
	</gx:CascadingStyle>
	<StyleMap id="__managed_style_0DB6972213359402D58D">
		<Pair>
			<key>normal</key>
			<styleUrl>#__managed_style_179C1DF51A359402D58D</styleUrl>
		</Pair>
		<Pair>
			<key>highlight</key>
			<styleUrl>#__managed_style_2769FA97F9359402D58D</styleUrl>
		</Pair>
	</StyleMap>
	<Folder id="5271B3AC62000001">
		<name>Serrapetrona</name>
		<open>1</open>
		<styleUrl>#__managed_style_0DB6972213359402D58D</styleUrl>
		<Placemark id="5271B3AC62000002">
			<name>Serrapetrona1</name>
			<LookAt>
				<longitude>13.19710077464088</longitude>
				<latitude>43.16075750513804</latitude>
				<altitude>440.3960904136297</altitude>
				<heading>208.6652716636622</heading>
				<tilt>0</tilt>
				<gx:fovy>35</gx:fovy>
				<range>7571.585473897867</range>
				<altitudeMode>absolute</altitudeMode>
			</LookAt>
			<styleUrl>#__managed_style_014CA35074359404509D</styleUrl>
			<LineString>
				<coordinates>
					13.19212671495978,43.17513562881994,0 13.19243481566838,43.17506220615009,0 13.19277381663998,43.1750255609586,0 13.19284823316842,43.17504633483914,0 13.19288947096489,43.17510570523536,0 13.19293344832259,43.17541075997932,0 13.19326530578362,43.17535655858843,0 13.19332538388475,43.17506513912831,0 13.19327487695642,43.17485883596483,0 13.19314199635144,43.17453203844858,0 13.19298559996919,43.17421164377911,0 13.19291252241676,43.17390167398067,0 13.19279387849208,43.1738138642321,0 13.19270745537961,43.17385363991448,0 13.19278047328361,43.17393208111974,0 13.19264328601819,43.17409580433351,0 13.1923991503785,43.17442922159028,0 13.19210627250875,43.17467432084221,0 13.19150800368916,43.17504081337378,0 13.19086934266308,43.17533928771778,0 13.19058278080056,43.17546182462883,0 13.19033345632265,43.17555041631523,0 13.19006486060445,43.17560731172283,0 13.18961880400691,43.1756330621679,0 13.18921259898109,43.17569936175114,0 13.18867564675817,43.17572956094319,0 13.1885241437598,43.17602804214174,0 13.18831297308441,43.17600788747471,0 13.18804099166581,43.17600502043319,0 13.18761346400046,43.17586503586874,0 13.18738375146834,43.17588061015468,0 13.18749806989705,43.1757705598377,0 13.18728196183876,43.17567147052343,0 13.18706975419572,43.17562101575008,0 13.18788763678425,43.17540163670792,0 13.18813438583475,43.1754083735659,0 13.18848084183172,43.17547454276372,0 13.18912339057497,43.17545312149379,0 13.18967021858328,43.17543655641578,0 13.19003526766715,43.17540456322669,0 13.190259784334,43.17535481004384,0 13.19083737502704,43.17512374963897,0 13.19122096800978,43.17494886971397,0 13.19153110895294,43.17482691006565,0 13.19186652883617,43.17466757116199,0 13.19216023574668,43.17446055113532,0 13.19230799480207,43.17431398230674,0 13.19265831729547,43.17390024672697,0 13.19275733586263,43.17395320846271,0 13.1928608096864,43.17390349855347,0 13.19286263868845,43.17381114161839,0 13.19303316304137,43.17368340617683,0 13.19319460413097,43.17360430872652,0 13.19349760171645,43.17344764038769,0 13.19457043004197,43.17281785272674,0 13.19469042388273,43.17279673244389,0 13.19477744134295,43.17280270757801,0 13.19514569481261,43.17288987854155,0 13.19541469106284,43.17292148647031,0 13.19611677960406,43.1729343823128,0 13.19628032737359,43.17295827862268,0 13.19648406869779,43.17305207130244,0 13.19680526509448,43.1733660502301,0 13.1968774892806,43.17341663020223,0 13.19697559350444,43.17345910049747,0 13.19711861487397,43.17343922218027,0 13.19716036315982,43.17336707876725,0 13.19689784376947,43.17295244513102,0 13.19682073120718,43.17276701781891,0 13.1967816921172,43.172564101881,0 13.19675284754346,43.17228045877438,0 13.19675841096675,43.17199382888879,0 13.19682966162044,43.17168348466306,0 13.19660861123637,43.17128445534954,0 13.19653633380127,43.17120163039083,0 13.19651997362016,43.171092096084,0 13.19652626157865,43.17075490600288,0 13.19634304324497,43.17036393222994,0 13.19619450755556,43.17000881288329,0 13.1960624800713,43.16952133701997,0 13.1959922646242,43.16923167330086,0 13.19598342173486,43.16893882293807,0 13.19597115521048,43.16865481815915,0 13.19591918585163,43.16836948439339,0 13.19582405403316,43.16812971278951,0 13.19570677345993,43.16786874222672,0 13.19563810609196,43.16747771619647,0 13.19555999205382,43.1672115785685,0 13.19549683770007,43.16682249559182,0 13.19543495800798,43.16524758296519,0 13.1955032611387,43.16509205524134,0 13.19560299183056,43.16495444037201,0 13.19571317258004,43.16473807615944,0 13.19574247244626,43.16452747412469,0 13.19571703236699,43.16429747836434,0 13.19566854597193,43.16408199401477,0 13.19564502166365,43.16384790721744,0 13.19567863170175,43.16363346220911,0 13.19582971770923,43.16343689649445,0 13.19600658909281,43.16325792527854,0 13.19617887710507,43.16309620201148,0 13.19634512088945,43.16289572474869,0 13.19634778759808,43.16273455722523,0 13.19633479871775,43.16257502465531,0 13.19594198719626,43.16168131266528,0 13.19578657223462,43.16127571978246,0 13.19563134682769,43.16109863006856,0 13.19540604787645,43.16094139965684,0 13.19525586395492,43.16090327217759,0 13.1950554425088,43.16091991964855,0 13.19486741553768,43.16099462210517,0 13.19479612099397,43.16101964344067,0 13.19470262211228,43.16102688021188,0 13.19460557790069,43.16099722673127,0 13.19443021939763,43.16085685417825,0 13.19410458839589,43.16067770035199,0 13.19404488896503,43.16062802029176,0 13.19402972309867,43.16057591681621,0 13.1940312827207,43.16027593681608,0 13.19398131784666,43.16012488418256,0 13.19341168717455,43.15951994721354,0 13.19315864229772,43.1591028639255,0 13.1930862120978,43.15891378529341,0 13.19314090032579,43.15880572676149,0 13.19324945352434,43.15869619433754,0 13.19354291783217,43.15842502188861,0 13.19383455365394,43.15825529039363,0 13.19403421188117,43.15817189051082,0 13.19421001042779,43.15812989301024,0 13.19462456655832,43.15812710133892,0 13.19497132676367,43.15818083917247,0 13.19532416619993,43.15826075144689,0 13.19607003743087,43.15833714674601,0 13.19626045801148,43.15833638848802,0 13.1963947526098,43.15829770187955,0 13.19648357391755,43.15823870719323,0 13.19655144231183,43.15814920410132,0 13.196622651147,43.15800758412463,0 13.19666529107865,43.15779396031662,0 13.19678737832066,43.15716680248067,0 13.19694306357715,43.1564971417295,0 13.19695269977821,43.15630575179311,0 13.19689021752609,43.15603004167242,0 13.1966868986939,43.15601800181233,0 13.19652348876538,43.15579186913658,0 13.19641022413206,43.15560243281658,0 13.19626172576218,43.15536770499522,0 13.19611425921907,43.15508303251384,0 13.19580307618083,43.15447836182652,0 13.19532003417327,43.15414713246789,0 13.19470566729452,43.15370078020209,0 13.19460713929163,43.15359339199709,0 13.19452610762051,43.15343460666792,0 13.19442558259707,43.15302456091729,0 13.19436673469224,43.15287414761942,0 13.19428870626904,43.15269286540173,0 13.19393976339023,43.15229621353237,0 13.19348768827149,43.15186024765865,0 13.19325282056626,43.15158979592152,0 13.19316611241248,43.15154799512742,0 13.19307628466027,43.15155804020736,0 13.19302483877605,43.15159648122486,0 13.19301072861144,43.1516667374713,0 13.19325158647927,43.1521414478843,0 13.19335329503517,43.15234806138307,0 13.19340172228412,43.15246319091435,0 13.19341231556939,43.15255783083362,0 13.19337020885451,43.15261265184526,0 13.19330503239228,43.1526449343821,0 13.19317236049228,43.15259288677289,0 13.19306641275895,43.15250128270208,0 13.19272317639776,43.1522041431689,0 13.19222963049091,43.15193640865394,0 13.19199410781054,43.1518478780965,0 13.19176025117886,43.151826354291,0 13.19165203627516,43.15183329721543,0 13.19134991825408,43.15191668072298,0 13.19117020212234,43.15195350746603,0 13.19102772305226,43.15191652139865,0 13.19094319083437,43.15181285670409,0 13.19108424934167,43.15161641740721,0 13.19112530992772,43.15152496274964,0 13.19116107726339,43.15147782632778,0 13.19117964494597,43.15141984420109,0 13.19117492549088,43.15132355082092,0 13.19116532491137,43.1512140931931,0 13.19114049789888,43.15109725560211,0 13.19105157475216,43.15101417417389,0 13.1911279903283,43.15110611631792,0 13.19115636483992,43.15129842177316,0 13.1911524752397,43.15141341438219,0 13.19109294973819,43.15151277026995,0 13.1910676082766,43.15160848593662,0 13.19092955620129,43.15181126440974,0 13.19102384319566,43.15192643577683,0 13.19116844750735,43.15196428459991,0 13.19130864744549,43.15194184056248,0 13.19142816152136,43.1519069426793,0 13.19158119998137,43.15185846675865,0 13.19176242204392,43.15183749454629,0 13.19197922205497,43.15185661727092,0 13.19222074981036,43.15194281996664,0 13.19271453159732,43.15220915919277,0 13.19305550634146,43.15250718403506,0 13.19316280101279,43.15259997918205,0 13.19329748774893,43.15265595310903,0 13.19334757594043,43.15264768862295,0 13.19342746920819,43.15256652520699,0 13.19341238176511,43.15246168025062,0 13.19336471336299,43.152346453341,0 13.19325932097409,43.15212799239363,0 13.193024798943,43.15167033504644,0 13.19303252882933,43.15161243892636,0 13.19307453997279,43.15157124580552,0 13.19314970254288,43.15155799342002,0 13.19322384050533,43.15158617908272,0 13.19344367128579,43.15183460504169,0 13.19389693987215,43.152274891464,0 13.19422910095753,43.15264826786864,0 13.19432958500767,43.15282484932008,0 13.19440906147752,43.15302943242946,0 13.19450437043758,43.15343385153621,0 13.19457109164366,43.15356844964306,0 13.19466418969047,43.15368287462191,0 13.19522040096835,43.15409386454579,0 13.19575304045003,43.15445688521766,0 13.1958426956941,43.15457231579352,0 13.19609251955164,43.15507062752143,0 13.19622009539169,43.15532213349479,0 13.19637222732366,43.15556039001785,0 13.19656679725897,43.15562285086005,0 13.19677756075496,43.15563316987067,0 13.19673407129453,43.15529715552193,0 13.1967364280049,43.15513436177916,0 13.19676557350651,43.15496151232587,0 13.19682917759526,43.15484407023953,0 13.19692476223445,43.15477016681425,0 13.19707244522045,43.15472262837785,0 13.19723223976067,43.1547219381782,0 13.1975883626604,43.1547288183829,0 13.19900149886255,43.15453436658683,0 13.19918660440347,43.15449518159478,0 13.19930494433346,43.15442557112914,0 13.1993445763932,43.15435508084455,0 13.19936823529032,43.15426645560132,0 13.19955187945893,43.153565564899,0 13.19978004209661,43.15325086106377,0 13.19985942430098,43.1531732578085,0 13.19998350901469,43.15313294205559,0 13.2000885366012,43.15312313743052,0 13.20018093116717,43.15312456672429,0 13.20033656978131,43.15315711075446,0 13.20067309744758,43.15331973660687,0 13.20077459544691,43.15334974672331,0 13.20085044093929,43.15333731962453,0 13.20089072293132,43.15329975333128,0 13.20089965203985,43.15323190040952,0 13.20086627864059,43.15318200786459,0 13.20049960915311,43.1529725699129,0 13.20007754495468,43.15276321692455,0 13.19983977537746,43.15269557748161,0 13.19968767892185,43.15267483013438,0 13.19953298244618,43.15270732620007,0 13.19939450392359,43.15279170280144,0 13.19900854801655,43.15301290145251,0 13.19880601377867,43.15309871203579,0 13.19872580798361,43.15312036236213,0 13.19861680874363,43.15311589327003,0 13.19843948652478,43.15303432927929,0 13.19827347878289,43.15294356033627,0 13.19811352594052,43.15283081177184,0 13.19796334044768,43.15270054848364,0 13.19787208337274,43.15258163246763,0 13.1977700948166,43.15236790081809,0 13.19767950159526,43.15218436482189,0 13.19761339610767,43.15200012141793,0 13.19768783689311,43.15177587777065,0 13.19769641148157,43.15151445463539,0 13.19774075952742,43.15135616909157,0 13.19777803511846,43.15118422085663,0 13.19773371075202,43.15094758549791,0 13.19744623397484,43.15038450359108,0 13.19728463913848,43.14996293515739,0 13.19735501974001,43.14986199745016,0 13.19746681538359,43.14977121924889,0 13.19760373001808,43.14969075752387,0 13.19771983073872,43.14960630317585,0 13.19778866550565,43.14953258746752,0 13.19795627585155,43.14924899651571,0 13.19810346162938,43.14907829704379,0 13.19821009664585,43.14901691114407,0 13.19835706329936,43.14902612734453,0 13.1984528285347,43.14906298083073,0 13.1985314749537,43.14912960145958,0 13.19856398795171,43.14922809571002,0 13.19855306927727,43.14932437606242,0 13.1983265068399,43.149908179097,0 13.19832340692375,43.14996728961673,0 13.19835667510484,43.15002832133741,0 13.1985189092002,43.15009329006659,0 13.19928005499421,43.15027865140041,0 13.19940156095289,43.15033638319925,0 13.19950260552026,43.15043252772788,0 13.19965714234758,43.15078546093095,0 13.19969759345056,43.15086102626775,0 13.19977558541903,43.15092824304838,0 13.19989840982935,43.15093363916921,0 13.20021924083923,43.15082736627275,0 13.20043356730422,43.15080564100711,0 13.20064990362978,43.15075592944303,0 13.20108970498617,43.15048446000171,0 13.20141569142899,43.15043634954834,0 13.20160348561699,43.15038746977711,0 13.20233277604446,43.14997236805908,0 13.20245520271544,43.14992984873042,0 13.20301254044603,43.14997952131611,0 13.20311374138723,43.14993958382162,0 13.20314867561768,43.14986536610753,0 13.20310644079626,43.14977583979967,0 13.20300305056606,43.1497269075866,0 13.20236909636799,43.14962557081329,0 13.20207953644988,43.14961544259148,0 13.20143901512632,43.14993471812635,0 13.20133598697374,43.14992537969189,0 13.20129527990927,43.14985859809949,0 13.20134362496216,43.14978588570593,0 13.20148673637955,43.14969766628403,0 13.20161640322489,43.14962632492651,0 13.20173193504876,43.14953716857426,0 13.20202155713467,43.14903845696679,0 13.20209404377165,43.14895903735588,0 13.20236558884551,43.14881216796635,0 13.20260029719273,43.14863464218153,0 13.20321998324087,43.147760565428,0 13.20331988586704,43.14768974932411,0 13.20341524213091,43.14766859422091,0 13.20354092592388,43.14766889275115,0 13.20382000410986,43.14770416463394,0 13.20403331937111,43.14774166605917,0 13.20432194310049,43.14775732737752,0 13.20464228046169,43.14768249300585,0 13.20493887528257,43.14757900497776,0 13.20542672535205,43.14739953772732,0 13.20552317698187,43.14733421823976,0 13.20561220013858,43.14725440611615,0 13.20576473870318,43.14706148964331,0 13.20616181467165,43.14676349724825,0 13.20626825292288,43.14673308926615,0 13.20638622605364,43.14672907092888,0 13.2064929189798,43.14675032223649,0 13.2066164280061,43.14681058767783,0 13.20683148707632,43.14697331554813,0 13.20707762175354,43.14720836916911,0 13.20722129128185,43.14734064636831,0 13.20740414547787,43.14746703361509,0 13.20789652509152,43.14769757955015,0 13.20818881490193,43.14778187866138,0 13.208302629247,43.1477368883884,0 13.20793467304453,43.14744238688648,0 13.20780628245441,43.14733492007893,0 13.20761789219764,43.14708688275456,0 13.20722571739281,43.14655046384986,0 13.20689231788758,43.14622897632638,0 13.2067464955246,43.14623081348579,0 13.20632537607211,43.14627212795633,0 13.20589540285042,43.14642467128824,0 13.20524663709898,43.14675681279814,0 13.2050292830561,43.14682814158951,0 13.20477571937405,43.14686683775321,0 13.20430962938624,43.1468780372127,0 13.20374487115576,43.14684048122502,0 13.20321225331397,43.14681732970922,0 13.20285370526762,43.14681236094301,0 13.20284340614236,43.14674959916282,0 13.20269915846268,43.14672381630619,0 
				</coordinates>
			</LineString>
		</Placemark>
		<Placemark id="5271B3AC62000003">
			<name>Caccamo</name>
			<visibility>0</visibility>
			<LookAt>
				<longitude>13.20179951669098</longitude>
				<latitude>43.14839190589051</latitude>
				<altitude>327.5477854065044</altitude>
				<heading>0</heading>
				<tilt>0</tilt>
				<gx:fovy>35</gx:fovy>
				<range>1031.196612744243</range>
				<altitudeMode>absolute</altitudeMode>
			</LookAt>
			<styleUrl>#__managed_style_014CA35074359404509D</styleUrl>
			<Point>
				<coordinates>13.20269329246462,43.14671596594549,301.0370644352997</coordinates>
			</Point>
		</Placemark>
		<Placemark id="5271B3AC62000004">
			<name>Borgianello</name>
			<visibility>0</visibility>
			<LookAt>
				<longitude>13.19151529057923</longitude>
				<latitude>43.15102074116933</latitude>
				<altitude>558.1073270464849</altitude>
				<heading>0</heading>
				<tilt>0</tilt>
				<gx:fovy>35</gx:fovy>
				<range>251.6988785673675</range>
				<altitudeMode>absolute</altitudeMode>
			</LookAt>
			<styleUrl>#__managed_style_014CA35074359404509D</styleUrl>
			<Point>
				<coordinates>13.19101739972209,43.1509956892422,562.4157148774309</coordinates>
			</Point>
		</Placemark>
		<Placemark id="5271B3AC62000006">
			<name>Fontana delle Conce</name>
			<visibility>0</visibility>
			<LookAt>
				<longitude>13.19199061586806</longitude>
				<latitude>43.17512306423938</latitude>
				<altitude>446.4986178301899</altitude>
				<heading>0</heading>
				<tilt>0</tilt>
				<gx:fovy>35</gx:fovy>
				<range>83.42860908346665</range>
				<altitudeMode>absolute</altitudeMode>
			</LookAt>
			<styleUrl>#__managed_style_014CA35074359404509D</styleUrl>
			<Point>
				<coordinates>13.19210016854927,43.17531692602011,446.7206660605643</coordinates>
			</Point>
		</Placemark>
	</Folder>
</Document>
</kml>
