<?xml version="1.0" encoding="UTF-8"?>
<kml xmlns="http://www.opengis.net/kml/2.2" xmlns:gx="http://www.google.com/kml/ext/2.2" xmlns:kml="http://www.opengis.net/kml/2.2" xmlns:atom="http://www.w3.org/2005/Atom">
<Document>
	<name>Mogliano_AR_indicazioni.kml</name>
	<StyleMap id="m_ylw-pushpin">
		<Pair>
			<key>normal</key>
			<styleUrl>#s_ylw-pushpin</styleUrl>
		</Pair>
		<Pair>
			<key>highlight</key>
			<styleUrl>#s_ylw-pushpin_hl</styleUrl>
		</Pair>
	</StyleMap>
	<StyleMap id="msn_ylw-pushpin40">
		<Pair>
			<key>normal</key>
			<styleUrl>#sn_ylw-pushpin3</styleUrl>
		</Pair>
		<Pair>
			<key>highlight</key>
			<styleUrl>#sh_ylw-pushpin00</styleUrl>
		</Pair>
	</StyleMap>
	<Style id="s_ylw-pushpin">
		<IconStyle>
			<scale>1.1</scale>
			<Icon>
				<href>http://maps.google.com/mapfiles/kml/pushpin/red-pushpin.png</href>
			</Icon>
			<hotSpot x="20" y="2" xunits="pixels" yunits="pixels"/>
		</IconStyle>
		<ListStyle>
		</ListStyle>
	</Style>
	<Style id="s_ylw-pushpin_hl">
		<IconStyle>
			<scale>1.3</scale>
			<Icon>
				<href>http://maps.google.com/mapfiles/kml/pushpin/red-pushpin.png</href>
			</Icon>
			<hotSpot x="20" y="2" xunits="pixels" yunits="pixels"/>
		</IconStyle>
		<ListStyle>
		</ListStyle>
	</Style>
	<Style id="sh_ylw-pushpin00">
		<IconStyle>
			<scale>1.3</scale>
			<Icon>
				<href>http://maps.google.com/mapfiles/kml/pushpin/ylw-pushpin.png</href>
			</Icon>
			<hotSpot x="20" y="2" xunits="pixels" yunits="pixels"/>
		</IconStyle>
		<LineStyle>
			<color>ffff0000</color>
			<width>2</width>
		</LineStyle>
	</Style>
	<Style id="sn_ylw-pushpin3">
		<IconStyle>
			<scale>1.1</scale>
			<Icon>
				<href>http://maps.google.com/mapfiles/kml/pushpin/ylw-pushpin.png</href>
			</Icon>
			<hotSpot x="20" y="2" xunits="pixels" yunits="pixels"/>
		</IconStyle>
		<LineStyle>
			<color>ffff0000</color>
			<width>2</width>
		</LineStyle>
	</Style>
	<Folder>
		<name>AR</name>
		<open>1</open>
		<Placemark>
			<name>AR</name>
			<styleUrl>#msn_ylw-pushpin40</styleUrl>
			<LineString>
				<tessellate>1</tessellate>
				<coordinates>
					13.47684352685878,43.18510079374721,0 13.47649791677984,43.18518403205496,0 13.47722891000141,43.18526476082807,0 13.47726276927164,43.1853223354404,0 13.47703533105902,43.18541809103001,0 13.47707581063837,43.18559309330995,0 13.47815502679845,43.18541275929982,0 13.47867562822977,43.18532965184674,0 13.4787420756413,43.18584031106045,0 13.47911161303829,43.18584384613952,0 13.47937114624299,43.18565125371347,0 13.47976327231081,43.1854095656464,0 13.47977403479623,43.18536465503503,0 13.48022028497626,43.18564744877893,0 13.48018092409485,43.18573603338952,0 13.48019498400916,43.18583292642028,0 13.48029779304257,43.1859592670919,0 13.48018173051592,43.18621935734312,0 13.48009435515161,43.18630822126178,0 13.48027204566705,43.18647653237633,0 13.48032806488084,43.18641885134172,0 13.48044259398023,43.18646010267487,0 13.48052502918775,43.18651776772579,0 13.48092555241839,43.18638377086148,0 13.48120773885363,43.18652986366646,0 13.48121788741794,43.18651363823626,0 13.48107948978848,43.18643232033021,0 13.48086652913397,43.18633250988722,0 13.48052361442814,43.18589144443032,0 13.48037882581146,43.18574016028592,0 13.48020531900792,43.18565658581411,0 13.47973221127059,43.18536258894262,0 13.47907909014802,43.18531259206114,0 13.47783559422617,43.18549848017059,0 13.47621126812325,43.18574738623448,0 13.47611487521056,43.18561248652205,0 13.47453907219564,43.18416018679311,0 13.47456667684421,43.18411783904695,0 13.4754508840501,43.18496565005446,0 13.47586224749056,43.18533217037009,0 13.47646505134303,43.18518822037571,0 13.47735769160604,43.18528665393779,0 13.47935915768369,43.18483974570946,0 13.4797341098024,43.18476070375916,0 13.48007261683095,43.18477325571168,0 13.48047696947947,43.18494988619312,0 13.48113292660603,43.18539850680035,0 13.48231581481597,43.18581721161155,0 13.48525879449581,43.18739365998524,0 13.48555966707318,43.18744904193483,0 13.48669675406265,43.18748394869147,0 13.48844287121887,43.18773836361315,0 13.49223992847429,43.18753517839226,0 13.49306978786126,43.18746546093394,0 13.4941734738926,43.18752585557538,0 13.49512326744145,43.18747119030624,0 13.49569966263415,43.18732252149817,0 13.49813612849599,43.18732146795157,0 13.4986253132027,43.18724711567528,0 13.49967769903653,43.18679088332842,0 13.50156043247449,43.18667739096218,0 13.50216482373517,43.18644941620204,0 13.50282988977289,43.18629161722804,0 13.50433853652901,43.18599547940754,0 13.50599126639951,43.18488873603775,0 13.50698619435791,43.18383861399376,0 13.50900593848022,43.18275569547438,0 13.50981573512578,43.18221099481201,0 13.51064657423823,43.1813911379656,0 13.51287843676312,43.18001807482228,0 13.51301791253445,43.1798696591263,0 13.51339176699542,43.17840874111815,0 13.51351160896047,43.17842064534067,0 13.51381317701728,43.17871849209238,0 
				</coordinates>
			</LineString>
		</Placemark>
		<Placemark>
			<name>1</name>
			<description>Procedi in direzione ovest su V.le Adriano, Adriani;Proceed west on V.le Adriano, Adriani</description>
			<LookAt>
				<longitude>13.47728120784921</longitude>
				<latitude>43.18527204456487</latitude>
				<altitude>0</altitude>
				<heading>-0.01631322114353399</heading>
				<tilt>29.83547168557705</tilt>
				<range>104.2068174927932</range>
				<gx:altitudeMode>relativeToSeaFloor</gx:altitudeMode>
			</LookAt>
			<styleUrl>#m_ylw-pushpin</styleUrl>
			<Point>
				<gx:drawOrder>1</gx:drawOrder>
				<coordinates>13.47684053561662,43.18511291850351,0</coordinates>
			</Point>
		</Placemark>
		<Placemark>
			<name>2</name>
			<description>Svolta tutto a destra verso Largo Cesare Battisti/SP61;Turn sharp right onto Largo Cesare Battisti/SP61</description>
			<LookAt>
				<longitude>13.47670937957024</longitude>
				<latitude>43.18521798029031</latitude>
				<altitude>0</altitude>
				<heading>-0.01670430669022137</heading>
				<tilt>30.00060570912065</tilt>
				<range>134.9424576279791</range>
				<gx:altitudeMode>relativeToSeaFloor</gx:altitudeMode>
			</LookAt>
			<styleUrl>#m_ylw-pushpin</styleUrl>
			<Point>
				<gx:drawOrder>1</gx:drawOrder>
				<coordinates>13.47651122254721,43.18517059807587,0</coordinates>
			</Point>
		</Placemark>
		<Placemark>
			<name>3</name>
			<description>Svolta tutto a sinistra e prendi Largo Cesare Battisti/SP61;Turn left and take Largo Cesare Battisti/SP61</description>
			<LookAt>
				<longitude>13.476711121625</longitude>
				<latitude>43.18521798066423</latitude>
				<altitude>0</altitude>
				<heading>-0.01670311450319091</heading>
				<tilt>30.00060570912062</tilt>
				<range>134.9424576268763</range>
				<gx:altitudeMode>relativeToSeaFloor</gx:altitudeMode>
			</LookAt>
			<styleUrl>#m_ylw-pushpin</styleUrl>
			<Point>
				<gx:drawOrder>1</gx:drawOrder>
				<coordinates>13.47722347275954,43.18525423873083,0</coordinates>
			</Point>
		</Placemark>
		<Placemark>
			<name>4</name>
			<description>Svolta a destra e prendi Viale XX Settembre;Turn right and take Viale XX Settembre</description>
			<LookAt>
				<longitude>13.47691679386536</longitude>
				<latitude>43.18532154132218</latitude>
				<altitude>0</altitude>
				<heading>-0.01656236033346878</heading>
				<tilt>30.00060570912066</tilt>
				<range>134.9424576259973</range>
				<gx:altitudeMode>relativeToSeaFloor</gx:altitudeMode>
			</LookAt>
			<styleUrl>#m_ylw-pushpin</styleUrl>
			<Point>
				<gx:drawOrder>1</gx:drawOrder>
				<coordinates>13.47705267929834,43.18557415248016,0</coordinates>
			</Point>
		</Placemark>
		<Placemark>
			<name>5</name>
			<description>Continua su Piazzale Diaz;Continue on Piazzale Diaz</description>
			<LookAt>
				<longitude>13.47791588131381</longitude>
				<latitude>43.18552675219838</latitude>
				<altitude>0</altitude>
				<heading>-0.01587706795998319</heading>
				<tilt>30.0006114517935</tilt>
				<range>134.4133502829679</range>
				<gx:altitudeMode>relativeToSeaFloor</gx:altitudeMode>
			</LookAt>
			<styleUrl>#m_ylw-pushpin</styleUrl>
			<Point>
				<gx:drawOrder>1</gx:drawOrder>
				<coordinates>13.47817579367488,43.18539911356149,0</coordinates>
			</Point>
		</Placemark>
		<Placemark>
			<name>6</name>
			<description>Svolta a sinistra e prendi Via Umberto I&apos;;Turn left and take Via Umberto I&apos;</description>
			<LookAt>
				<longitude>13.47832234643715</longitude>
				<latitude>43.18548318965193</latitude>
				<altitude>0</altitude>
				<heading>-0.01559451677326147</heading>
				<tilt>30.00057588224197</tilt>
				<range>126.04526375189</range>
				<gx:altitudeMode>relativeToSeaFloor</gx:altitudeMode>
			</LookAt>
			<styleUrl>#m_ylw-pushpin</styleUrl>
			<Point>
				<gx:drawOrder>1</gx:drawOrder>
				<coordinates>13.47866187536518,43.18531807403637,0</coordinates>
			</Point>
		</Placemark>
		<Placemark>
			<name>7</name>
			<description>Svolta a sinistra e prendi Vicolo Bolignano;Turn left and take Vicolo Bolignano</description>
			<LookAt>
				<longitude>13.47867674938262</longitude>
				<latitude>43.18567307586432</latitude>
				<altitude>0</altitude>
				<heading>-0.01535197577184266</heading>
				<tilt>30.000575882242</tilt>
				<range>126.0452637575982</range>
				<gx:altitudeMode>relativeToSeaFloor</gx:altitudeMode>
			</LookAt>
			<styleUrl>#m_ylw-pushpin</styleUrl>
			<Point>
				<gx:drawOrder>1</gx:drawOrder>
				<coordinates>13.47872639841649,43.18582705845032,0</coordinates>
			</Point>
		</Placemark>
		<Placemark>
			<name>8</name>
			<description>Vicolo Bolignano fa una leggera curva a destra e diventa Via Stucci;Vicolo Bolignano makes a slight curve to the right and becomes Via Stucci</description>
			<LookAt>
				<longitude>13.47900245874211</longitude>
				<latitude>43.18564745850669</latitude>
				<altitude>0</altitude>
				<heading>-0.01512907131191681</heading>
				<tilt>30.00057588224198</tilt>
				<range>126.0452637541045</range>
				<gx:altitudeMode>relativeToSeaFloor</gx:altitudeMode>
			</LookAt>
			<styleUrl>#m_ylw-pushpin</styleUrl>
			<Point>
				<gx:drawOrder>1</gx:drawOrder>
				<coordinates>13.47909364044661,43.18586018558826,0</coordinates>
			</Point>
		</Placemark>
		<Placemark>
			<name>9</name>
			<description>Svolta a sinistra e prendi Via Roma;Turn left and take Via Roma</description>
			<LookAt>
				<longitude>13.47984380062183</longitude>
				<latitude>43.18544663189809</latitude>
				<altitude>0</altitude>
				<heading>-0.01456887531051959</heading>
				<tilt>27.46431047940719</tilt>
				<range>106.9988035781967</range>
				<gx:altitudeMode>relativeToSeaFloor</gx:altitudeMode>
			</LookAt>
			<styleUrl>#m_ylw-pushpin</styleUrl>
			<Point>
				<gx:drawOrder>1</gx:drawOrder>
				<coordinates>13.47978571916349,43.18536821523368,0</coordinates>
			</Point>
		</Placemark>
		<Placemark>
			<name>10</name>
			<description>Svolta a sinistra e prendi Via Giuseppe Verdi;Turn left and take Via Giuseppe Verdi</description>
			<LookAt>
				<longitude>13.48001355668486</longitude>
				<latitude>43.18562556774282</latitude>
				<altitude>0</altitude>
				<heading>-0.01445270126268081</heading>
				<tilt>27.46431047940719</tilt>
				<range>106.9988035756724</range>
				<gx:altitudeMode>relativeToSeaFloor</gx:altitudeMode>
			</LookAt>
			<styleUrl>#m_ylw-pushpin</styleUrl>
			<Point>
				<gx:drawOrder>1</gx:drawOrder>
				<coordinates>13.48021969876052,43.18563730912597,0</coordinates>
			</Point>
		</Placemark>
		<Placemark>
			<name>11</name>
			<description>Procedi in direzione nordovest su Via Giuseppe Verdi verso Vicoo Latini;Proceed northwest on Via Giuseppe Verdi towards Vicoo Latini</description>
			<LookAt>
				<longitude>13.4801116928575</longitude>
				<latitude>43.18594529542069</latitude>
				<altitude>0</altitude>
				<heading>-0.01438554124960624</heading>
				<tilt>27.46431047940717</tilt>
				<range>106.9988035762626</range>
				<gx:altitudeMode>relativeToSeaFloor</gx:altitudeMode>
			</LookAt>
			<styleUrl>#m_ylw-pushpin</styleUrl>
			<Point>
				<gx:drawOrder>1</gx:drawOrder>
				<coordinates>13.48030194708815,43.18594716900346,0</coordinates>
			</Point>
		</Placemark>
		<Placemark>
			<name>12</name>
			<description>Svolta a destra e prendi Vicolo Boninfanti;Turn right and take Vicolo Boninfanti</description>
			<LookAt>
				<longitude>13.48011494652678</longitude>
				<latitude>43.18617833749424</latitude>
				<altitude>0</altitude>
				<heading>-0.01438331567626509</heading>
				<tilt>27.46431047940717</tilt>
				<range>106.9988035773417</range>
				<gx:altitudeMode>relativeToSeaFloor</gx:altitudeMode>
			</LookAt>
			<styleUrl>#m_ylw-pushpin</styleUrl>
			<Point>
				<gx:drawOrder>1</gx:drawOrder>
				<coordinates>13.48009356646478,43.18630366845208,0</coordinates>
			</Point>
		</Placemark>
		<Placemark>
			<name>13</name>
			<description>Gira a destra e prosegui verso Piazza Garibaldi;Turn right and continue towards Piazza Garibaldi</description>
			<LookAt>
				<longitude>13.48002013825526</longitude>
				<latitude>43.18615348593066</latitude>
				<altitude>0</altitude>
				<heading>-0.0144481037634193</heading>
				<tilt>27.46444382754306</tilt>
				<range>139.1626072021583</range>
				<gx:altitudeMode>relativeToSeaFloor</gx:altitudeMode>
			</LookAt>
			<styleUrl>#m_ylw-pushpin</styleUrl>
			<Point>
				<gx:drawOrder>1</gx:drawOrder>
				<coordinates>13.4805522066381,43.18653635904474,0</coordinates>
			</Point>
		</Placemark>
		<Placemark>
			<name>14</name>
			<description>Procedi in direzione sudovest su Via Regina Margherita;Proceed southwest on Via Regina Margherita</description>
			<LookAt>
				<longitude>13.48078325363595</longitude>
				<latitude>43.18598345622746</latitude>
				<altitude>0</altitude>
				<heading>-0.009980518119371742</heading>
				<tilt>15.30701354995836</tilt>
				<range>109.5837894309572</range>
				<gx:altitudeMode>relativeToSeaFloor</gx:altitudeMode>
			</LookAt>
			<styleUrl>#m_ylw-pushpin</styleUrl>
			<Point>
				<gx:drawOrder>1</gx:drawOrder>
				<coordinates>13.48123295203585,43.18650527373759,0</coordinates>
			</Point>
		</Placemark>
		<Placemark>
			<name>15</name>
			<description>Continua su Piazza Garibaldi;Continue on Piazza Garibaldi</description>
			<LookAt>
				<longitude>13.48089102054363</longitude>
				<latitude>43.18627036335796</latitude>
				<altitude>0</altitude>
				<heading>-0.004619665651374717</heading>
				<tilt>9.817429041394407</tilt>
				<range>55.63064494933682</range>
				<gx:altitudeMode>relativeToSeaFloor</gx:altitudeMode>
			</LookAt>
			<styleUrl>#m_ylw-pushpin</styleUrl>
			<Point>
				<gx:drawOrder>1</gx:drawOrder>
				<coordinates>13.48107072053426,43.18642213236652,0</coordinates>
			</Point>
		</Placemark>
		<Placemark>
			<name>16</name>
			<description>Continua su Via Roma;Continue on Via Roma</description>
			<LookAt>
				<longitude>13.48087047317584</longitude>
				<latitude>43.1861607613337</latitude>
				<altitude>0</altitude>
				<heading>-0.004633727558130968</heading>
				<tilt>9.817429041394407</tilt>
				<range>55.63064495139596</range>
				<gx:altitudeMode>relativeToSeaFloor</gx:altitudeMode>
			</LookAt>
			<styleUrl>#m_ylw-pushpin</styleUrl>
			<Point>
				<gx:drawOrder>1</gx:drawOrder>
				<coordinates>13.48087654701198,43.18633099693258,0</coordinates>
			</Point>
		</Placemark>
		<Placemark>
			<name>17</name>
			<description>Continua su Piazzale Diaz;Continue on Piazzale Diaz</description>
			<LookAt>
				<longitude>13.47820751879605</longitude>
				<latitude>43.18550108316379</latitude>
				<altitude>0</altitude>
				<heading>-0.006453276271413146</heading>
				<tilt>9.81765895410709</tilt>
				<range>206.0019250018559</range>
				<gx:altitudeMode>relativeToSeaFloor</gx:altitudeMode>
			</LookAt>
			<styleUrl>#m_ylw-pushpin</styleUrl>
			<Point>
				<gx:drawOrder>1</gx:drawOrder>
				<coordinates>13.47909967214463,43.18533917111802,0</coordinates>
			</Point>
		</Placemark>
		<Placemark>
			<name>18</name>
			<description>Continua su Viale XX Settembre;Continue on Viale XX Settembre</description>
			<LookAt>
				<longitude>13.47760094659085</longitude>
				<latitude>43.18554599486824</latitude>
				<altitude>0</altitude>
				<heading>-0.006868391910415165</heading>
				<tilt>9.817658954107163</tilt>
				<range>206.0019249980026</range>
				<gx:altitudeMode>relativeToSeaFloor</gx:altitudeMode>
			</LookAt>
			<styleUrl>#m_ylw-pushpin</styleUrl>
			<Point>
				<gx:drawOrder>1</gx:drawOrder>
				<coordinates>13.4778315026936,43.18552168761397,0</coordinates>
			</Point>
		</Placemark>
		<Placemark>
			<name>19</name>
			<description>Svolta a sinistra e prendi Viale del Santuario;Turn left and take Viale del Santuario</description>
			<LookAt>
				<longitude>13.4767638662358</longitude>
				<latitude>43.18559017556933</latitude>
				<altitude>0</altitude>
				<heading>-0.007441266029666462</heading>
				<tilt>9.817658954107426</tilt>
				<range>206.0019250264062</range>
				<gx:altitudeMode>relativeToSeaFloor</gx:altitudeMode>
			</LookAt>
			<styleUrl>#m_ylw-pushpin</styleUrl>
			<Point>
				<gx:drawOrder>1</gx:drawOrder>
				<coordinates>13.47623728396701,43.18576593352708,0</coordinates>
			</Point>
		</Placemark>
		<Placemark>
			<name>20</name>
			<description>Procedi in direzione nordovest su Strada Provinciale 72 verso Viale del Santuario;Proceed northwest on Provincial Road 72 towards Viale del Santuario</description>
			<LookAt>
				<longitude>13.47522185877338</longitude>
				<latitude>43.18461269955171</latitude>
				<altitude>0</altitude>
				<heading>-0.008496564221002404</heading>
				<tilt>9.817658954107461</tilt>
				<range>206.0019250299164</range>
				<gx:altitudeMode>relativeToSeaFloor</gx:altitudeMode>
			</LookAt>
			<styleUrl>#m_ylw-pushpin</styleUrl>
			<Point>
				<gx:drawOrder>1</gx:drawOrder>
				<coordinates>13.47458337875277,43.18410339048072,0</coordinates>
			</Point>
		</Placemark>
		<Placemark>
			<name>21</name>
			<description>Svolta a destra e prendi V.le Adriano Adriani;Turn right and take V.le Adriano Adriani</description>
			<LookAt>
				<longitude>13.47571018685393</longitude>
				<latitude>43.18515824959947</latitude>
				<altitude>0</altitude>
				<heading>-0.01392449423306232</heading>
				<tilt>16.07502033040877</tilt>
				<range>139.38902162366</range>
				<gx:altitudeMode>relativeToSeaFloor</gx:altitudeMode>
			</LookAt>
			<styleUrl>#m_ylw-pushpin</styleUrl>
			<Point>
				<gx:drawOrder>1</gx:drawOrder>
				<coordinates>13.4758577365719,43.18531299684759,0</coordinates>
			</Point>
		</Placemark>
		<Placemark>
			<name>22</name>
			<description>Svolta leggermente a sinistra verso Via Cairoli/SP61;Turn slightly left onto Via Cairoli/SP61</description>
			<LookAt>
				<longitude>13.4761365486472</longitude>
				<latitude>43.18519692678903</latitude>
				<altitude>0</altitude>
				<heading>-0.0136327104492454</heading>
				<tilt>16.07502033040867</tilt>
				<range>139.3890216173536</range>
				<gx:altitudeMode>relativeToSeaFloor</gx:altitudeMode>
			</LookAt>
			<styleUrl>#m_ylw-pushpin</styleUrl>
			<Point>
				<gx:drawOrder>1</gx:drawOrder>
				<coordinates>13.47645629667404,43.18520070797639,0</coordinates>
			</Point>
		</Placemark>
		<Placemark>
			<name>23</name>
			<description>Svolta leggermente a destra e prendi Via Cairoli/SP61;Turn slightly right and take Via Cairoli/SP61</description>
			<LookAt>
				<longitude>13.47692858180254</longitude>
				<latitude>43.18525404054634</latitude>
				<altitude>0</altitude>
				<heading>-0.01309067795075561</heading>
				<tilt>16.07502033040872</tilt>
				<range>139.3890216201391</range>
				<gx:altitudeMode>relativeToSeaFloor</gx:altitudeMode>
			</LookAt>
			<styleUrl>#m_ylw-pushpin</styleUrl>
			<Point>
				<gx:drawOrder>1</gx:drawOrder>
				<coordinates>13.47737186585477,43.18528906811787,0</coordinates>
			</Point>
		</Placemark>
		<Placemark>
			<name>24</name>
			<description>Svolta leggermente a destra e prendi Contrada Sant&apos;Anna;Turn slightly right and take Contrada Sant&apos;Anna</description>
			<LookAt>
				<longitude>13.49476034100721</longitude>
				<latitude>43.1868718033616</latitude>
				<altitude>0</altitude>
				<heading>-0.0008870278879696448</heading>
				<tilt>16.07540032706215</tilt>
				<range>292.1775481472214</range>
				<gx:altitudeMode>relativeToSeaFloor</gx:altitudeMode>
			</LookAt>
			<styleUrl>#m_ylw-pushpin</styleUrl>
			<Point>
				<gx:drawOrder>1</gx:drawOrder>
				<coordinates>13.49422148965773,43.18754857378627,0</coordinates>
			</Point>
		</Placemark>
		<Placemark>
			<name>25</name>
			<description>Continua su Contrada Santa Croce;Continue on Contrada Santa Croce</description>
			<LookAt>
				<longitude>13.50257812994772</longitude>
				<latitude>43.1860273917901</latitude>
				<altitude>0</altitude>
				<heading>0.0009391897528323739</heading>
				<tilt>24.61670735507587</tilt>
				<range>130.6001908101114</range>
				<gx:altitudeMode>relativeToSeaFloor</gx:altitudeMode>
			</LookAt>
			<styleUrl>#m_ylw-pushpin</styleUrl>
			<Point>
				<gx:drawOrder>1</gx:drawOrder>
				<coordinates>13.50283665111659,43.18632515597844,0</coordinates>
			</Point>
		</Placemark>
		<Placemark>
			<name>26</name>
			<description>Svolta a sinistra;Turn left</description>
			<LookAt>
				<longitude>13.51416229601085</longitude>
				<latitude>43.1790057345336</latitude>
				<altitude>0</altitude>
				<heading>0.008866908200053474</heading>
				<tilt>24.6175656273478</tilt>
				<range>483.7204026076548</range>
				<gx:altitudeMode>relativeToSeaFloor</gx:altitudeMode>
			</LookAt>
			<styleUrl>#m_ylw-pushpin</styleUrl>
			<Point>
				<gx:drawOrder>1</gx:drawOrder>
				<coordinates>13.5134064638369,43.17836400943877,0</coordinates>
			</Point>
		</Placemark>
		<atom:link rel="app" href="https://www.google.com/earth/about/versions/#earth-pro" title="Google Earth Pro 7.3.6.10441"></atom:link>
	</Folder>
</Document>
</kml>
