<?xml version="1.0" encoding="UTF-8"?>
<kml xmlns="http://www.opengis.net/kml/2.2" xmlns:gx="http://www.google.com/kml/ext/2.2" xmlns:kml="http://www.opengis.net/kml/2.2" xmlns:atom="http://www.w3.org/2005/Atom">
<Document>
	<name>Piazza</name>
	<gx:CascadingStyle kml:id="__managed_style_1E9715A61F31B839D003">
		<Style>
			<IconStyle>
				<scale>1.2</scale>
				<Icon>
					<href>https://earth.google.com/earth/rpc/cc/icon?color=1976d2&amp;id=2000&amp;scale=4</href>
				</Icon>
				<hotSpot x="64" y="128" xunits="pixels" yunits="insetPixels"/>
			</IconStyle>
			<LabelStyle>
			</LabelStyle>
			<LineStyle>
				<color>ff2dc0fb</color>
				<width>6</width>
			</LineStyle>
			<PolyStyle>
				<color>40ffffff</color>
			</PolyStyle>
			<BalloonStyle>
				<displayMode>hide</displayMode>
			</BalloonStyle>
		</Style>
	</gx:CascadingStyle>
	<gx:CascadingStyle kml:id="__managed_style_03A8AE191F31B839D003">
		<Style>
			<IconStyle>
				<Icon>
					<href>https://earth.google.com/earth/rpc/cc/icon?color=1976d2&amp;id=2000&amp;scale=4</href>
				</Icon>
				<hotSpot x="64" y="128" xunits="pixels" yunits="insetPixels"/>
			</IconStyle>
			<LabelStyle>
			</LabelStyle>
			<LineStyle>
				<color>ff2dc0fb</color>
				<width>4</width>
			</LineStyle>
			<PolyStyle>
				<color>40ffffff</color>
			</PolyStyle>
			<BalloonStyle>
				<displayMode>hide</displayMode>
			</BalloonStyle>
		</Style>
	</gx:CascadingStyle>
	<StyleMap id="__managed_style_03A70B9B0E31B839D002">
		<Pair>
			<key>normal</key>
			<styleUrl>#__managed_style_03A8AE191F31B839D003</styleUrl>
		</Pair>
		<Pair>
			<key>highlight</key>
			<styleUrl>#__managed_style_1E9715A61F31B839D003</styleUrl>
		</Pair>
	</StyleMap>
	<Placemark id="0D869E5A6231B839CFFD">
		<name>Piazza</name>
		<LookAt>
			<longitude>13.00883661002285</longitude>
			<latitude>43.25675773857667</latitude>
			<altitude>357.2416691872404</altitude>
			<heading>0</heading>
			<tilt>0</tilt>
			<gx:fovy>30</gx:fovy>
			<range>241.9661410442131</range>
			<altitudeMode>absolute</altitudeMode>
		</LookAt>
		<styleUrl>#__managed_style_03A70B9B0E31B839D002</styleUrl>
		<LineString>
			<coordinates>
				13.00904686381338,43.25342422419826,0 13.00900118800936,43.25362616508353,0 13.00892457542485,43.25385675372647,0 13.00889015479644,43.25395756723815,0 13.00873716573772,43.25407712751832,0 13.00853747413137,43.25423275550594,0 13.00826053342228,43.25448760377291,0 13.00831891600753,43.25474772432814,0 13.00829082171082,43.25484084135995,0 13.00851051742648,43.25546956919032,0 13.00878854082792,43.25662630372133,0 
			</coordinates>
		</LineString>
	</Placemark>
</Document>
</kml>
