<?xml version="1.0" encoding="UTF-8"?>
<kml xmlns="http://www.opengis.net/kml/2.2" xmlns:gx="http://www.google.com/kml/ext/2.2" xmlns:kml="http://www.opengis.net/kml/2.2" xmlns:atom="http://www.w3.org/2005/Atom">
<Document>
	<name>Nel cuore della piccola Urbe.kml</name>
	<StyleMap id="__managed_style_0D13349F4A34EC26BE5E">
		<Pair>
			<key>normal</key>
			<styleUrl>#failed</styleUrl>
		</Pair>
		<Pair>
			<key>highlight</key>
			<styleUrl>#failed1</styleUrl>
		</Pair>
	</StyleMap>
	<Style id="failed">
		<LineStyle>
			<color>ff00ff00</color>
			<width>3</width>
		</LineStyle>
	</Style>
	<Style id="failed1">
		<LineStyle>
			<color>ff00ff00</color>
			<width>3</width>
		</LineStyle>
	</Style>
	<Placemark id="51AC1F459000002E">
		<name>Nel cuore della piccola Urbe</name>
		<LookAt>
			<longitude>13.22565557828509</longitude>
			<latitude>43.13834866193738</latitude>
			<altitude>317.8276695772408</altitude>
			<heading>9.012900918496426</heading>
			<tilt>6.318612048655713</tilt>
			<range>753.0680626733374</range>
			<altitudeMode>absolute</altitudeMode>
			<gx:fovy>35</gx:fovy>
		</LookAt>
		<styleUrl>#__managed_style_0D13349F4A34EC26BE5E</styleUrl>
		<LineString>
			<coordinates>
				13.22629041202243,43.13830095018033,0 13.2261396666749,43.13843110632052,0 13.22470644384828,43.13806514906758,0 13.22418312672599,43.13792463785891,0 13.22333813656173,43.13769651137709,0 13.22270079664404,43.13752589141914,0 13.22261801083959,43.13743043343841,0 13.222570566124,43.1372996319976,0 13.22267770852027,43.13710915574754,0 13.22395352404896,43.13672834614887,0 13.22416643171433,43.13684885969992,0 13.22411887999695,43.13688572192063,0 13.22394332532247,43.13677111117067,0 13.22384046094284,43.13683014521225,0 13.22386764601145,43.13714998994433,0 13.22396304760126,43.13737933269395,0 13.22417960685585,43.13747137833878,0 13.22458270219462,43.13772208985102,0 13.22444690217937,43.13778104689501,0 13.22434053319529,43.13779167763325,0 13.22403955266483,43.13770747448453,0 13.22411485495785,43.13776148101528,0 13.22438226489786,43.13784475454328,0 13.2246495395592,43.13779340690184,0 13.22489356061013,43.13768469761058,0 13.22508814785592,43.13750176133914,0 13.22512824170514,43.13752800463005,0 13.22495463739488,43.1377232838411,0 13.22518070672084,43.13781435845194,0 13.22549860319602,43.13790446059434,0 13.22610902901187,43.13804974534921,0 13.22641893120942,43.13802318686318,0 
			</coordinates>
		</LineString>
		<atom:link rel="app" href="https://www.google.com/earth/about/versions/#earth-pro" title="Google Earth Pro 7.3.6.10201"></atom:link>
	</Placemark>
</Document>
</kml>
