<?xml version="1.0" encoding="UTF-8"?>
<kml xmlns="http://www.opengis.net/kml/2.2" xmlns:gx="http://www.google.com/kml/ext/2.2" xmlns:kml="http://www.opengis.net/kml/2.2" xmlns:atom="http://www.w3.org/2005/Atom">
<Document>
	<name>Urbisaglia_IOT_indicazioni.kml</name>
	<StyleMap id="__managed_style_0D3CF140F938467A5AD72">
		<Pair>
			<key>normal</key>
			<styleUrl>#failed9000</styleUrl>
		</Pair>
		<Pair>
			<key>highlight</key>
			<styleUrl>#failed800</styleUrl>
		</Pair>
	</StyleMap>
	<Style id="failed800">
		<LineStyle>
			<color>ff0affff</color>
			<width>2</width>
		</LineStyle>
	</Style>
	<Style id="failed9000">
		<LineStyle>
			<color>ff0affff</color>
			<width>2</width>
		</LineStyle>
	</Style>
	<StyleMap id="m_ylw-pushpin">
		<Pair>
			<key>normal</key>
			<styleUrl>#s_ylw-pushpin</styleUrl>
		</Pair>
		<Pair>
			<key>highlight</key>
			<styleUrl>#s_ylw-pushpin_hl</styleUrl>
		</Pair>
	</StyleMap>
	<Style id="s_ylw-pushpin">
		<IconStyle>
			<scale>1.1</scale>
			<Icon>
				<href>http://maps.google.com/mapfiles/kml/pushpin/red-pushpin.png</href>
			</Icon>
			<hotSpot x="20" y="2" xunits="pixels" yunits="pixels"/>
		</IconStyle>
		<ListStyle>
		</ListStyle>
	</Style>
	<Style id="s_ylw-pushpin_hl">
		<IconStyle>
			<scale>1.3</scale>
			<Icon>
				<href>http://maps.google.com/mapfiles/kml/pushpin/red-pushpin.png</href>
			</Icon>
			<hotSpot x="20" y="2" xunits="pixels" yunits="pixels"/>
		</IconStyle>
		<ListStyle>
		</ListStyle>
	</Style>
	<Folder>
		<name>IOT</name>
		<open>1</open>
		<Placemark id="55242939A7000002">
			<name>IOT</name>
			<styleUrl>#__managed_style_0D3CF140F938467A5AD72</styleUrl>
			<LineString>
				<coordinates>
					13.37559470489702,43.19578253616913,295.8587226680569 13.37568443146434,43.19586331457068,295.8587226680569 13.37593464516975,43.19602619276091,295.8587226680569 13.37590013023976,43.19638864239379,295.8587226680569 13.37591262456291,43.1965658702965,295.8587226680569 13.37612288475149,43.19692325516641,295.8587226680569 13.37632445118843,43.19716230790521,297.1 13.37643212749459,43.19728164136495,297.49 13.37646716560316,43.1975017071086,296.86 13.37655,43.1977,293.83 13.37664,43.1978,293.04 13.37676,43.19785,295.83 13.37693,43.19789,299.69 13.37733,43.19792,305.97 13.37793540651283,43.19789688543121,309.75 13.37799623340036,43.19796656582298,309.97 13.37809038494018,43.19808335055515,310.25 13.37824910092478,43.19828435077256,306.24 13.37856327078942,43.19867081978551,302.82 13.3792345651011,43.19945753280085,293.82 13.37931210189551,43.19952441510999,292.97 13.37936832314332,43.19957248276013,292.54 13.37940966160773,43.19958678812553,292.11 13.37944144182419,43.19955507615755,292.32 13.37935974138298,43.1994526111236,293.26 13.37929060282129,43.19932849683495,294.58 13.37915363883224,43.19905613911735,298.64 13.37908991815608,43.19885923386914,300.33 13.37918859346416,43.19829448657931,298.36 13.37917845939282,43.19810894063352,297.68 13.37911262570536,43.19781416036682,295.35 13.37903196979435,43.19758068981854,293.38 13.37911890191863,43.1976078115035,293.01 13.37922773877334,43.19783861732648,292.27 13.37934794205181,43.19810094240007,291.51 13.37939119578594,43.19836284143256,291.83 13.37943958950731,43.19860381034381,292.16 13.3795428186643,43.19882390297812,292.29 13.37971498059079,43.19905291245008,287.85 13.38003289603122,43.19933607687322,280.36 13.38021,43.19943,274.83 13.38038,43.19946,273.18 13.38056,43.19946,269.86 13.38073,43.19944,266.62 13.3809,43.19941,263.52 13.38126671433983,43.19931849064422,260.08 13.38143278692643,43.19930100700942,255.3 13.3817269663878,43.19914760751276,253.25 13.38194185874537,43.19909173189262,249.99 13.38213394684252,43.19907581623717,247.65 13.38220871435977,43.19909032423162,246.94 13.3823462596124,43.19911929775857,245.35 13.38247417233801,43.1992058291084,244.37 13.38252706273647,43.19919597792421,243.87 13.38258522790154,43.19914580936835,243.36 13.38263,43.19905,241.2 13.38263,43.19895,240.63 13.38256911190864,43.19881478834294,243.66 13.38261098130709,43.19870660006011,239.78 13.38259596963794,43.19853285783454,237.8 13.38268105045323,43.198300875515,236.6 13.38279176514864,43.19827083118743,235.51 13.38309,43.19826,232.72 13.38351110511521,43.1982238380338,230.67 13.38397696236613,43.19813993433483,224.31 13.38424631895482,43.19810827640479,224.26 13.3845,43.19813,224.21 13.38510989007997,43.19837617392044,224.11 13.38522023446723,43.19839387193818,222.9844970703125 13.38586975232624,43.19941457986095,222.0244979858399 13.38606,43.1998,221.35 13.38645,43.20021,221.13 13.38677,43.20049,220.98 13.38687,43.20055,220.96 13.38642,43.19993,220.99 13.38626,43.19969,221.17 13.38618187615184,43.19959090313618,221.53 13.38655223525405,43.19933939352259,219.04 13.38699008283998,43.19920820583827,217.49 13.38736184337647,43.19931630925459,215.85 13.38785,43.19938,213.6 13.38847,43.1994,210.85 13.38866,43.19941,209.86 13.38916,43.19943,208.24 13.38960558070738,43.19943386710157,207.85 13.39006,43.19934,207.59 13.39034,43.19923,207.98 13.39046,43.19918,208.16 13.39056,43.19927,208.1 13.39069,43.19932,208.04 13.3914377050086,43.20034252639879,208.68 13.39159,43.20052,208.91 13.3917850728294,43.20055505436081,209.07 13.39196581682571,43.20049679191609,209.21 13.39237669669872,43.20020322518243,209.84 13.39260465879346,43.20006432451891,210.15 13.39292659659815,43.20016349339455,210.49 13.39387465350975,43.20039802839391,211.47 13.3941630439263,43.2004974791138,211.65 13.39426050940063,43.20054197807461,211.83 13.39432007898659,43.20062368770702,210.99 13.39435,43.2007,208.2 13.39447975771541,43.20143895312064,205.42 13.39455639971116,43.20184690714485,205.12 13.39471723343904,43.2023031572925,204.55 13.39498,43.20291,203.55 13.39515,43.20337,203.2 13.39539218333633,43.20433109681872,202.03 13.39554,43.20491,201.31 13.39557089333745,43.20599101311435,200.04 13.39564411118065,43.20624049276263,199.7 13.3961090271201,43.20680593388158,198.91 13.39588664404541,43.20699291955518,198.62 13.39574738122899,43.20699448156221,198.56 13.39552305921183,43.20704662540032,197.85 13.39496,43.20712,198.07 13.39412449320532,43.20746433948057,198.88 13.39406518878667,43.20750416117584,198.88 13.39392,43.20757,199.44 13.39379,43.2076,199.73 13.39362,43.20761,200.16 13.39345094017733,43.20768360030306,200.69 13.39241421156911,43.20844379930531,207.4 13.39308023973597,43.20960391580761,205.16 13.39350482736182,43.21031896971157,203.77 13.39305,43.21046,205.01 13.39295,43.21054,205.4 13.39282,43.2106,205.82 13.39272,43.2107,206.25 13.39268,43.21078,206.65 13.39264,43.21081,206.84 13.39273386707535,43.21109231621378,207.52 13.39350557034864,43.21246476904619,205.2 13.39375003518123,43.212813414568,204.58 13.39403775179827,43.21310187227328,204 13.39401656439281,43.21316515069965,204.02 13.39391110019012,43.21336363025998,204.04 13.39382672937291,43.2134456472032,204.12 13.39368765666886,43.21352319197185,203.83 13.39325019453618,43.21370621716523,202.96 13.39316179337569,43.21376428095711,202.67 13.3931140863756,43.2138450650209,202.57 13.39307958869027,43.2140120026646,202.13 13.39299783485173,43.21448777620279,200.94 13.39297015859129,43.21458993448017,200.73 13.39285622786395,43.21467791136826,199.91 13.39268015868712,43.21477668119532,198.74 13.39221503975087,43.21494633516474,198.74 13.39169405309481,43.21518162372256,191.93 13.39085974393687,43.21555654033052,185.39 13.39074618630741,43.21564933524009,185.37 13.39066140547776,43.21578117338954,185.32 13.39059365763412,43.21599858176925,185.23 13.3904757666587,43.21627447576303,185.12 13.39028983985311,43.21650693844931,184.99 13.38986,43.21645,185.77 13.38938,43.21635,186.78 13.38817,43.21606,189.33 13.38785,43.21597,190.02 13.38719,43.21572,193.64 13.38638622250372,43.21538695497376,201.04 13.38489263016715,43.21470558543263,214.99 13.38419775158146,43.21445589504912,221.18 13.38408173091203,43.21438518950887,222.28 13.38400641270748,43.21429074446392,222.1 13.38385113957241,43.21374824365444,221.16 13.38366,43.21336,220.64 13.38359129923352,43.21317965818844,219.76 13.38331381953612,43.21264085370611,218.81 13.38308282218583,43.2121625387582,217.88 13.3829110131179,43.2119475739282,217.61 13.38235341992834,43.21130585199656,220.45 13.38228289158472,43.21122772100949,220.99 13.3821560453247,43.21114646819097,221.8 13.37962972964373,43.21009477208889,229.68 13.3779914491339,43.20939744476603,230.44 13.37786,43.20937,230.48 13.37780504947887,43.20935571837028,230.51 13.37844816589579,43.20816505015428,230.51 13.37866721126813,43.20771266173175,206.15 13.37875958189444,43.20750537009988,203.55 13.37893159942583,43.20717972423762,199.79 13.37913143451643,43.20688035489677,196.26 13.37929557800945,43.2065857102918,193.06 13.3793652238245,43.20643348811196,193.01 13.37941122081334,43.20628338263536,192.97 13.37936224499886,43.2060676071821,192.91 13.3792018256641,43.20582045161862,192.79 13.37925797903046,43.20577071171348,192.88 13.37948837091169,43.20548641505857,194.47 13.37960255854426,43.20535449480666,196.73 13.38004639553212,43.20463772959065,208.21 13.38022721857404,43.20431006842076,213.13 13.38025984216393,43.20418387411681,214.25 13.38022353191558,43.20410815473302,215.34 13.37975944136108,43.20366219280973,220.82 13.37965150665522,43.20350924991121,222.6 13.37930417998884,43.20297432951894,230.18 13.37908500036632,43.20263800341651,233.96 13.37898026250032,43.2025252830691,235.23 13.37870853785834,43.20207630452379,240.88 13.3785182465272,43.20183185803091,243.98 13.37843763115273,43.20171521546894,245.3 13.37841375558313,43.20163356806262,246.33 13.37837022760636,43.2015042607545,247.78 13.37830995798069,43.20125413468967,250.72 13.37808,43.20097,254.49 13.37767,43.20046,258.06 13.37764479026191,43.20037336985621,258.49 13.37759733355013,43.20011224057303,259.67 13.37752,43.20003,260.72 13.37720827520315,43.19978270741703,262.86 13.377155880316,43.19970652729695,263.08 13.37710880415789,43.19956853050618,265.56 13.37696414913599,43.19860717868042,282.48 13.37684802560304,43.19841002543894,283.49 13.37658263270938,43.19806492685476,287.31 13.37661105063961,43.19802789342697,287.64 13.37664498988396,43.19802070136852,290.87 13.37683,43.19805,294.11 13.37713390089937,43.19807715948261,303.35 13.37737244292906,43.19806137987565,305.66 13.37760494290931,43.19800584791267,307.73 13.37790911979345,43.19792790160714,309.97 13.37788904927093,43.19788412016818,309.75 13.37786,43.19785,309.57 13.37785,43.19784,309.52 13.37783,43.19781,309.39 13.37771990729858,43.19765427767722,309.39 13.37761069988043,43.19746958803245,309.32 13.37749959681752,43.19728993151261,309.95 13.37709800168163,43.19675009337931,309.82 13.37676878802522,43.19638338918629,309.82 13.37693963686821,43.1962289983033,309.82 13.37680830011564,43.19608703230352,309.82 13.37670227220928,43.19537671647951,309.82 13.37664844717617,43.19535167347362,309.82 13.37620843383581,43.1954425381025,309.82 13.37554632325871,43.1956240509565,309.82 13.37559163299127,43.19575278673015,309.82 
				</coordinates>
			</LineString>
		</Placemark>
		<Placemark>
			<name>1</name>
			<description>Procedi in direzione nordest su Via della Rocca;Proceed northeast on Via della Rocca</description>
			<LookAt>
				<longitude>13.37599236279002</longitude>
				<latitude>43.19642614567027</latitude>
				<altitude>0</altitude>
				<heading>3.560338549154743</heading>
				<tilt>30.00060352399585</tilt>
				<range>131.4042965387923</range>
				<gx:altitudeMode>relativeToSeaFloor</gx:altitudeMode>
			</LookAt>
			<styleUrl>#m_ylw-pushpin</styleUrl>
			<Point>
				<gx:drawOrder>1</gx:drawOrder>
				<coordinates>13.37558611111111,43.19579444444444,0</coordinates>
			</Point>
		</Placemark>
		<Placemark>
			<name>2</name>
			<description>Svolta a sinistra su Circonvallazione Ponente;Turn left onto Circonvallazione Ponente</description>
			<LookAt>
				<longitude>13.37599046763015</longitude>
				<latitude>43.19642623162792</latitude>
				<altitude>0</altitude>
				<heading>3.560337251925065</heading>
				<tilt>30.00060352399592</tilt>
				<range>131.4042965418483</range>
				<gx:altitudeMode>relativeToSeaFloor</gx:altitudeMode>
			</LookAt>
			<styleUrl>#m_ylw-pushpin</styleUrl>
			<Point>
				<gx:drawOrder>1</gx:drawOrder>
				<coordinates>13.37593640371596,43.19601059966705,0</coordinates>
			</Point>
		</Placemark>
		<Placemark>
			<name>3</name>
			<description>Svolta a sinistra su Via Sacrario;Turn left onto Via Sacrario</description>
			<LookAt>
				<longitude>13.3776416412265</longitude>
				<latitude>43.19789603919196</latitude>
				<altitude>0</altitude>
				<heading>3.56146749451482</heading>
				<tilt>30.00060352399588</tilt>
				<range>131.4042965413843</range>
				<gx:altitudeMode>relativeToSeaFloor</gx:altitudeMode>
			</LookAt>
			<styleUrl>#m_ylw-pushpin</styleUrl>
			<Point>
				<gx:drawOrder>1</gx:drawOrder>
				<coordinates>13.37797164530104,43.19787654870491,0</coordinates>
			</Point>
		</Placemark>
		<Placemark>
			<name>4</name>
			<description>Svolta a destra e prendi sentiero;Turn right and take the path</description>
			<LookAt>
				<longitude>13.37935882693111</longitude>
				<latitude>43.19957979003589</latitude>
				<altitude>0</altitude>
				<heading>103.2270614280249</heading>
				<tilt>44.66580203048778</tilt>
				<range>103.7728694247378</range>
				<gx:altitudeMode>relativeToSeaFloor</gx:altitudeMode>
			</LookAt>
			<styleUrl>#m_ylw-pushpin</styleUrl>
			<Point>
				<gx:drawOrder>1</gx:drawOrder>
				<coordinates>13.37940123102398,43.19959905377836,0</coordinates>
			</Point>
		</Placemark>
		<Placemark>
			<name>5</name>
			<description>Svolta a sinistra;Turn left</description>
			<LookAt>
				<longitude>13.37901051757595</longitude>
				<latitude>43.19765471117655</latitude>
				<altitude>0</altitude>
				<heading>0.869274191476073</heading>
				<tilt>0</tilt>
				<range>73.80567236516056</range>
				<gx:altitudeMode>relativeToSeaFloor</gx:altitudeMode>
			</LookAt>
			<styleUrl>#m_ylw-pushpin</styleUrl>
			<Point>
				<gx:drawOrder>1</gx:drawOrder>
				<coordinates>13.37901944444445,43.19757499999999,0</coordinates>
			</Point>
		</Placemark>
		<Placemark>
			<name>6</name>
			<open>1</open>
			<description>Svolta a sinistra;Turn left</description>
			<LookAt>
				<longitude>13.37901051757595</longitude>
				<latitude>43.19765471117655</latitude>
				<altitude>0</altitude>
				<heading>0.869274191476073</heading>
				<tilt>0</tilt>
				<range>73.80567236516056</range>
				<gx:altitudeMode>relativeToSeaFloor</gx:altitudeMode>
			</LookAt>
			<styleUrl>#m_ylw-pushpin</styleUrl>
			<Point>
				<gx:drawOrder>1</gx:drawOrder>
				<coordinates>13.37911783455793,43.19759059888059,0</coordinates>
			</Point>
		</Placemark>
		<Placemark>
			<name>7</name>
			<description>Tieni la destra;Keep right</description>
			<LookAt>
				<longitude>13.37939998554654</longitude>
				<latitude>43.19868878666195</latitude>
				<altitude>0</altitude>
				<heading>0.869540785601041</heading>
				<tilt>0</tilt>
				<range>73.80567236233956</range>
				<gx:altitudeMode>relativeToSeaFloor</gx:altitudeMode>
			</LookAt>
			<styleUrl>#m_ylw-pushpin</styleUrl>
			<Point>
				<gx:drawOrder>1</gx:drawOrder>
				<coordinates>13.37955100006443,43.19880988592758,0</coordinates>
			</Point>
		</Placemark>
		<Placemark>
			<name>8</name>
			<description>Continua dritto;Continue straight</description>
			<LookAt>
				<longitude>13.38139486365558</longitude>
				<latitude>43.19909515284007</latitude>
				<altitude>0</altitude>
				<heading>0.8709063497495687</heading>
				<tilt>0</tilt>
				<range>73.80567236588263</range>
				<gx:altitudeMode>relativeToSeaFloor</gx:altitudeMode>
			</LookAt>
			<styleUrl>#m_ylw-pushpin</styleUrl>
			<Point>
				<gx:drawOrder>1</gx:drawOrder>
				<coordinates>13.38144281984578,43.19931067952037,0</coordinates>
			</Point>
		</Placemark>
		<Placemark>
			<name>9</name>
			<description>Svolta a destra;Turn right</description>
			<LookAt>
				<longitude>13.38269944644422</longitude>
				<latitude>43.19898473228736</latitude>
				<altitude>0</altitude>
				<heading>0.8717993797551947</heading>
				<tilt>0</tilt>
				<range>73.80567236411076</range>
				<gx:altitudeMode>relativeToSeaFloor</gx:altitudeMode>
			</LookAt>
			<styleUrl>#m_ylw-pushpin</styleUrl>
			<Point>
				<gx:drawOrder>1</gx:drawOrder>
				<coordinates>13.38244444444445,43.19920277777778,0</coordinates>
			</Point>
		</Placemark>
		<Placemark>
			<name>10</name>
			<description>Svolta a sinistra;Turn left</description>
			<LookAt>
				<longitude>13.38272169402116</longitude>
				<latitude>43.19845859240898</latitude>
				<altitude>0</altitude>
				<heading>0.8718146104755086</heading>
				<tilt>0</tilt>
				<range>73.80567236517594</range>
				<gx:altitudeMode>relativeToSeaFloor</gx:altitudeMode>
			</LookAt>
			<styleUrl>#m_ylw-pushpin</styleUrl>
			<Point>
				<gx:drawOrder>1</gx:drawOrder>
				<coordinates>13.38269444444444,43.19831666666666,0</coordinates>
			</Point>
		</Placemark>
		<Placemark>
			<name>11</name>
			<description>Tieni la destra;Keep right</description>
			<LookAt>
				<longitude>13.38434812021117</longitude>
				<latitude>43.19815574686219</latitude>
				<altitude>0</altitude>
				<heading>0.8729279393608151</heading>
				<tilt>0</tilt>
				<range>73.80567236597936</range>
				<gx:altitudeMode>relativeToSeaFloor</gx:altitudeMode>
			</LookAt>
			<styleUrl>#m_ylw-pushpin</styleUrl>
			<Point>
				<gx:drawOrder>1</gx:drawOrder>
				<coordinates>13.383975,43.19815833333333,0</coordinates>
			</Point>
		</Placemark>
		<Placemark>
			<name>12</name>
			<description>Svolta a sinistra;Turn left</description>
			<LookAt>
				<longitude>13.38512048683818</longitude>
				<latitude>43.19837956220861</latitude>
				<altitude>0</altitude>
				<heading>0.8734566440170258</heading>
				<tilt>0</tilt>
				<range>73.80567236466034</range>
				<gx:altitudeMode>relativeToSeaFloor</gx:altitudeMode>
			</LookAt>
			<styleUrl>#m_ylw-pushpin</styleUrl>
			<Point>
				<gx:drawOrder>1</gx:drawOrder>
				<coordinates>13.38522065645732,43.19837800883677,0</coordinates>
			</Point>
		</Placemark>
		<Placemark>
			<name>13</name>
			<description>Passa sotto il ponte;Go under the bridge</description>
			<LookAt>
				<longitude>13.38600950800049</longitude>
				<latitude>43.19945135176006</latitude>
				<altitude>0</altitude>
				<heading>-1.311061893472884</heading>
				<tilt>45.83817418581199</tilt>
				<range>91.81368364981462</range>
				<gx:altitudeMode>relativeToSeaFloor</gx:altitudeMode>
			</LookAt>
			<styleUrl>#m_ylw-pushpin</styleUrl>
			<Point>
				<gx:drawOrder>1</gx:drawOrder>
				<coordinates>13.38584725576013,43.19936082022981,0</coordinates>
			</Point>
		</Placemark>
		<Placemark>
			<name>14</name>
			<description>Prendi il sentiero fino al Teatro Romano;Take the path to the Roman Theatre</description>
			<LookAt>
				<longitude>13.38619434831707</longitude>
				<latitude>43.19975339274742</latitude>
				<altitude>0</altitude>
				<heading>-1.310935364125124</heading>
				<tilt>45.83817418581198</tilt>
				<range>91.81368364920108</range>
				<gx:altitudeMode>relativeToSeaFloor</gx:altitudeMode>
			</LookAt>
			<styleUrl>#m_ylw-pushpin</styleUrl>
			<Point>
				<gx:drawOrder>1</gx:drawOrder>
				<coordinates>13.38608139398442,43.19977803933465,0</coordinates>
			</Point>
		</Placemark>
		<Placemark>
			<name>15</name>
			<description>Torna indietro verso SC8 Peccolina;Go back towards SC8 Peccolina</description>
			<LookAt>
				<longitude>13.38648413097028</longitude>
				<latitude>43.19961029458023</latitude>
				<altitude>0</altitude>
				<heading>-1.310736995536604</heading>
				<tilt>45.83817418581199</tilt>
				<range>91.81368364817156</range>
				<gx:altitudeMode>relativeToSeaFloor</gx:altitudeMode>
			</LookAt>
			<styleUrl>#m_ylw-pushpin</styleUrl>
			<Point>
				<gx:drawOrder>1</gx:drawOrder>
				<coordinates>13.38689227584693,43.2004888584356,0</coordinates>
			</Point>
		</Placemark>
		<Placemark>
			<name>16</name>
			<description>Svolta a sinistra e prendi SC8 Peccolina;Turn left and take SC8 Peccolina</description>
			<LookAt>
				<longitude>13.38647316149185</longitude>
				<latitude>43.19961011160298</latitude>
				<altitude>0</altitude>
				<heading>-1.31074450457493</heading>
				<tilt>45.83817418581195</tilt>
				<range>91.81368364681005</range>
				<gx:altitudeMode>relativeToSeaFloor</gx:altitudeMode>
			</LookAt>
			<styleUrl>#m_ylw-pushpin</styleUrl>
			<Point>
				<gx:drawOrder>1</gx:drawOrder>
				<coordinates>13.38617808845319,43.19960283728388,0</coordinates>
			</Point>
		</Placemark>
		<Placemark>
			<name>17</name>
			<description>Svolta a sinistra;Turn left</description>
			<LookAt>
				<longitude>13.39055671064585</longitude>
				<latitude>43.19939059807909</latitude>
				<altitude>0</altitude>
				<heading>-1.307949160003569</heading>
				<tilt>45.83817418581193</tilt>
				<range>91.81368364504695</range>
				<gx:altitudeMode>relativeToSeaFloor</gx:altitudeMode>
			</LookAt>
			<styleUrl>#m_ylw-pushpin</styleUrl>
			<Point>
				<gx:drawOrder>1</gx:drawOrder>
				<coordinates>13.39045920082709,43.19919495772353,0</coordinates>
			</Point>
		</Placemark>
		<Placemark>
			<name>18</name>
			<open>1</open>
			<description>Svolta a sinistra;Turn left</description>
			<LookAt>
				<longitude>13.39263561224078</longitude>
				<latitude>43.20008860035984</latitude>
				<altitude>0</altitude>
				<heading>-1.306526065111224</heading>
				<tilt>45.83817418581189</tilt>
				<range>91.81368364171807</range>
				<gx:altitudeMode>relativeToSeaFloor</gx:altitudeMode>
			</LookAt>
			<styleUrl>#m_ylw-pushpin</styleUrl>
			<Point>
				<gx:drawOrder>1</gx:drawOrder>
				<coordinates>13.3926013225499,43.20008411447579,0</coordinates>
			</Point>
		</Placemark>
		<Placemark>
			<name>19</name>
			<open>1</open>
			<description>Svolta a sinistra;Turn left</description>
			<LookAt>
				<longitude>13.39373513378574</longitude>
				<latitude>43.20053678521791</latitude>
				<altitude>0</altitude>
				<heading>-1.305773388994982</heading>
				<tilt>45.83817418581186</tilt>
				<range>91.81368364159114</range>
				<gx:altitudeMode>relativeToSeaFloor</gx:altitudeMode>
			</LookAt>
			<styleUrl>#m_ylw-pushpin</styleUrl>
			<Point>
				<gx:drawOrder>1</gx:drawOrder>
				<coordinates>13.39414890134709,43.20051083404445,0</coordinates>
			</Point>
		</Placemark>
		<Placemark>
			<name>20</name>
			<open>1</open>
			<description>Svolta a sinistra;Turn left</description>
			<LookAt>
				<longitude>13.39401096626102</longitude>
				<latitude>43.20071183979623</latitude>
				<altitude>0</altitude>
				<heading>-1.305584568033348</heading>
				<tilt>45.83817418581192</tilt>
				<range>91.81368363961593</range>
				<gx:altitudeMode>relativeToSeaFloor</gx:altitudeMode>
			</LookAt>
			<styleUrl>#m_ylw-pushpin</styleUrl>
			<Point>
				<gx:drawOrder>1</gx:drawOrder>
				<coordinates>13.39435159932993,43.20082867162328,0</coordinates>
			</Point>
		</Placemark>
		<Placemark>
			<name>21</name>
			<description>Svolta a sinistra verso SC10 Monteduro;Turn left towards SC10 Monteduro</description>
			<LookAt>
				<longitude>13.39592205266936</longitude>
				<latitude>43.20663538860838</latitude>
				<altitude>0</altitude>
				<heading>-1.304276293311691</heading>
				<tilt>45.83817418581189</tilt>
				<range>91.81368363716803</range>
				<gx:altitudeMode>relativeToSeaFloor</gx:altitudeMode>
			</LookAt>
			<styleUrl>#m_ylw-pushpin</styleUrl>
			<Point>
				<gx:drawOrder>1</gx:drawOrder>
				<coordinates>13.39612410250332,43.20677301242154,0</coordinates>
			</Point>
		</Placemark>
		<Placemark>
			<name>22</name>
			<description>Svolta a sinistra su SC10 Monteduro;Turn left on SC10 Monteduro</description>
			<LookAt>
				<longitude>13.39580148620739</longitude>
				<latitude>43.20682867083109</latitude>
				<altitude>0</altitude>
				<heading>-1.304358837623429</heading>
				<tilt>45.83817418581189</tilt>
				<range>91.81368364110938</range>
				<gx:altitudeMode>relativeToSeaFloor</gx:altitudeMode>
			</LookAt>
			<styleUrl>#m_ylw-pushpin</styleUrl>
			<Point>
				<gx:drawOrder>1</gx:drawOrder>
				<coordinates>13.39591364170426,43.20700523926561,0</coordinates>
			</Point>
		</Placemark>
		<Placemark>
			<name>23</name>
			<description>Prosegui dritto verso Contrada Montedoro;Continue strainght on Contrada Montedoro</description>
			<LookAt>
				<longitude>13.39382663804872</longitude>
				<latitude>43.20711314447419</latitude>
				<altitude>0</altitude>
				<heading>2.517861568930794</heading>
				<tilt>0</tilt>
				<range>63.96576705274521</range>
				<gx:altitudeMode>relativeToSeaFloor</gx:altitudeMode>
			</LookAt>
			<styleUrl>#m_ylw-pushpin</styleUrl>
			<Point>
				<gx:drawOrder>1</gx:drawOrder>
				<coordinates>13.39413900429965,43.20746459803555,0</coordinates>
			</Point>
		</Placemark>
		<Placemark>
			<name>24</name>
			<description>Svolta a destra su Contrada Montedoro;Turn right on Contrada Montedoro</description>
			<LookAt>
				<longitude>13.39347193968071</longitude>
				<latitude>43.20763323936811</latitude>
				<altitude>0</altitude>
				<heading>2.517618726024569</heading>
				<tilt>0</tilt>
				<range>63.96576704632646</range>
				<gx:altitudeMode>relativeToSeaFloor</gx:altitudeMode>
			</LookAt>
			<styleUrl>#m_ylw-pushpin</styleUrl>
			<Point>
				<gx:drawOrder>1</gx:drawOrder>
				<coordinates>13.39363116245395,43.20761630394629,0</coordinates>
			</Point>
		</Placemark>
		<Placemark>
			<name>25</name>
			<description>Svolta a destra;Turn right</description>
			<LookAt>
				<longitude>13.39239731191499</longitude>
				<latitude>43.20835195363647</latitude>
				<altitude>0</altitude>
				<heading>2.516882981742651</heading>
				<tilt>0</tilt>
				<range>63.96576705015867</range>
				<gx:altitudeMode>relativeToSeaFloor</gx:altitudeMode>
			</LookAt>
			<styleUrl>#m_ylw-pushpin</styleUrl>
			<Point>
				<gx:drawOrder>1</gx:drawOrder>
				<coordinates>13.39244743093704,43.20843622912842,0</coordinates>
			</Point>
		</Placemark>
		<Placemark>
			<name>26</name>
			<description>Svolta a sinistra;Turn left</description>
			<LookAt>
				<longitude>13.39349240276155</longitude>
				<latitude>43.21011664405508</latitude>
				<altitude>0</altitude>
				<heading>2.517632745123255</heading>
				<tilt>0</tilt>
				<range>63.96576704987778</range>
				<gx:altitudeMode>relativeToSeaFloor</gx:altitudeMode>
			</LookAt>
			<styleUrl>#m_ylw-pushpin</styleUrl>
			<Point>
				<gx:drawOrder>1</gx:drawOrder>
				<coordinates>13.39352251556782,43.21032064910617,0</coordinates>
			</Point>
		</Placemark>
		<Placemark>
			<name>27</name>
			<description>Alla rotatoria prendi la 1° uscita su SP78;At the roundabout take the 1st exit onto SP78</description>
			<LookAt>
				<longitude>13.3929775114534</longitude>
				<latitude>43.21034910398291</latitude>
				<altitude>0</altitude>
				<heading>2.517280210317649</heading>
				<tilt>0</tilt>
				<range>63.9657670496667</range>
				<gx:altitudeMode>relativeToSeaFloor</gx:altitudeMode>
			</LookAt>
			<styleUrl>#m_ylw-pushpin</styleUrl>
			<Point>
				<gx:drawOrder>1</gx:drawOrder>
				<coordinates>13.39283993722144,43.2106035221946,0</coordinates>
			</Point>
		</Placemark>
		<Placemark>
			<name>28</name>
			<description>Svolta a destra;Turn right</description>
			<LookAt>
				<longitude>13.39295991998676</longitude>
				<latitude>43.21067375462997</latitude>
				<altitude>0</altitude>
				<heading>2.517268166470612</heading>
				<tilt>0</tilt>
				<range>63.96576704916306</range>
				<gx:altitudeMode>relativeToSeaFloor</gx:altitudeMode>
			</LookAt>
			<styleUrl>#m_ylw-pushpin</styleUrl>
			<Point>
				<gx:drawOrder>1</gx:drawOrder>
				<coordinates>13.3926590918772,43.21080897092088,0</coordinates>
			</Point>
		</Placemark>
		<Placemark>
			<name>29</name>
			<description>Svoltaa sinistra su Contrada Entogge;Turn left onto Contrada Entogge</description>
			<LookAt>
				<longitude>13.39406782272385</longitude>
				<latitude>43.2129024170484</latitude>
				<altitude>0</altitude>
				<heading>2.518026746679692</heading>
				<tilt>0</tilt>
				<range>63.965767049801</range>
				<gx:altitudeMode>relativeToSeaFloor</gx:altitudeMode>
			</LookAt>
			<styleUrl>#m_ylw-pushpin</styleUrl>
			<Point>
				<gx:drawOrder>1</gx:drawOrder>
				<coordinates>13.39405406510447,43.21309103352677,0</coordinates>
			</Point>
		</Placemark>
		<Placemark>
			<name>30</name>
			<description>Tieni la sinistra;Keep left</description>
			<LookAt>
				<longitude>13.3937151886377</longitude>
				<latitude>43.21316869068594</latitude>
				<altitude>0</altitude>
				<heading>2.517785291790001</heading>
				<tilt>0</tilt>
				<range>63.96576704865215</range>
				<gx:altitudeMode>relativeToSeaFloor</gx:altitudeMode>
			</LookAt>
			<styleUrl>#m_ylw-pushpin</styleUrl>
			<Point>
				<gx:drawOrder>1</gx:drawOrder>
				<coordinates>13.39386611527915,43.21343065864291,0</coordinates>
			</Point>
		</Placemark>
		<Placemark>
			<name>31</name>
			<open>1</open>
			<description>Tieni la sinistra;Keep left</description>
			<LookAt>
				<longitude>13.39343396034958</longitude>
				<latitude>43.21369232213509</latitude>
				<altitude>0</altitude>
				<heading>2.517592732130886</heading>
				<tilt>0</tilt>
				<range>214.1076814203716</range>
				<gx:altitudeMode>relativeToSeaFloor</gx:altitudeMode>
			</LookAt>
			<styleUrl>#m_ylw-pushpin</styleUrl>
			<Point>
				<gx:drawOrder>1</gx:drawOrder>
				<coordinates>13.39300801504246,43.21459391754739,0</coordinates>
			</Point>
		</Placemark>
		<Placemark>
			<name>32</name>
			<description>Svolta a destra;Turn right</description>
			<LookAt>
				<longitude>13.39105321822077</longitude>
				<latitude>43.21502789142126</latitude>
				<altitude>0</altitude>
				<heading>2.51596256101062</heading>
				<tilt>0</tilt>
				<range>214.1076814193105</range>
				<gx:altitudeMode>relativeToSeaFloor</gx:altitudeMode>
			</LookAt>
			<styleUrl>#m_ylw-pushpin</styleUrl>
			<Point>
				<gx:drawOrder>1</gx:drawOrder>
				<coordinates>13.39090011684907,43.21557067071541,0</coordinates>
			</Point>
		</Placemark>
		<Placemark>
			<name>33</name>
			<description>Svolta a sinistra;Turn left</description>
			<LookAt>
				<longitude>13.38960115598382</longitude>
				<latitude>43.21642435423871</latitude>
				<altitude>0</altitude>
				<heading>2.514968270390734</heading>
				<tilt>0</tilt>
				<range>214.10768142182</range>
				<gx:altitudeMode>relativeToSeaFloor</gx:altitudeMode>
			</LookAt>
			<styleUrl>#m_ylw-pushpin</styleUrl>
			<Point>
				<gx:drawOrder>1</gx:drawOrder>
				<coordinates>13.39033527015809,43.21650434006575,0</coordinates>
			</Point>
		</Placemark>
		<Placemark>
			<name>34</name>
			<description>Prosegui dritto;Continue straight</description>
			<LookAt>
				<longitude>13.38412693159838</longitude>
				<latitude>43.21332288557426</latitude>
				<altitude>0</altitude>
				<heading>2.511219725312639</heading>
				<tilt>0</tilt>
				<range>214.1076814204674</range>
				<gx:altitudeMode>relativeToSeaFloor</gx:altitudeMode>
			</LookAt>
			<styleUrl>#m_ylw-pushpin</styleUrl>
			<Point>
				<gx:drawOrder>1</gx:drawOrder>
				<coordinates>13.38361307262377,43.21334825242486,0</coordinates>
			</Point>
		</Placemark>
		<Placemark>
			<name>35</name>
			<description>Svolta a sinistra;Turn left</description>
			<LookAt>
				<longitude>13.37796737161732</longitude>
				<latitude>43.20880565777392</latitude>
				<altitude>0</altitude>
				<heading>2.507002426448228</heading>
				<tilt>0</tilt>
				<range>214.107681418804</range>
				<gx:altitudeMode>relativeToSeaFloor</gx:altitudeMode>
			</LookAt>
			<styleUrl>#m_ylw-pushpin</styleUrl>
			<Point>
				<gx:drawOrder>1</gx:drawOrder>
				<coordinates>13.37776666666667,43.20936666666667,0</coordinates>
			</Point>
		</Placemark>
		<Placemark>
			<name>36</name>
			<open>1</open>
			<description>Svolta a sinistra;Turn left</description>
			<LookAt>
				<longitude>13.378819773139</longitude>
				<latitude>43.20621861436068</latitude>
				<altitude>0</altitude>
				<heading>2.507586038173033</heading>
				<tilt>0</tilt>
				<range>214.1076814192228</range>
				<gx:altitudeMode>relativeToSeaFloor</gx:altitudeMode>
			</LookAt>
			<styleUrl>#m_ylw-pushpin</styleUrl>
			<Point>
				<gx:drawOrder>1</gx:drawOrder>
				<coordinates>13.37915344405916,43.20582084749952,0</coordinates>
			</Point>
		</Placemark>
		<Placemark>
			<name>37</name>
			<description>Svolta a destra;Turn right</description>
			<LookAt>
				<longitude>13.37936352163247</longitude>
				<latitude>43.20302708399297</latitude>
				<altitude>0</altitude>
				<heading>2.507958332115017</heading>
				<tilt>0</tilt>
				<range>214.1076814160215</range>
				<gx:altitudeMode>relativeToSeaFloor</gx:altitudeMode>
			</LookAt>
			<styleUrl>#m_ylw-pushpin</styleUrl>
			<Point>
				<gx:drawOrder>1</gx:drawOrder>
				<coordinates>13.38016067061664,43.2042754161484,0</coordinates>
			</Point>
		</Placemark>
		<Placemark>
			<name>38</name>
			<description>Continua dritto;Continue straight</description>
			<LookAt>
				<longitude>13.37821271192649</longitude>
				<latitude>43.20116278455183</latitude>
				<altitude>0</altitude>
				<heading>2.507170528749345</heading>
				<tilt>0</tilt>
				<range>214.10768141624</range>
				<gx:altitudeMode>relativeToSeaFloor</gx:altitudeMode>
			</LookAt>
			<styleUrl>#m_ylw-pushpin</styleUrl>
			<Point>
				<gx:drawOrder>1</gx:drawOrder>
				<coordinates>13.37835418274315,43.20170891810614,0</coordinates>
			</Point>
		</Placemark>
		<Placemark>
			<name>39</name>
			<open>1</open>
			<description>Continua dritto;Continue straight</description>
			<LookAt>
				<longitude>13.3776841594943</longitude>
				<latitude>43.20022091841341</latitude>
				<altitude>0</altitude>
				<heading>2.506808706045271</heading>
				<tilt>0</tilt>
				<range>212.5275566644289</range>
				<gx:altitudeMode>relativeToSeaFloor</gx:altitudeMode>
			</LookAt>
			<styleUrl>#m_ylw-pushpin</styleUrl>
			<Point>
				<gx:drawOrder>1</gx:drawOrder>
				<coordinates>13.37801763187529,43.20096484310812,0</coordinates>
			</Point>
		</Placemark>
		<Placemark>
			<name>40</name>
			<description>Svolta a sinistra;Turn left</description>
			<LookAt>
				<longitude>13.37673206628381</longitude>
				<latitude>43.19814674874521</latitude>
				<altitude>0</altitude>
				<heading>2.506154992744792</heading>
				<tilt>3.316608401552609</tilt>
				<range>191.1169319466362</range>
				<gx:altitudeMode>relativeToSeaFloor</gx:altitudeMode>
			</LookAt>
			<styleUrl>#m_ylw-pushpin</styleUrl>
			<Point>
				<gx:drawOrder>1</gx:drawOrder>
				<coordinates>13.37654335549378,43.19806961311899,0</coordinates>
			</Point>
		</Placemark>
		<Placemark>
			<name>41</name>
			<description>Svolta a destra e procedi verso Via Innocenzo Petrini;Turn right and proceed towards Via Innocenzo Petrini</description>
			<LookAt>
				<longitude>13.37791291567102</longitude>
				<latitude>43.19780284599359</latitude>
				<altitude>0</altitude>
				<heading>2.506958458383046</heading>
				<tilt>8.123874865145845</tilt>
				<range>114.66078353052</range>
				<gx:altitudeMode>relativeToSeaFloor</gx:altitudeMode>
			</LookAt>
			<styleUrl>#m_ylw-pushpin</styleUrl>
			<Point>
				<gx:drawOrder>1</gx:drawOrder>
				<coordinates>13.37787747744709,43.19794559068209,0</coordinates>
			</Point>
		</Placemark>
		<Placemark>
			<name>42</name>
			<description>Continua su Corso Alessandro Giannelli;Continue on Corso Alessandro Giannelli</description>
			<LookAt>
				<longitude>13.37738748264438</longitude>
				<latitude>43.19750343460365</latitude>
				<altitude>0</altitude>
				<heading>2.506962428168117</heading>
				<tilt>14.30888746901864</tilt>
				<range>93.9298717284221</range>
				<gx:altitudeMode>relativeToSeaFloor</gx:altitudeMode>
			</LookAt>
			<styleUrl>#m_ylw-pushpin</styleUrl>
			<Point>
				<gx:drawOrder>1</gx:drawOrder>
				<coordinates>13.37770350653587,43.19766146059293,0</coordinates>
			</Point>
		</Placemark>
		<Placemark>
			<name>43</name>
			<description>Svolta a sinistra e prendi Piazza Giuseppe Garibaldi;Turn left and take Piazza Giuseppe Garibaldi</description>
			<LookAt>
				<longitude>13.37679483981874</longitude>
				<latitude>43.19622840352528</latitude>
				<altitude>0</altitude>
				<heading>2.506556765594123</heading>
				<tilt>14.30888746901859</tilt>
				<range>93.92987172690241</range>
				<gx:altitudeMode>relativeToSeaFloor</gx:altitudeMode>
			</LookAt>
			<styleUrl>#m_ylw-pushpin</styleUrl>
			<Point>
				<gx:drawOrder>1</gx:drawOrder>
				<coordinates>13.37677421055674,43.19642670160905,0</coordinates>
			</Point>
		</Placemark>
		<Placemark>
			<name>44</name>
			<description>Svolta a destra verso Via Roma;Turn right onto Via Roma</description>
			<LookAt>
				<longitude>13.37679483981874</longitude>
				<latitude>43.19622840352528</latitude>
				<altitude>0</altitude>
				<heading>2.506556765594123</heading>
				<tilt>14.30888746901859</tilt>
				<range>93.92987172690241</range>
				<gx:altitudeMode>relativeToSeaFloor</gx:altitudeMode>
			</LookAt>
			<styleUrl>#m_ylw-pushpin</styleUrl>
			<Point>
				<gx:drawOrder>1</gx:drawOrder>
				<coordinates>13.37696319894061,43.19623289456905,0</coordinates>
			</Point>
		</Placemark>
		<Placemark>
			<name>45</name>
			<description>Continua su Via Roma;Continue on Via Roma</description>
			<LookAt>
				<longitude>13.37679353686458</longitude>
				<latitude>43.19622950854983</latitude>
				<altitude>0</altitude>
				<heading>2.506555873720468</heading>
				<tilt>14.30888746901861</tilt>
				<range>93.92987172593709</range>
				<gx:altitudeMode>relativeToSeaFloor</gx:altitudeMode>
			</LookAt>
			<styleUrl>#m_ylw-pushpin</styleUrl>
			<Point>
				<gx:drawOrder>1</gx:drawOrder>
				<coordinates>13.3768248048711,43.19606703789754,0</coordinates>
			</Point>
		</Placemark>
		<Placemark>
			<name>46</name>
			<description>Svolta a destra e prendi Via Nuova/Strada Provinciale 43;Turn right and take Via Nuova/Provincial Road 43</description>
			<LookAt>
				<longitude>13.37670813110847</longitude>
				<latitude>43.19544381762928</latitude>
				<altitude>0</altitude>
				<heading>-2.346944972693135</heading>
				<tilt>0</tilt>
				<range>68.81709648345837</range>
				<gx:altitudeMode>relativeToSeaFloor</gx:altitudeMode>
			</LookAt>
			<styleUrl>#m_ylw-pushpin</styleUrl>
			<Point>
				<gx:drawOrder>1</gx:drawOrder>
				<coordinates>13.37671553742447,43.19537218544503,0</coordinates>
			</Point>
		</Placemark>
		<Placemark>
			<name>47</name>
			<description>Svolta a destra e prendi Via della Rocca/Strada Fonte Pecolle;Turn right and take Via della Rocca/Strada Fonte Pecolle</description>
			<LookAt>
				<longitude>13.37566291442201</longitude>
				<latitude>43.19552660977156</latitude>
				<altitude>0</altitude>
				<heading>-2.347660411084006</heading>
				<tilt>0</tilt>
				<range>68.81709648933679</range>
				<gx:altitudeMode>relativeToSeaFloor</gx:altitudeMode>
			</LookAt>
			<styleUrl>#m_ylw-pushpin</styleUrl>
			<Point>
				<gx:drawOrder>1</gx:drawOrder>
				<coordinates>13.3755296237863,43.19561336664762,0</coordinates>
			</Point>
		</Placemark>
		<atom:link rel="app" href="https://www.google.com/earth/about/versions/#earth-pro" title="Google Earth Pro 7.3.6.10441"></atom:link>
	</Folder>
</Document>
</kml>
