<?xml version="1.0" encoding="UTF-8"?>
<kml xmlns="http://www.opengis.net/kml/2.2" xmlns:gx="http://www.google.com/kml/ext/2.2" xmlns:kml="http://www.opengis.net/kml/2.2" xmlns:atom="http://www.w3.org/2005/Atom">
<Document>
	<name>Appignano_AR.kml</name>
	<StyleMap id="__managed_style_1B983113B4398730ED68">
		<Pair>
			<key>normal</key>
			<styleUrl>#failed130</styleUrl>
		</Pair>
		<Pair>
			<key>highlight</key>
			<styleUrl>#failed90</styleUrl>
		</Pair>
	</StyleMap>
	<Style id="failed130">
		<LineStyle>
			<color>ffff0000</color>
			<width>2</width>
		</LineStyle>
	</Style>
	<Style id="failed90">
		<LineStyle>
			<color>ffff0000</color>
			<width>2</width>
		</LineStyle>
	</Style>
	<StyleMap id="m_ylw-pushpin5">
		<Pair>
			<key>normal</key>
			<styleUrl>#s_ylw-pushpin021</styleUrl>
		</Pair>
		<Pair>
			<key>highlight</key>
			<styleUrl>#s_ylw-pushpin_hl2</styleUrl>
		</Pair>
	</StyleMap>
	<StyleMap id="m_ylw-pushpin60">
		<Pair>
			<key>normal</key>
			<styleUrl>#s_ylw-pushpin01</styleUrl>
		</Pair>
		<Pair>
			<key>highlight</key>
			<styleUrl>#s_ylw-pushpin_hl06</styleUrl>
		</Pair>
	</StyleMap>
	<StyleMap id="msn_grn-pushpin">
		<Pair>
			<key>normal</key>
			<styleUrl>#sn_grn-pushpin</styleUrl>
		</Pair>
		<Pair>
			<key>highlight</key>
			<styleUrl>#sh_grn-pushpin</styleUrl>
		</Pair>
	</StyleMap>
	<StyleMap id="msn_grn-pushpin0">
		<Pair>
			<key>normal</key>
			<styleUrl>#sn_grn-pushpin0</styleUrl>
		</Pair>
		<Pair>
			<key>highlight</key>
			<styleUrl>#sh_grn-pushpin0</styleUrl>
		</Pair>
	</StyleMap>
	<Style id="s_ylw-pushpin01">
		<IconStyle>
			<scale>1.1</scale>
			<Icon>
				<href>http://maps.google.com/mapfiles/kml/pushpin/red-pushpin.png</href>
			</Icon>
			<hotSpot x="20" y="2" xunits="pixels" yunits="pixels"/>
		</IconStyle>
	</Style>
	<Style id="s_ylw-pushpin021">
		<IconStyle>
			<scale>1.1</scale>
			<Icon>
				<href>http://maps.google.com/mapfiles/kml/pushpin/red-pushpin.png</href>
			</Icon>
			<hotSpot x="20" y="2" xunits="pixels" yunits="pixels"/>
		</IconStyle>
	</Style>
	<Style id="s_ylw-pushpin_hl06">
		<IconStyle>
			<scale>1.3</scale>
			<Icon>
				<href>http://maps.google.com/mapfiles/kml/pushpin/red-pushpin.png</href>
			</Icon>
			<hotSpot x="20" y="2" xunits="pixels" yunits="pixels"/>
		</IconStyle>
	</Style>
	<Style id="s_ylw-pushpin_hl2">
		<IconStyle>
			<scale>1.3</scale>
			<Icon>
				<href>http://maps.google.com/mapfiles/kml/pushpin/red-pushpin.png</href>
			</Icon>
			<hotSpot x="20" y="2" xunits="pixels" yunits="pixels"/>
		</IconStyle>
	</Style>
	<Style id="sh_grn-pushpin">
		<IconStyle>
			<scale>1.3</scale>
			<Icon>
				<href>http://maps.google.com/mapfiles/kml/pushpin/grn-pushpin.png</href>
			</Icon>
			<hotSpot x="20" y="2" xunits="pixels" yunits="pixels"/>
		</IconStyle>
		<BalloonStyle>
		</BalloonStyle>
		<ListStyle>
		</ListStyle>
	</Style>
	<Style id="sh_grn-pushpin0">
		<IconStyle>
			<scale>1.3</scale>
			<Icon>
				<href>http://maps.google.com/mapfiles/kml/pushpin/grn-pushpin.png</href>
			</Icon>
			<hotSpot x="20" y="2" xunits="pixels" yunits="pixels"/>
		</IconStyle>
		<BalloonStyle>
		</BalloonStyle>
		<ListStyle>
		</ListStyle>
	</Style>
	<Style id="sn_grn-pushpin">
		<IconStyle>
			<scale>1.1</scale>
			<Icon>
				<href>http://maps.google.com/mapfiles/kml/pushpin/grn-pushpin.png</href>
			</Icon>
			<hotSpot x="20" y="2" xunits="pixels" yunits="pixels"/>
		</IconStyle>
		<BalloonStyle>
		</BalloonStyle>
		<ListStyle>
		</ListStyle>
	</Style>
	<Style id="sn_grn-pushpin0">
		<IconStyle>
			<scale>1.1</scale>
			<Icon>
				<href>http://maps.google.com/mapfiles/kml/pushpin/grn-pushpin.png</href>
			</Icon>
			<hotSpot x="20" y="2" xunits="pixels" yunits="pixels"/>
		</IconStyle>
		<BalloonStyle>
		</BalloonStyle>
		<ListStyle>
		</ListStyle>
	</Style>
	<Folder>
		<name>Appignano_AR</name>
		<open>1</open>
		<Placemark id="5664DFEAEF000004">
			<name>AR</name>
			<styleUrl>#__managed_style_1B983113B4398730ED68</styleUrl>
			<LineString>
				<coordinates>
					13.34580414752133,43.36428912781837,192.251 13.34566422173039,43.36426236190712,192.251 13.34514891625926,43.36411190935559,192.201 13.34515006701169,43.36401325137572,193.211 13.34509468827628,43.36395251956332,193.211 13.344681,43.363915,191.109 13.344211,43.363877,191.197 13.343879,43.363868,188.357 13.343685,43.363908,187.867 13.34359404472951,43.36402647571897,187.661 13.34213975822461,43.36406077670249,190.078 13.34211101988464,43.36423707536323,192.631 13.341371,43.364426,192.635 13.34094,43.36443,210.943 13.340296,43.364026,187.939 13.339502,43.363421,205.481 13.339321,43.363323,205.461 13.339003,43.363236,205.417 13.338433,43.363182,205.409 13.33781398128666,43.36318018405452,205.38 13.3366602695688,43.36325778696543,205.38 13.33568713765003,43.36347387755286,194.17 13.334713,43.363247,197.65 13.33438,43.363253,197.674 13.33366499225116,43.36343771225953,197.681 13.33382661878946,43.36323327350986,197.681 13.33396701283291,43.36314662820753,197.681 13.3338138113847,43.36322594236553,197.681 13.33364215399648,43.36343297308577,197.681 13.333074,43.363192,200.024 13.33260340062665,43.36290848572354,203.678 13.33253661359523,43.36281358181197,204.346 13.33268040462693,43.36231480710218,201.952 13.33272170094594,43.36207409116381,201.952 13.33269591902562,43.3619723281826,201.952 13.33257323816814,43.36187630808163,201.952 13.33223374218564,43.36169004194785,201.952 13.33044130962282,43.36090475387913,201.952 13.32864321012085,43.36022186565093,212.122 13.32926671978681,43.35941028467971,212.162 13.3292484782108,43.35934187307858,212.162 13.32698899577681,43.35712387360345,212.162 13.326719,43.356899,221.008 13.32529950350622,43.35611066922957,225.009 13.32535319323694,43.35599136624704,225.009 13.32569,43.35574,224.744 13.32604046134764,43.35556393403939,224.284 13.32624203439126,43.35537375802766,224.284 13.32781,43.35339,239.314 13.3285,43.35222,235.668 13.32851,43.35214,235.375 13.32843138461883,43.35209072541536,235.088 13.32784,43.35199,234.122 13.32698,43.35184,234.24 13.32435,43.3514,234.016 13.3208,43.3514,229.431 13.31853,43.351,231.561 13.31727,43.35076,233.307 13.31372,43.35013,235.809 13.31355,43.35008,235.655 13.3128341190679,43.34979868913945,234.445 13.31274913183185,43.3498206330973,234.955 13.31251,43.35031,240.649 13.31243,43.35043,242.196 13.31223582696548,43.35045933574062,242.579 13.31059149034047,43.35018466917086,242.579 13.30909,43.34998,249.683 13.30682,43.34971,249.121 13.3066,43.3497,249.097 13.30646,43.35022,253.884 13.30609,43.35135,256.007 13.30543,43.35351,254.917 13.30529850260417,43.3540016488682,254.509 13.30533350647239,43.3543371938329,254.27 13.30508234501838,43.35470243588528,254.04 13.30496873135018,43.35499439414474,253.06 13.3048541589745,43.35542314147902,252.334 13.30482,43.35566,252.061 13.30446,43.3571,250.874 13.30444,43.35721,249.768 13.30444,43.3573,249.686 13.30454,43.35761,248.322 13.30483,43.35817,245.989 13.30501,43.35847,244.506 13.30518,43.3587,243.526 13.30522,43.35887,242.809 13.30508,43.35954,240.01 13.30513458879033,43.35973343681576,239.26 13.30508595466528,43.35983512790609,239.06 13.30498,43.35998,239.064 13.3047322851367,43.36035491632769,239.551 13.30468565681049,43.36047472538817,239.784 13.30476097319321,43.36065568148391,239.998 13.30487617718663,43.36085046376148,240.266 13.3049,43.36098,240.392 13.30486,43.36107,240.445 13.30467,43.36126,240.747 13.30422,43.36167,241.311 13.30396,43.36196,241.809 13.3039,43.36207,241.926 13.30391,43.36216,241.936 13.304,43.36223,241.736 13.3052,43.3629,239.07 13.30577613865608,43.36334486421543,237.377 13.30592,43.36349,237.23 13.30598651027888,43.36366225723368,236.724 13.3060090014566,43.36371146078652,236.672 13.30603,43.36373,236.458 13.30682,43.36415,233.861 13.30760076995435,43.36446219533847,231.521 13.30796,43.36418,234.313 13.30939,43.36285,227.809 13.30950648749035,43.36275897312082,227.228 13.30966594291145,43.36273562335052,227.228 13.30986952852222,43.36277784068887,225.618 13.31003,43.36285,224.838 13.31022,43.36303,225.822 13.31031,43.36311,225.519 13.31043,43.3633,225.172 13.31054,43.36337,224.986 13.310705536909,43.36335474611595,224.814 13.31082325156219,43.36327374825125,225.99 13.31088,43.36312,227.238 13.31104,43.36278,230.37 13.3112,43.36254,232.617 13.3124986092297,43.36003470035689,235.709 13.3126,43.35992,235.765 13.31264,43.3599,235.745 13.31277150775053,43.35988082071079,235.655 13.31514855904646,43.36040284088891,232.699 13.31586,43.36059,229.656 13.31739083083043,43.36096954835478,227.959 13.31821569788487,43.36101407468589,227.283 13.31955361565892,43.36113161712478,225.931 13.32084,43.36122,224.547 13.32115,43.36126,224.192 13.32163,43.36132,223.773 13.3220901828451,43.36138188883423,223.109 13.32259,43.36147,222.171 13.32311077334978,43.36160673726537,221.151 13.3234692994666,43.36174592294296,221.151 13.32366034666498,43.3618734234418,219.971 13.32407,43.36214,218.975 13.32439,43.36227,218.282 13.32469602906682,43.36232492009646,217.525 13.32538428913654,43.36233982895246,217.525 13.32560472806195,43.36236957354055,217.525 13.32757240495267,43.36249897820615,217.525 13.32844125996769,43.36257649927049,205.979 13.32876539516591,43.36264652812883,205.979 13.32961621072258,43.36292143989024,205.979 13.33149394294069,43.36334573815159,204.537 13.332103952969,43.36343530164098,204.537 13.332514,43.363395,201.843 13.33313614602123,43.3635092904019,200.098 13.33352362406149,43.3636184340284,197.115 13.33360624601475,43.36370925981281,197.115 13.33361917229607,43.36392769471719,197.115 13.33356788961717,43.36410089046766,197.115 13.33346390399615,43.36428303140772,197.115 13.3333178432924,43.36437722373515,197.115 13.33308548953263,43.36440217585998,197.115 13.33283252285141,43.36435655829017,197.115 13.33260949837302,43.36432128711758,197.115 13.33248808960604,43.3643522353694,197.115 13.33237869549997,43.36441813000081,197.115 13.33231923296122,43.36450612074342,197.115 13.332282,43.364669,193.809 13.33257,43.36503,196.451 13.33287784274473,43.36519853512416,200.161 13.33336311226709,43.36540279723753,205.251 13.33357672003079,43.36554624345209,207.835 13.33424278445085,43.36623381211511,208.862 13.33428721879207,43.36628870117562,209.785 13.33562,43.36533,203.539 13.33579,43.36526,202.947 13.33614,43.36521,202.743 13.33653,43.3652,202.414 13.33715,43.36528,202.054 13.33747,43.36523,200.709 13.33805,43.36503,197.109 13.33836549754774,43.36500912056263,195.373 13.33886925850369,43.36505641746192,195.373 13.33935535681541,43.36516797548593,189.593 13.3398434288473,43.36528725878289,189.593 13.34029509426125,43.36533522722628,186.243 13.34081255245728,43.36529599024578,184.947 13.34186,43.36512,182.184 13.34194,43.3651,182.227 13.34209,43.36507,182.561 13.34241,43.36498,183.159 13.34283415740127,43.36475666832619,184.395 13.3429899622607,43.36467459292919,184.931 13.34322,43.36453,185.561 13.34335,43.36442,185.907 13.34341,43.36434,186.309 13.34352608467663,43.36408369656624,187.155 13.34355198157409,43.36400468027272,187.489 13.3436143647162,43.36389972812314,187.776 13.34374978635513,43.36386061638029,188.029 13.3439847099269,43.36383625556566,188.733 13.3451212676252,43.36389976919583,193.631 13.34519069499969,43.36390653157209,193.631 13.3451713025306,43.36410306158211,192.817 13.34572,43.36424,191.659 13.34585736325834,43.36425115485765,192.203 
				</coordinates>
			</LineString>
		</Placemark>
		<Placemark>
			<name>(t)1</name>
			<description>Tappa 1 - Porta Garibaldi;Stage 1 - Porta Garibaldi</description>
			<LookAt>
				<longitude>13.34549035027318</longitude>
				<latitude>43.36437439949457</latitude>
				<altitude>0</altitude>
				<heading>-2.408199022689913</heading>
				<tilt>26.4771336927344</tilt>
				<range>228.6030524372035</range>
				<gx:altitudeMode>relativeToSeaFloor</gx:altitudeMode>
			</LookAt>
			<styleUrl>#msn_grn-pushpin0</styleUrl>
			<Point>
				<gx:drawOrder>1</gx:drawOrder>
				<coordinates>13.34578099683488,43.36431673606485,0</coordinates>
			</Point>
		</Placemark>
		<Placemark>
			<name>1</name>
			<open>1</open>
			<description>Procedi in direzione sudovest su Via del Monocchia;Proceed southwest on Via del Monocchia</description>
			<LookAt>
				<longitude>13.34506941847688</longitude>
				<latitude>43.36405785555748</latitude>
				<altitude>0</altitude>
				<heading>0.03425715234845841</heading>
				<tilt>18.12093241990208</tilt>
				<range>203.9058814415468</range>
				<gx:altitudeMode>relativeToSeaFloor</gx:altitudeMode>
			</LookAt>
			<styleUrl>#m_ylw-pushpin60</styleUrl>
			<Point>
				<gx:drawOrder>1</gx:drawOrder>
				<coordinates>13.34565442394497,43.36428051190224,0</coordinates>
			</Point>
		</Placemark>
		<Placemark>
			<name>2</name>
			<description>Gira a Sinistra e continua su Contrada S. Lucia;Turn left and continue on Contrada S. Lucia</description>
			<LookAt>
				<longitude>13.34324590409067</longitude>
				<latitude>43.36376326632757</latitude>
				<altitude>0</altitude>
				<heading>0.7955745997385315</heading>
				<tilt>0</tilt>
				<range>268.0220719307015</range>
				<gx:altitudeMode>relativeToSeaFloor</gx:altitudeMode>
			</LookAt>
			<styleUrl>#m_ylw-pushpin5</styleUrl>
			<Point>
				<gx:drawOrder>1</gx:drawOrder>
				<coordinates>13.3436197628773,43.3640195603581,0</coordinates>
			</Point>
		</Placemark>
		<Placemark>
			<name>3</name>
			<description>Gira a destra e imbocca il sentiero;Turn right and take the path</description>
			<LookAt>
				<longitude>13.34216465496166</longitude>
				<latitude>43.36428208568367</latitude>
				<altitude>0</altitude>
				<heading>-0.2906882630028539</heading>
				<tilt>52.72381974830054</tilt>
				<range>87.91179823432968</range>
				<gx:altitudeMode>relativeToSeaFloor</gx:altitudeMode>
			</LookAt>
			<styleUrl>#m_ylw-pushpin5</styleUrl>
			<Point>
				<gx:drawOrder>1</gx:drawOrder>
				<coordinates>13.34215894324518,43.36406671384496,0</coordinates>
			</Point>
		</Placemark>
		<Placemark>
			<name>(t)2</name>
			<open>1</open>
			<description>Tappa 2 - Inizio sentiero del Coppo;Stage 2 - Inizio sentiero del Coppo</description>
			<LookAt>
				<longitude>13.34197909668925</longitude>
				<latitude>43.36432211985269</latitude>
				<altitude>0</altitude>
				<heading>0.03213490715750421</heading>
				<tilt>18.12138487800111</tilt>
				<range>365.901056117621</range>
				<gx:altitudeMode>relativeToSeaFloor</gx:altitudeMode>
			</LookAt>
			<styleUrl>#msn_grn-pushpin0</styleUrl>
			<Point>
				<gx:drawOrder>1</gx:drawOrder>
				<coordinates>13.34214166666667,43.36424722222223,0</coordinates>
			</Point>
		</Placemark>
		<Placemark>
			<name>4</name>
			<description>Tieni la destra;Keep right</description>
			<LookAt>
				<longitude>13.33655040879026</longitude>
				<latitude>43.36264432553774</latitude>
				<altitude>0</altitude>
				<heading>4.571370408447716</heading>
				<tilt>10.09885272570249</tilt>
				<range>229.8589960885328</range>
				<gx:altitudeMode>relativeToSeaFloor</gx:altitudeMode>
			</LookAt>
			<styleUrl>#m_ylw-pushpin5</styleUrl>
			<Point>
				<gx:drawOrder>1</gx:drawOrder>
				<coordinates>13.3367065325997,43.36327622038287,0</coordinates>
			</Point>
		</Placemark>
		<Placemark>
			<name>5</name>
			<description>Gira a sinistra per Sorgente del Coppo e area relax, altrimenti prosegui dritto;Turn left towards Sorgente del Coppo and the relaxation area, otherwise continue straight on</description>
			<LookAt>
				<longitude>13.33354443175621</longitude>
				<latitude>43.36292572442854</latitude>
				<altitude>0</altitude>
				<heading>4.569306452814037</heading>
				<tilt>10.09885272570241</tilt>
				<range>229.8589960889071</range>
				<gx:altitudeMode>relativeToSeaFloor</gx:altitudeMode>
			</LookAt>
			<styleUrl>#m_ylw-pushpin5</styleUrl>
			<Point>
				<gx:drawOrder>1</gx:drawOrder>
				<coordinates>13.33371970055525,43.36346201845279,0</coordinates>
			</Point>
		</Placemark>
		<Placemark>
			<name>(t)3</name>
			<open>1</open>
			<description>Tappa 3 - Fonte del Coppo;Stage 3 - Fonte del Coppo</description>
			<LookAt>
				<longitude>13.33396221096856</longitude>
				<latitude>43.36338038966599</latitude>
				<altitude>0</altitude>
				<heading>0.01173096575994693</heading>
				<tilt>30.00098644161049</tilt>
				<range>220.0826337881106</range>
				<gx:altitudeMode>relativeToSeaFloor</gx:altitudeMode>
			</LookAt>
			<styleUrl>#msn_grn-pushpin</styleUrl>
			<Point>
				<gx:drawOrder>1</gx:drawOrder>
				<coordinates>13.33396666666667,43.36316666666666,0</coordinates>
			</Point>
		</Placemark>
		<Placemark>
			<name>6</name>
			<description>Tieni la desrtra;Keep right</description>
			<LookAt>
				<longitude>13.33304315242017</longitude>
				<latitude>43.36221085202268</latitude>
				<altitude>0</altitude>
				<heading>4.568962265691437</heading>
				<tilt>10.09885272570238</tilt>
				<range>229.8589960882042</range>
				<gx:altitudeMode>relativeToSeaFloor</gx:altitudeMode>
			</LookAt>
			<styleUrl>#m_ylw-pushpin5</styleUrl>
			<Point>
				<gx:drawOrder>1</gx:drawOrder>
				<coordinates>13.33267222222222,43.36206944444444,0</coordinates>
			</Point>
		</Placemark>
		<Placemark>
			<name>7</name>
			<description>Gira a sinistra;Turn left</description>
			<LookAt>
				<longitude>13.32815085342122</longitude>
				<latitude>43.35939429458519</latitude>
				<altitude>0</altitude>
				<heading>4.56560327619018</heading>
				<tilt>10.09885272570249</tilt>
				<range>229.8589960875478</range>
				<gx:altitudeMode>relativeToSeaFloor</gx:altitudeMode>
			</LookAt>
			<styleUrl>#m_ylw-pushpin5</styleUrl>
			<Point>
				<gx:drawOrder>1</gx:drawOrder>
				<coordinates>13.32868192900149,43.36026636711647,0</coordinates>
			</Point>
		</Placemark>
		<Placemark>
			<name>8</name>
			<description>Gira a sinistra;Turn left</description>
			<LookAt>
				<longitude>13.3254101432413</longitude>
				<latitude>43.35592733923442</latitude>
				<altitude>0</altitude>
				<heading>4.563750377724623</heading>
				<tilt>14.38356946878411</tilt>
				<range>156.0702213300735</range>
				<gx:altitudeMode>relativeToSeaFloor</gx:altitudeMode>
			</LookAt>
			<styleUrl>#m_ylw-pushpin5</styleUrl>
			<Point>
				<gx:drawOrder>1</gx:drawOrder>
				<coordinates>13.32531488123965,43.35614497009367,0</coordinates>
			</Point>
		</Placemark>
		<Placemark>
			<name>9</name>
			<description>Gira a destra;Turn right</description>
			<LookAt>
				<longitude>13.3277698556153</longitude>
				<latitude>43.35292125476164</latitude>
				<altitude>0</altitude>
				<heading>4.565427945652658</heading>
				<tilt>20.32594612330004</tilt>
				<range>371.3400629502771</range>
				<gx:altitudeMode>relativeToSeaFloor</gx:altitudeMode>
			</LookAt>
			<styleUrl>#m_ylw-pushpin5</styleUrl>
			<Point>
				<gx:drawOrder>1</gx:drawOrder>
				<coordinates>13.32844920041733,43.35218365017752,0</coordinates>
			</Point>
		</Placemark>
		<Placemark>
			<name>10</name>
			<description>Gira a destra;Turn right</description>
			<LookAt>
				<longitude>13.31443142112827</longitude>
				<latitude>43.35027062171193</latitude>
				<altitude>0</altitude>
				<heading>4.556268650638539</heading>
				<tilt>20.32737584716928</tilt>
				<range>589.0014323011459</range>
				<gx:altitudeMode>relativeToSeaFloor</gx:altitudeMode>
			</LookAt>
			<styleUrl>#m_ylw-pushpin5</styleUrl>
			<Point>
				<gx:drawOrder>1</gx:drawOrder>
				<coordinates>13.31289712525059,43.34985502213487,0</coordinates>
			</Point>
		</Placemark>
		<Placemark>
			<name>11</name>
			<description>Tieni li sinistra;Keep left</description>
			<LookAt>
				<longitude>13.31443142112827</longitude>
				<latitude>43.35027062171193</latitude>
				<altitude>0</altitude>
				<heading>4.556268650638539</heading>
				<tilt>20.32737584716928</tilt>
				<range>589.0014323011459</range>
				<gx:altitudeMode>relativeToSeaFloor</gx:altitudeMode>
			</LookAt>
			<styleUrl>#m_ylw-pushpin5</styleUrl>
			<Point>
				<gx:drawOrder>1</gx:drawOrder>
				<coordinates>13.3124261119233,43.35037082918041,0</coordinates>
			</Point>
		</Placemark>
		<Placemark>
			<name>12</name>
			<description>All&apos;incrocio gira a destra;At the crossroads turn right</description>
			<LookAt>
				<longitude>13.30927156178942</longitude>
				<latitude>43.3506590012957</latitude>
				<altitude>0</altitude>
				<heading>4.55272628973203</heading>
				<tilt>20.32799056924884</tilt>
				<range>785.9483705549626</range>
				<gx:altitudeMode>relativeToSeaFloor</gx:altitudeMode>
			</LookAt>
			<styleUrl>#m_ylw-pushpin5</styleUrl>
			<Point>
				<gx:drawOrder>1</gx:drawOrder>
				<coordinates>13.30674444444445,43.34974166666667,0</coordinates>
			</Point>
		</Placemark>
		<Placemark>
			<name>13</name>
			<description>Continua dritto;Continue straight</description>
			<LookAt>
				<longitude>13.30506348484649</longitude>
				<latitude>43.35679887237826</latitude>
				<altitude>0</altitude>
				<heading>4.549841987244235</heading>
				<tilt>22.34557300641253</tilt>
				<range>372.1159442073773</range>
				<gx:altitudeMode>relativeToSeaFloor</gx:altitudeMode>
			</LookAt>
			<styleUrl>#m_ylw-pushpin5</styleUrl>
			<Point>
				<gx:drawOrder>1</gx:drawOrder>
				<coordinates>13.30450231679113,43.35709528581162,0</coordinates>
			</Point>
		</Placemark>
		<Placemark>
			<name>14</name>
			<description>Gira a destra;Turn right</description>
			<LookAt>
				<longitude>13.30522550465736</longitude>
				<latitude>43.361510757473</latitude>
				<altitude>0</altitude>
				<heading>4.549953170339833</heading>
				<tilt>22.34557300641253</tilt>
				<range>372.1159442081812</range>
				<gx:altitudeMode>relativeToSeaFloor</gx:altitudeMode>
			</LookAt>
			<styleUrl>#m_ylw-pushpin5</styleUrl>
			<Point>
				<gx:drawOrder>1</gx:drawOrder>
				<coordinates>13.30396374630146,43.36204774005308,0</coordinates>
			</Point>
		</Placemark>
		<Placemark>
			<name>15</name>
			<description>Tieni la destra;Keep right</description>
			<LookAt>
				<longitude>13.30589947635963</longitude>
				<latitude>43.362187300263</latitude>
				<altitude>0</altitude>
				<heading>4.550415915857959</heading>
				<tilt>22.34557300641256</tilt>
				<range>372.1159442040847</range>
				<gx:altitudeMode>relativeToSeaFloor</gx:altitudeMode>
			</LookAt>
			<styleUrl>#m_ylw-pushpin5</styleUrl>
			<Point>
				<gx:drawOrder>1</gx:drawOrder>
				<coordinates>13.30605709671254,43.36359937228157,0</coordinates>
			</Point>
		</Placemark>
		<Placemark>
			<name>16</name>
			<description>Gira a destra;Turn right</description>
			<LookAt>
				<longitude>13.30721588699307</longitude>
				<latitude>43.36339362589328</latitude>
				<altitude>0</altitude>
				<heading>4.551319774053502</heading>
				<tilt>22.34557300641259</tilt>
				<range>372.1159442052253</range>
				<gx:altitudeMode>relativeToSeaFloor</gx:altitudeMode>
			</LookAt>
			<styleUrl>#m_ylw-pushpin5</styleUrl>
			<Point>
				<gx:drawOrder>1</gx:drawOrder>
				<coordinates>13.30753319317292,43.36440307262607,0</coordinates>
			</Point>
		</Placemark>
		<Placemark>
			<name>17</name>
			<description>Tieni la sinistra;Keep left</description>
			<LookAt>
				<longitude>13.31210315534806</longitude>
				<latitude>43.36043946333362</latitude>
				<altitude>0</altitude>
				<heading>4.554699530427537</heading>
				<tilt>25.13003349392928</tilt>
				<range>205.8773697438571</range>
				<gx:altitudeMode>relativeToSeaFloor</gx:altitudeMode>
			</LookAt>
			<styleUrl>#m_ylw-pushpin5</styleUrl>
			<Point>
				<gx:drawOrder>1</gx:drawOrder>
				<coordinates>13.3126347356946,43.35993083159869,0</coordinates>
			</Point>
		</Placemark>
		<Placemark>
			<name>18</name>
			<description>Continua dritto;Continue straight</description>
			<LookAt>
				<longitude>13.3209227739351</longitude>
				<latitude>43.36150344850185</latitude>
				<altitude>0</altitude>
				<heading>4.560825451596611</heading>
				<tilt>28.12604949572048</tilt>
				<range>321.7737917516097</range>
				<gx:altitudeMode>relativeToSeaFloor</gx:altitudeMode>
			</LookAt>
			<styleUrl>#m_ylw-pushpin5</styleUrl>
			<Point>
				<gx:drawOrder>1</gx:drawOrder>
				<coordinates>13.32165220491301,43.36134977779928,0</coordinates>
			</Point>
		</Placemark>
		<Placemark>
			<name>19</name>
			<description>Gira a destra;Turn right</description>
			<LookAt>
				<longitude>13.33378366281458</longitude>
				<latitude>43.3648539665815</latitude>
				<altitude>0</altitude>
				<heading>4.569655993483323</heading>
				<tilt>27.8914587239071</tilt>
				<range>320.0914893411543</range>
				<gx:altitudeMode>relativeToSeaFloor</gx:altitudeMode>
			</LookAt>
			<styleUrl>#m_ylw-pushpin5</styleUrl>
			<Point>
				<gx:drawOrder>1</gx:drawOrder>
				<coordinates>13.33419372476759,43.36624905146031,0</coordinates>
			</Point>
		</Placemark>
		<Placemark>
			<name>20</name>
			<description>Tieni la sinistra;Keep left</description>
			<LookAt>
				<longitude>13.34381269620739</longitude>
				<latitude>43.36412297420419</latitude>
				<altitude>0</altitude>
				<heading>4.576542410573359</heading>
				<tilt>27.89145872390703</tilt>
				<range>320.0914893377135</range>
				<gx:altitudeMode>relativeToSeaFloor</gx:altitudeMode>
			</LookAt>
			<styleUrl>#m_ylw-pushpin5</styleUrl>
			<Point>
				<gx:drawOrder>1</gx:drawOrder>
				<coordinates>13.34359045849472,43.36388282137646,0</coordinates>
			</Point>
		</Placemark>
		<Placemark>
			<name>21</name>
			<description>Gira a sinistra;Turn left</description>
			<LookAt>
				<longitude>13.34479719248391</longitude>
				<latitude>43.36409921633928</latitude>
				<altitude>0</altitude>
				<heading>4.577219401629395</heading>
				<tilt>28.04281291352934</tilt>
				<range>143.5686221045583</range>
				<gx:altitudeMode>relativeToSeaFloor</gx:altitudeMode>
			</LookAt>
			<styleUrl>#m_ylw-pushpin5</styleUrl>
			<Point>
				<gx:drawOrder>1</gx:drawOrder>
				<coordinates>13.34517337304634,43.36388531699821,0</coordinates>
			</Point>
		</Placemark>
		<atom:link rel="app" href="https://www.google.com/earth/about/versions/#earth-pro" title="Google Earth Pro 7.3.6.10441"></atom:link>
	</Folder>
</Document>
</kml>
