<?xml version="1.0" encoding="UTF-8"?>
<kml xmlns="http://www.opengis.net/kml/2.2" xmlns:gx="http://www.google.com/kml/ext/2.2" xmlns:kml="http://www.opengis.net/kml/2.2" xmlns:atom="http://www.w3.org/2005/Atom">
<Document>
	<name>Camerino_AR.kml</name>
	<StyleMap id="m_ylw-pushpin5">
		<Pair>
			<key>normal</key>
			<styleUrl>#s_ylw-pushpin021</styleUrl>
		</Pair>
		<Pair>
			<key>highlight</key>
			<styleUrl>#s_ylw-pushpin_hl2</styleUrl>
		</Pair>
	</StyleMap>
	<StyleMap id="msn_grn-pushpin">
		<Pair>
			<key>normal</key>
			<styleUrl>#sn_grn-pushpin</styleUrl>
		</Pair>
		<Pair>
			<key>highlight</key>
			<styleUrl>#sh_grn-pushpin</styleUrl>
		</Pair>
	</StyleMap>
	<StyleMap id="msn_red-pushpin">
		<Pair>
			<key>normal</key>
			<styleUrl>#sn_red-pushpin0</styleUrl>
		</Pair>
		<Pair>
			<key>highlight</key>
			<styleUrl>#sh_red-pushpin</styleUrl>
		</Pair>
	</StyleMap>
	<StyleMap id="msn_ylw-pushpin0">
		<Pair>
			<key>normal</key>
			<styleUrl>#sn_ylw-pushpin0</styleUrl>
		</Pair>
		<Pair>
			<key>highlight</key>
			<styleUrl>#sh_ylw-pushpin5</styleUrl>
		</Pair>
	</StyleMap>
	<Style id="s_ylw-pushpin021">
		<IconStyle>
			<scale>1.1</scale>
			<Icon>
				<href>http://maps.google.com/mapfiles/kml/pushpin/red-pushpin.png</href>
			</Icon>
			<hotSpot x="20" y="2" xunits="pixels" yunits="pixels"/>
		</IconStyle>
	</Style>
	<Style id="s_ylw-pushpin_hl2">
		<IconStyle>
			<scale>1.3</scale>
			<Icon>
				<href>http://maps.google.com/mapfiles/kml/pushpin/red-pushpin.png</href>
			</Icon>
			<hotSpot x="20" y="2" xunits="pixels" yunits="pixels"/>
		</IconStyle>
	</Style>
	<Style id="sh_grn-pushpin">
		<IconStyle>
			<scale>1.3</scale>
			<Icon>
				<href>http://maps.google.com/mapfiles/kml/pushpin/grn-pushpin.png</href>
			</Icon>
			<hotSpot x="20" y="2" xunits="pixels" yunits="pixels"/>
		</IconStyle>
		<BalloonStyle>
		</BalloonStyle>
		<ListStyle>
		</ListStyle>
	</Style>
	<Style id="sh_red-pushpin">
		<IconStyle>
			<scale>1.3</scale>
			<Icon>
				<href>http://maps.google.com/mapfiles/kml/pushpin/red-pushpin.png</href>
			</Icon>
			<hotSpot x="20" y="2" xunits="pixels" yunits="pixels"/>
		</IconStyle>
	</Style>
	<Style id="sh_ylw-pushpin5">
		<IconStyle>
			<scale>1.3</scale>
			<Icon>
				<href>http://maps.google.com/mapfiles/kml/pushpin/ylw-pushpin.png</href>
			</Icon>
			<hotSpot x="20" y="2" xunits="pixels" yunits="pixels"/>
		</IconStyle>
		<LineStyle>
			<color>ffff1c00</color>
			<width>2</width>
		</LineStyle>
	</Style>
	<Style id="sn_grn-pushpin">
		<IconStyle>
			<scale>1.1</scale>
			<Icon>
				<href>http://maps.google.com/mapfiles/kml/pushpin/grn-pushpin.png</href>
			</Icon>
			<hotSpot x="20" y="2" xunits="pixels" yunits="pixels"/>
		</IconStyle>
		<BalloonStyle>
		</BalloonStyle>
		<ListStyle>
		</ListStyle>
	</Style>
	<Style id="sn_red-pushpin0">
		<IconStyle>
			<scale>1.1</scale>
			<Icon>
				<href>http://maps.google.com/mapfiles/kml/pushpin/red-pushpin.png</href>
			</Icon>
			<hotSpot x="20" y="2" xunits="pixels" yunits="pixels"/>
		</IconStyle>
	</Style>
	<Style id="sn_ylw-pushpin0">
		<IconStyle>
			<scale>1.1</scale>
			<Icon>
				<href>http://maps.google.com/mapfiles/kml/pushpin/ylw-pushpin.png</href>
			</Icon>
			<hotSpot x="20" y="2" xunits="pixels" yunits="pixels"/>
		</IconStyle>
		<LineStyle>
			<color>ffff1c00</color>
			<width>2</width>
		</LineStyle>
	</Style>
	<Folder>
		<name>Camerino_AR</name>
		<open>1</open>
		<Placemark>
			<name>AR</name>
			<styleUrl>#msn_ylw-pushpin0</styleUrl>
			<LineString>
				<tessellate>1</tessellate>
				<coordinates>
					13.06716319955289,43.14307755768258,0 13.0673389329727,43.14288087563672,0 13.06748466941453,43.14268367781833,0 13.06760709664625,43.14255388231557,0 13.06771683008952,43.14244540422744,0 13.06791450172336,43.14223616870442,0 13.06812291773701,43.14200162952653,0 13.06832948191573,43.14162680380253,0 13.06963060293578,43.14014117331697,0 13.07018760193472,43.13951999921386,0 13.07033783285268,43.13932630967808,0 13.07071721527518,43.13885877670577,0 13.07089241486208,43.13855268929971,0 13.0710046455045,43.13825878195156,0 13.07106230795264,43.13801820447523,0 13.07120540675055,43.13782820324694,0 13.07120092217124,43.13773603742418,0 13.07118530487838,43.13769611939522,0 13.07115241392244,43.13764535155957,0 13.07108652966603,43.13757268770661,0 13.07103161804476,43.13752780511864,0 13.07091705054613,43.13744190688504,0 13.07075626149344,43.1373525316164,0 13.07066489752803,43.13729943078601,0 13.07057975816399,43.13729512743248,0 13.07043628834449,43.13730511396499,0 13.07032202298981,43.1373212663911,0 13.07012751406542,43.1373437561815,0 13.06989650934319,43.13736186568699,0 13.06973483718249,43.13738519087573,0 13.06959263007978,43.13741114768337,0 13.06947350775543,43.13742996906515,0 13.06937678627888,43.13743311030228,0 13.06923072517389,43.13738896731216,0 13.06914056040662,43.13732965130777,0 13.06906729665491,43.13722771349871,0 13.06899155954897,43.13711158110399,0 13.06890117539449,43.13697683607252,0 13.06882791263349,43.13687489841514,0 13.06881312284128,43.13680747866765,0 13.06881654833571,43.13673115657506,0 13.06885883899554,43.13663791339165,0 13.06889997046063,43.13656419488542,0 13.06895935587688,43.13649488497133,0 13.0690223997532,43.1364291189389,0 13.06908668035228,43.13637045013667,0 13.06912669134011,43.1363295671984,0 13.06908756707112,43.13625774823031,0 13.0690174175546,43.13620107732882,0 13.06891256890948,43.13610983775086,0 13.06874805069686,43.13599029387378,0 13.06859571962929,43.13587960480757,0 13.06841777944374,43.13574410778823,0 13.0683036869138,43.13572544013115,0 13.0681727738888,43.13565717888969,0 13.06770359802695,43.13531625254495,0 13.06717857427692,43.13500380837126,0 13.06681786040976,43.13465130705612,0 13.06663735251064,43.13446611681878,0 13.06656806173222,43.13447420980906,0 13.06649622124628,43.13444148605586,0 13.06644509425304,43.13442292896804,0 13.066385644103,43.13447005255478,0 13.06632248449391,43.13449588409465,0 13.06629943858625,43.13451632971322,0 13.06621662316933,43.13447297371896,0 13.06606444656931,43.13438892863361,0 13.06590242408662,43.13428801234502,0 13.06570974708253,43.13409840224091,0 13.06550474422176,43.13391019276217,0 13.06542899270538,43.13378518428851,0 13.06533122879074,43.13361672648639,0 13.06519212855637,43.13345099364123,0 13.06489680734868,43.13302479791883,0 13.06478066292446,43.13272870611924,0 13.06471300308323,43.13259899661338,0 13.06395612415362,43.13194097988027,0 13.06381203698009,43.13180658014831,0 13.06357282756355,43.1315875042178,0 13.06354984121127,43.13149440732072,0 13.06347618530693,43.1314178087512,0 13.06331864912895,43.13141370108652,0 13.06310742897884,43.13143898357667,0 13.06301324038268,43.13143142120331,0 13.06285061220337,43.13142563558412,0 13.06277890128283,43.13140587683476,0 13.06263032983473,43.13151484498602,0 13.06257494585053,43.13160873091114,0 13.06256226615374,43.13159054007171,0 13.06261135527375,43.13150670345783,0 13.06277864065431,43.13138933410764,0 13.06285482530984,43.13140773202976,0 13.06300892610298,43.13142058491936,0 13.06310760722556,43.13142267417148,0 13.0633211540249,43.13140077835286,0 13.06348529145211,43.1314028171529,0 13.06361142223533,43.13143864396347,0 13.06389650684235,43.13115859270339,0 13.0640659425897,43.13093052818376,0 13.06437025004154,43.13072478602362,0 13.06470017426656,43.13076506419857,0 13.06479837523981,43.13070667954499,0 13.06475995357568,43.13067116070233,0 13.06465900080826,43.13064777282918,0 13.06426693026241,43.13052334120785,0 13.06391791694114,43.13039932759253,0 13.06394950215389,43.13033830311588,0 13.06474132118575,43.13053181112925,0 13.06501739334055,43.13067112253157,0 13.06507879487352,43.13076948561727,0 13.06492994968277,43.13109540698779,0 13.06491548676763,43.13117479108838,0 13.06494933309859,43.13129374070746,0 13.06591335375421,43.13222357529924,0 13.06698174537116,43.13304339000184,0 13.0671146811626,43.13309459685547,0 13.0671718198758,43.13309985772209,0 13.06720934886476,43.13304723636576,0 13.0671596227632,43.13292992090924,0 13.06710862475281,43.1328740281032,0 13.06717881000585,43.13282781293552,0 13.06724718469097,43.13288657584643,0 13.06728144689952,43.13301094080787,0 13.0672975115794,43.13312607525334,0 13.0673207716933,43.13317278685554,0 13.06732535965507,43.13321049586732,0 13.0675662699981,43.13343844268824,0 13.06808906788847,43.1338015943872,0 13.06878790831098,43.13418482488199,0 13.06901526719563,43.13436973904436,0 13.06911459620565,43.13446980748827,0 13.06921494737511,43.1346252101725,0 13.06924182188506,43.13466577010114,0 13.06916293973207,43.13471420574929,0 13.06914845252534,43.13477227475878,0 13.06917337655242,43.13484596307664,0 13.06925236357838,43.13510971272209,0 13.06942187949093,43.13533005639359,0 13.06971981219206,43.13562441616306,0 13.06997640439848,43.13588770732747,0 13.07044084262626,43.1363299364504,0 13.0706330319647,43.13652439807881,0 13.07076056769883,43.13675252915439,0 13.07080747201193,43.13689503155588,0 13.07080506756552,43.13695899959283,0 13.07086018501991,43.13699253634046,0 13.07111717880028,43.13707115979725,0 13.07149820053844,43.13723327236984,0 13.07191046014665,43.13738405790691,0 13.07239264023901,43.13754363038876,0 13.07250174865905,43.13756775706688,0 13.07273452831128,43.13766639451347,0 13.0728265577656,43.13775523405317,0 13.07295308019833,43.13776329663368,0 13.07305772555559,43.13774088445125,0 13.07321059369168,43.13771598486963,0 13.07324074850355,43.13781491052394,0 
				</coordinates>
			</LineString>
		</Placemark>
		<Placemark>
			<name>(t)1</name>
			<description>Tappa 1 - Chiesa della Madonna delle Carceri;Stage 1 - Chiesa della Madonna delle Carceri</description>
			<LookAt>
				<longitude>13.06751880370335</longitude>
				<latitude>43.14256022009284</latitude>
				<altitude>0</altitude>
				<heading>-0.0005250420412507645</heading>
				<tilt>25.56880524990036</tilt>
				<range>211.1633192453482</range>
				<gx:altitudeMode>relativeToSeaFloor</gx:altitudeMode>
			</LookAt>
			<styleUrl>#msn_grn-pushpin</styleUrl>
			<Point>
				<gx:drawOrder>1</gx:drawOrder>
				<coordinates>13.06717972622048,43.14308509912625,0</coordinates>
			</Point>
		</Placemark>
		<Placemark>
			<name>1</name>
			<open>1</open>
			<description>Procedi in direzione sudest su Via Madonna delle Carceri verso Via E. Mestica;Proceed southeast on Via Madonna delle Carceri towards Via E. Mestica</description>
			<LookAt>
				<longitude>13.06751880370335</longitude>
				<latitude>43.14256022009284</latitude>
				<altitude>0</altitude>
				<heading>-0.0005250420412507645</heading>
				<tilt>25.56880524990036</tilt>
				<range>211.1633192453482</range>
				<gx:altitudeMode>relativeToSeaFloor</gx:altitudeMode>
			</LookAt>
			<styleUrl>#msn_red-pushpin</styleUrl>
			<Point>
				<gx:drawOrder>1</gx:drawOrder>
				<coordinates>13.06736832430029,43.14287836696643,0</coordinates>
			</Point>
		</Placemark>
		<Placemark>
			<name>2</name>
			<description>Continua su Via Viviano Venanzi;Continue on Via Viviano Venanzi</description>
			<LookAt>
				<longitude>13.06993460275319</longitude>
				<latitude>43.13979573255077</latitude>
				<altitude>0</altitude>
				<heading>10.89527197222617</heading>
				<tilt>25.99358910717003</tilt>
				<range>268.6785245038174</range>
				<gx:altitudeMode>relativeToSeaFloor</gx:altitudeMode>
			</LookAt>
			<styleUrl>#m_ylw-pushpin5</styleUrl>
			<Point>
				<gx:drawOrder>1</gx:drawOrder>
				<coordinates>13.06998041764961,43.13985975617559,0</coordinates>
			</Point>
		</Placemark>
		<Placemark>
			<name>(t)2</name>
			<open>1</open>
			<description>Tappa 2 - Porta Boncompagni;Stage 2 - Porta Boncompagni</description>
			<LookAt>
				<longitude>13.07028929588124</longitude>
				<latitude>43.13969637183222</latitude>
				<altitude>0</altitude>
				<heading>0.001369443122199569</heading>
				<tilt>25.56880524990039</tilt>
				<range>211.1633192426947</range>
				<gx:altitudeMode>relativeToSeaFloor</gx:altitudeMode>
			</LookAt>
			<styleUrl>#msn_grn-pushpin</styleUrl>
			<Point>
				<gx:drawOrder>1</gx:drawOrder>
				<coordinates>13.07021953115225,43.13952558899192,0</coordinates>
			</Point>
		</Placemark>
		<Placemark>
			<name>3</name>
			<description>Via Viviano Venanzi fa una leggera curva a destra e diventa Via Ridolfini/Viale Emilio Betti;Via Viviano Venanzi makes a slight curve to the right and becomes Via Ridolfini/Viale Emilio Betti</description>
			<LookAt>
				<longitude>13.07014243627473</longitude>
				<latitude>43.13802619499164</latitude>
				<altitude>0</altitude>
				<heading>10.89541410614066</heading>
				<tilt>25.99358910716991</tilt>
				<range>268.6785245001278</range>
				<gx:altitudeMode>relativeToSeaFloor</gx:altitudeMode>
			</LookAt>
			<styleUrl>#m_ylw-pushpin5</styleUrl>
			<Point>
				<gx:drawOrder>1</gx:drawOrder>
				<coordinates>13.07120585415074,43.13773959996072,0</coordinates>
			</Point>
		</Placemark>
		<Placemark>
			<name>(t)3</name>
			<open>1</open>
			<description>Tappa 3 - Convento di San Domenico;Stage 3 - Convento di San Domenico</description>
			<LookAt>
				<longitude>13.07118050835149</longitude>
				<latitude>43.13795160272664</latitude>
				<altitude>0</altitude>
				<heading>0.002094734579244017</heading>
				<tilt>30.00100876043517</tilt>
				<range>224.2702460717497</range>
				<gx:altitudeMode>relativeToSeaFloor</gx:altitudeMode>
			</LookAt>
			<styleUrl>#msn_grn-pushpin</styleUrl>
			<Point>
				<gx:drawOrder>1</gx:drawOrder>
				<coordinates>13.07117953957197,43.13764368439856,0</coordinates>
			</Point>
		</Placemark>
		<Placemark>
			<name>4</name>
			<description>Svolta leggermente a sinistra e prendi Via Fabio Filzi;Turn slightly left and take Via Fabio Filzi</description>
			<LookAt>
				<longitude>13.06935663244478</longitude>
				<latitude>43.13735051523982</latitude>
				<altitude>0</altitude>
				<heading>10.89552585831482</heading>
				<tilt>21.327859042206</tilt>
				<range>89.54770525865752</range>
				<gx:altitudeMode>relativeToSeaFloor</gx:altitudeMode>
			</LookAt>
			<styleUrl>#m_ylw-pushpin5</styleUrl>
			<Point>
				<gx:drawOrder>1</gx:drawOrder>
				<coordinates>13.06951171147602,43.13743660756455,0</coordinates>
			</Point>
		</Placemark>
		<Placemark>
			<name>5</name>
			<description>Svolta a destra e prendi Via Giacomo Venezian;Turn right and take Via Giacomo Venezian</description>
			<LookAt>
				<longitude>13.0691250193255</longitude>
				<latitude>43.13627599686557</latitude>
				<altitude>0</altitude>
				<heading>10.89536902907337</heading>
				<tilt>21.32811158286036</tilt>
				<range>167.5730273802299</range>
				<gx:altitudeMode>relativeToSeaFloor</gx:altitudeMode>
			</LookAt>
			<styleUrl>#m_ylw-pushpin5</styleUrl>
			<Point>
				<gx:drawOrder>1</gx:drawOrder>
				<coordinates>13.06914533281862,43.13635762602524,0</coordinates>
			</Point>
		</Placemark>
		<Placemark>
			<name>6</name>
			<description>Continua su Corso Vittorio Emanuele II;Continue on Corso Vittorio Emanuele II</description>
			<LookAt>
				<longitude>13.06827323794735</longitude>
				<latitude>43.13565837261982</latitude>
				<altitude>0</altitude>
				<heading>0.0001089374980899166</heading>
				<tilt>30.00045538572523</tilt>
				<range>98.74040320612268</range>
				<gx:altitudeMode>relativeToSeaFloor</gx:altitudeMode>
			</LookAt>
			<styleUrl>#msn_red-pushpin</styleUrl>
			<Point>
				<gx:drawOrder>1</gx:drawOrder>
				<coordinates>13.06842429603167,43.13574096638393,0</coordinates>
			</Point>
		</Placemark>
		<Placemark>
			<name>(t)4</name>
			<open>1</open>
			<description>Tappa 4 - Piazza Cavour;Stage 4 - Piazza Cavour</description>
			<LookAt>
				<longitude>13.06827323794735</longitude>
				<latitude>43.13565837261982</latitude>
				<altitude>0</altitude>
				<heading>0.0001089374980899166</heading>
				<tilt>30.00045538572523</tilt>
				<range>98.74040320612268</range>
				<gx:altitudeMode>relativeToSeaFloor</gx:altitudeMode>
			</LookAt>
			<styleUrl>#msn_grn-pushpin</styleUrl>
			<Point>
				<gx:drawOrder>1</gx:drawOrder>
				<coordinates>13.06829722222222,43.13573055555555,0</coordinates>
			</Point>
		</Placemark>
		<Placemark>
			<name>(t)5</name>
			<open>1</open>
			<description>Tappa 5 - Corso Vittorio Emanuele II;Stage 5 - Corso Vittorio Emanuele II</description>
			<LookAt>
				<longitude>13.06781551437446</longitude>
				<latitude>43.13531934460242</latitude>
				<altitude>0</altitude>
				<heading>-0.0002040201588890912</heading>
				<tilt>30.00045538572522</tilt>
				<range>98.74040320487578</range>
				<gx:altitudeMode>relativeToSeaFloor</gx:altitudeMode>
			</LookAt>
			<styleUrl>#msn_grn-pushpin</styleUrl>
			<Point>
				<gx:drawOrder>1</gx:drawOrder>
				<coordinates>13.06769444444445,43.13531666666667,0</coordinates>
			</Point>
		</Placemark>
		<Placemark>
			<name>7</name>
			<description>Svolta a destra e prendi Via XX Settembre;Turn right and take Via XX Settembre</description>
			<LookAt>
				<longitude>13.06659896171965</longitude>
				<latitude>43.13442934583954</latitude>
				<altitude>0</altitude>
				<heading>10.89265394397221</heading>
				<tilt>29.02942456070744</tilt>
				<range>116.2501455946062</range>
				<gx:altitudeMode>relativeToSeaFloor</gx:altitudeMode>
			</LookAt>
			<styleUrl>#m_ylw-pushpin5</styleUrl>
			<Point>
				<gx:drawOrder>1</gx:drawOrder>
				<coordinates>13.06652271662227,43.13443661664547,0</coordinates>
			</Point>
		</Placemark>
		<Placemark>
			<name>8</name>
			<description>Svolta a sinistra e prendi Via Camillo Lili;Turn left and take Via Camillo Lili</description>
			<LookAt>
				<longitude>13.06629246236967</longitude>
				<latitude>43.13441033270659</latitude>
				<altitude>0</altitude>
				<heading>10.89244438693312</heading>
				<tilt>29.0294245607074</tilt>
				<range>116.2501455940248</range>
				<gx:altitudeMode>relativeToSeaFloor</gx:altitudeMode>
			</LookAt>
			<styleUrl>#m_ylw-pushpin5</styleUrl>
			<Point>
				<gx:drawOrder>1</gx:drawOrder>
				<coordinates>13.06632473698623,43.13451633514803,0</coordinates>
			</Point>
		</Placemark>
		<Placemark>
			<name>9</name>
			<description>Via Camillo Lili fa una leggera curva a destra e diventa Via Pieragostini;Via Camillo Lili makes a slight curve to the right and becomes Via Pieragostini</description>
			<LookAt>
				<longitude>13.06508665945861</longitude>
				<latitude>43.13258062239254</latitude>
				<altitude>0</altitude>
				<heading>10.89162002400377</heading>
				<tilt>29.02959378969178</tilt>
				<range>155.1998991134311</range>
				<gx:altitudeMode>relativeToSeaFloor</gx:altitudeMode>
			</LookAt>
			<styleUrl>#m_ylw-pushpin5</styleUrl>
			<Point>
				<gx:drawOrder>1</gx:drawOrder>
				<coordinates>13.06473877763434,43.13260668281507,0</coordinates>
			</Point>
		</Placemark>
		<Placemark>
			<name>(t)6</name>
			<description>Tappa 6 - Santuario Santa Maria in Via;Stage 6 - Santuario Santa Maria in Via</description>
			<LookAt>
				<longitude>13.06422736521085</longitude>
				<latitude>43.13186968417072</latitude>
				<altitude>0</altitude>
				<heading>-0.002657862611359203</heading>
				<tilt>30.00077079546439</tilt>
				<range>168.6116073303146</range>
				<gx:altitudeMode>relativeToSeaFloor</gx:altitudeMode>
			</LookAt>
			<styleUrl>#msn_grn-pushpin</styleUrl>
			<Point>
				<gx:drawOrder>1</gx:drawOrder>
				<coordinates>13.06395,43.13194722222222,0</coordinates>
			</Point>
		</Placemark>
		<Placemark>
			<name>10</name>
			<open>1</open>
			<description>Svolta a destra e prendi Piazzale della Vittoria;Turn right and take Piazzale della Vittoria</description>
			<LookAt>
				<longitude>13.06340298476488</longitude>
				<latitude>43.13162356327737</latitude>
				<altitude>0</altitude>
				<heading>10.89046892856868</heading>
				<tilt>29.02959378969173</tilt>
				<range>155.1998991101578</range>
				<gx:altitudeMode>relativeToSeaFloor</gx:altitudeMode>
			</LookAt>
			<styleUrl>#m_ylw-pushpin5</styleUrl>
			<Point>
				<gx:drawOrder>1</gx:drawOrder>
				<coordinates>13.06356309481916,43.13150775517993,0</coordinates>
			</Point>
		</Placemark>
		<Placemark>
			<name>11</name>
			<description>Svolta leggermente a destra;Turn slightly right</description>
			<LookAt>
				<longitude>13.06340298476488</longitude>
				<latitude>43.13162356327737</latitude>
				<altitude>0</altitude>
				<heading>10.89046892856868</heading>
				<tilt>29.02959378969173</tilt>
				<range>155.1998991101578</range>
				<gx:altitudeMode>relativeToSeaFloor</gx:altitudeMode>
			</LookAt>
			<styleUrl>#m_ylw-pushpin5</styleUrl>
			<Point>
				<gx:drawOrder>1</gx:drawOrder>
				<coordinates>13.06279327387727,43.13142182992888,0</coordinates>
			</Point>
		</Placemark>
		<Placemark>
			<name>(t)7</name>
			<description>Tappa 7 - Porta Malatesta;Stage 7 - Porta Malatesta</description>
			<LookAt>
				<longitude>13.06332786153645</longitude>
				<latitude>43.13161529336494</latitude>
				<altitude>0</altitude>
				<heading>-0.003272833585884159</heading>
				<tilt>30.00077079546439</tilt>
				<range>168.611607326096</range>
				<gx:altitudeMode>relativeToSeaFloor</gx:altitudeMode>
			</LookAt>
			<styleUrl>#msn_grn-pushpin</styleUrl>
			<Point>
				<gx:drawOrder>1</gx:drawOrder>
				<coordinates>13.06258888888889,43.13161666666667,0</coordinates>
			</Point>
		</Placemark>
		<Placemark>
			<name>12</name>
			<open>1</open>
			<description>Procedi in direzione sud verso Piazzale della Vittoria;Proceed south towards Piazzale della Vittoria</description>
			<LookAt>
				<longitude>13.06332786153645</longitude>
				<latitude>43.13161529336494</latitude>
				<altitude>0</altitude>
				<heading>-0.003272833585884159</heading>
				<tilt>30.00077079546439</tilt>
				<range>168.611607326096</range>
				<gx:altitudeMode>relativeToSeaFloor</gx:altitudeMode>
			</LookAt>
			<styleUrl>#msn_red-pushpin</styleUrl>
			<Point>
				<gx:drawOrder>1</gx:drawOrder>
				<coordinates>13.06254201115032,43.13158624989434,0</coordinates>
			</Point>
		</Placemark>
		<Placemark>
			<name>13</name>
			<description>Svolta leggermente a sinistra e prendi Piazzale della Vittoria;Turn slightly left and take Piazzale della Vittoria</description>
			<LookAt>
				<longitude>13.06358709394481</longitude>
				<latitude>43.13177905143149</latitude>
				<altitude>0</altitude>
				<heading>10.89085979959158</heading>
				<tilt>26.41316543299506</tilt>
				<range>179.1311504552301</range>
				<gx:altitudeMode>relativeToSeaFloor</gx:altitudeMode>
			</LookAt>
			<styleUrl>#m_ylw-pushpin5</styleUrl>
			<Point>
				<gx:drawOrder>1</gx:drawOrder>
				<coordinates>13.06275578929767,43.13138048790456,0</coordinates>
			</Point>
		</Placemark>
		<Placemark>
			<name>(t)8</name>
			<description>Tappa 8 - Rocca Borgesca;Stage 8 - Rocca Borgesca</description>
			<LookAt>
				<longitude>13.06339935412402</longitude>
				<latitude>43.13137499475295</latitude>
				<altitude>0</altitude>
				<heading>-0.003243707185268018</heading>
				<tilt>29.21004422423675</tilt>
				<range>133.8271083838454</range>
				<gx:altitudeMode>relativeToSeaFloor</gx:altitudeMode>
			</LookAt>
			<styleUrl>#msn_grn-pushpin</styleUrl>
			<Point>
				<gx:drawOrder>1</gx:drawOrder>
				<coordinates>13.06349444444444,43.13139166666667,0</coordinates>
			</Point>
		</Placemark>
		<Placemark>
			<name>14</name>
			<open>1</open>
			<description>Svolta a destra e prendi Via Cesare Battisti;Turn right and take Via Cesare Battisti</description>
			<LookAt>
				<longitude>13.06358709394481</longitude>
				<latitude>43.13177905143149</latitude>
				<altitude>0</altitude>
				<heading>10.89085979959111</heading>
				<tilt>26.41316543299501</tilt>
				<range>179.1311504531719</range>
				<gx:altitudeMode>relativeToSeaFloor</gx:altitudeMode>
			</LookAt>
			<styleUrl>#m_ylw-pushpin5</styleUrl>
			<Point>
				<gx:drawOrder>1</gx:drawOrder>
				<coordinates>13.06359233450151,43.13142054038858,0</coordinates>
			</Point>
		</Placemark>
		<Placemark>
			<name>15</name>
			<description>Svolta a destra verso Largo Et Poi Si More/Strada Provinciale 18;Turn right towards Largo Et Poi Si More/Provincial Road 18</description>
			<LookAt>
				<longitude>13.06379340001757</longitude>
				<latitude>43.13098494160968</latitude>
				<altitude>0</altitude>
				<heading>10.89100084880278</heading>
				<tilt>26.41316543299504</tilt>
				<range>179.1311504529513</range>
				<gx:altitudeMode>relativeToSeaFloor</gx:altitudeMode>
			</LookAt>
			<styleUrl>#m_ylw-pushpin5</styleUrl>
			<Point>
				<gx:drawOrder>1</gx:drawOrder>
				<coordinates>13.06480432133587,43.13072777107556,0</coordinates>
			</Point>
		</Placemark>
		<Placemark>
			<name>19</name>
			<description>Svolta tutto a sinistra e prendi Largo Et Poi Si More/Strada Provinciale 18;Turn sharp left and take Largo Et Poi Si More/Strada Provinciale 18</description>
			<LookAt>
				<longitude>13.06407792921809</longitude>
				<latitude>43.13061213781361</latitude>
				<altitude>0</altitude>
				<heading>10.89098708332235</heading>
				<tilt>28.2833282759242</tilt>
				<range>154.5785406033187</range>
				<gx:altitudeMode>relativeToSeaFloor</gx:altitudeMode>
			</LookAt>
			<styleUrl>#m_ylw-pushpin5</styleUrl>
			<Point>
				<gx:drawOrder>1</gx:drawOrder>
				<coordinates>13.06394067260887,43.13041966412113,0</coordinates>
			</Point>
		</Placemark>
		<Placemark>
			<name>20</name>
			<description>Alla rotonda prendi la 1ª uscita e prendi Viale Seneca;At the roundabout take the 1st exit and take Viale Seneca</description>
			<LookAt>
				<longitude>13.06684031651524</longitude>
				<latitude>43.13274757282943</latitude>
				<altitude>0</altitude>
				<heading>10.89287565640199</heading>
				<tilt>28.28332827592417</tilt>
				<range>154.578540604835</range>
				<gx:altitudeMode>relativeToSeaFloor</gx:altitudeMode>
			</LookAt>
			<styleUrl>#m_ylw-pushpin5</styleUrl>
			<Point>
				<gx:drawOrder>1</gx:drawOrder>
				<coordinates>13.06710537871393,43.13311568100225,0</coordinates>
			</Point>
		</Placemark>
		<Placemark>
			<name>21</name>
			<description>Gira a sinistra dietro al parcheggio per il belvedere di via Seneca;Turn left behind the parking lot for the Seneca Street viewpoint</description>
			<LookAt>
				<longitude>13.06684109027787</longitude>
				<latitude>43.13274933679963</latitude>
				<altitude>0</altitude>
				<heading>10.89287618540481</heading>
				<tilt>28.28332827592418</tilt>
				<range>154.5785406012282</range>
				<gx:altitudeMode>relativeToSeaFloor</gx:altitudeMode>
			</LookAt>
			<styleUrl>#m_ylw-pushpin5</styleUrl>
			<Point>
				<gx:drawOrder>1</gx:drawOrder>
				<coordinates>13.06708611111111,43.13288611111111,0</coordinates>
			</Point>
		</Placemark>
		<Placemark>
			<name>(t)9</name>
			<description>Tappa 9 - Belvedere di via Seneca;Stage 9 - Belvedere di via Seneca</description>
			<LookAt>
				<longitude>13.06741765597086</longitude>
				<latitude>43.13291670959633</latitude>
				<altitude>0</altitude>
				<heading>-0.0004646618662043826</heading>
				<tilt>29.99249576355253</tilt>
				<range>263.7669961717726</range>
				<gx:altitudeMode>relativeToSeaFloor</gx:altitudeMode>
			</LookAt>
			<styleUrl>#msn_grn-pushpin</styleUrl>
			<Point>
				<gx:drawOrder>1</gx:drawOrder>
				<coordinates>13.06720277777778,43.13281944444444,0</coordinates>
			</Point>
		</Placemark>
		<Placemark>
			<name>22</name>
			<open>1</open>
			<description>Procedi in direzione nord su Viale Seneca;Proceed north on Viale Seneca</description>
			<LookAt>
				<longitude>13.06684410696849</longitude>
				<latitude>43.13275096700544</latitude>
				<altitude>0</altitude>
				<heading>10.89287824788724</heading>
				<tilt>28.28332827592412</tilt>
				<range>154.5785406028269</range>
				<gx:altitudeMode>relativeToSeaFloor</gx:altitudeMode>
			</LookAt>
			<styleUrl>#m_ylw-pushpin5</styleUrl>
			<Point>
				<gx:drawOrder>1</gx:drawOrder>
				<coordinates>13.06726384171265,43.13289263354965,0</coordinates>
			</Point>
		</Placemark>
		<Placemark>
			<name>23</name>
			<description>Alla rotonda prendi la 1ª uscita e prendi Strada Provinciale 18/Viale Giacomo Leopardi;At the roundabout, take the 1st exit onto Strada Provinciale 18/Viale Giacomo Leopardi</description>
			<LookAt>
				<longitude>13.06724567176315</longitude>
				<latitude>43.13303873618864</latitude>
				<altitude>0</altitude>
				<heading>10.89315279212558</heading>
				<tilt>28.28332827592418</tilt>
				<range>154.5785406028213</range>
				<gx:altitudeMode>relativeToSeaFloor</gx:altitudeMode>
			</LookAt>
			<styleUrl>#m_ylw-pushpin5</styleUrl>
			<Point>
				<gx:drawOrder>1</gx:drawOrder>
				<coordinates>13.06730846687242,43.13308635679019,0</coordinates>
			</Point>
		</Placemark>
		<Placemark>
			<name>24</name>
			<description>Attraversa la strada e procedi sotto il viale alberato;Cross the road and proceed under the tree-lined avenue</description>
			<LookAt>
				<longitude>13.06876264403181</longitude>
				<latitude>43.1343393730939</latitude>
				<altitude>0</altitude>
				<heading>10.89418994646414</heading>
				<tilt>28.28332827592414</tilt>
				<range>154.5785406016139</range>
				<gx:altitudeMode>relativeToSeaFloor</gx:altitudeMode>
			</LookAt>
			<styleUrl>#m_ylw-pushpin5</styleUrl>
			<Point>
				<gx:drawOrder>1</gx:drawOrder>
				<coordinates>13.06926514031761,43.13466712823322,0</coordinates>
			</Point>
		</Placemark>
		<Placemark>
			<name>(t)10</name>
			<description>Tappa 10 - Orto Botanico &quot;Carmela Cortini&quot;;Stage 10 - Orto Botanico &quot;Carmela Cortini&quot;</description>
			<LookAt>
				<longitude>13.07019622549702</longitude>
				<latitude>43.13591705019451</latitude>
				<altitude>0</altitude>
				<heading>0.001435058079815278</heading>
				<tilt>29.99249576355254</tilt>
				<range>263.7669961736215</range>
				<gx:altitudeMode>relativeToSeaFloor</gx:altitudeMode>
			</LookAt>
			<styleUrl>#msn_grn-pushpin</styleUrl>
			<Point>
				<gx:drawOrder>1</gx:drawOrder>
				<coordinates>13.06995833333333,43.13589444444445,0</coordinates>
			</Point>
		</Placemark>
		<Placemark>
			<name>25</name>
			<open>1</open>
			<description>Gira a destra;Turn right</description>
			<LookAt>
				<longitude>13.07100305805283</longitude>
				<latitude>43.13682627311203</latitude>
				<altitude>0</altitude>
				<heading>10.89641688604471</heading>
				<tilt>22.61107345935581</tilt>
				<range>99.63774629386822</range>
				<gx:altitudeMode>relativeToSeaFloor</gx:altitudeMode>
			</LookAt>
			<styleUrl>#m_ylw-pushpin5</styleUrl>
			<Point>
				<gx:drawOrder>1</gx:drawOrder>
				<coordinates>13.07080833333333,43.13697222222222,0</coordinates>
			</Point>
		</Placemark>
		<Placemark>
			<name>(t)11</name>
			<description>Tappa 11 - Tempio Ducale dell&apos;Annunziata;Stage 11 - Tempio Ducale dell&apos;Annunziata</description>
			<LookAt>
				<longitude>13.07213537435062</longitude>
				<latitude>43.13729303731911</latitude>
				<altitude>0</altitude>
				<heading>0.002760916323093364</heading>
				<tilt>29.99249576355253</tilt>
				<range>263.7669961751974</range>
				<gx:altitudeMode>relativeToSeaFloor</gx:altitudeMode>
			</LookAt>
			<styleUrl>#msn_grn-pushpin</styleUrl>
			<Point>
				<gx:drawOrder>1</gx:drawOrder>
				<coordinates>13.07248888888889,43.13757222222223,0</coordinates>
			</Point>
		</Placemark>
		<Placemark>
			<name>26</name>
			<open>1</open>
			<description>Tieni la destra e prosegui verso la Basilica di San Venanzio Martire;Keep right and continue towards the Basilica of San Venanzio Martire</description>
			<LookAt>
				<longitude>13.07309449578083</longitude>
				<latitude>43.13764250916655</latitude>
				<altitude>0</altitude>
				<heading>10.89784689994477</heading>
				<tilt>22.61107345935575</tilt>
				<range>99.63774629328505</range>
				<gx:altitudeMode>relativeToSeaFloor</gx:altitudeMode>
			</LookAt>
			<styleUrl>#m_ylw-pushpin5</styleUrl>
			<Point>
				<gx:drawOrder>1</gx:drawOrder>
				<coordinates>13.07283333333334,43.13774166666666,0</coordinates>
			</Point>
		</Placemark>
		<Placemark>
			<name>(t)12</name>
			<open>1</open>
			<description>Tappa 12 - Basilica San Venanzio;Stage 12 - Basilica San Venanzio</description>
			<LookAt>
				<longitude>13.07288586814634</longitude>
				<latitude>43.13757469659791</latitude>
				<altitude>0</altitude>
				<heading>0.003038312325643206</heading>
				<tilt>24.39408896050007</tilt>
				<range>147.6462106776292</range>
				<gx:altitudeMode>relativeToSeaFloor</gx:altitudeMode>
			</LookAt>
			<styleUrl>#msn_grn-pushpin</styleUrl>
			<Point>
				<gx:drawOrder>1</gx:drawOrder>
				<coordinates>13.07325277777778,43.13780555555555,0</coordinates>
			</Point>
		</Placemark>
		<atom:link rel="app" href="https://www.google.com/earth/about/versions/#earth-pro" title="Google Earth Pro 7.3.6.10441"></atom:link>
	</Folder>
</Document>
</kml>
