<?xml version="1.0" encoding="UTF-8"?>
<kml xmlns="http://www.opengis.net/kml/2.2" xmlns:gx="http://www.google.com/kml/ext/2.2" xmlns:kml="http://www.opengis.net/kml/2.2" xmlns:atom="http://www.w3.org/2005/Atom">
<Document>
	<name>Camporotondo_IOT.kml</name>
	<StyleMap id="m_ylw-pushpin5">
		<Pair>
			<key>normal</key>
			<styleUrl>#s_ylw-pushpin021</styleUrl>
		</Pair>
		<Pair>
			<key>highlight</key>
			<styleUrl>#s_ylw-pushpin_hl2</styleUrl>
		</Pair>
	</StyleMap>
	<StyleMap id="msn_grn-pushpin">
		<Pair>
			<key>normal</key>
			<styleUrl>#sn_grn-pushpin</styleUrl>
		</Pair>
		<Pair>
			<key>highlight</key>
			<styleUrl>#sh_grn-pushpin</styleUrl>
		</Pair>
	</StyleMap>
	<StyleMap id="msn_red-pushpin">
		<Pair>
			<key>normal</key>
			<styleUrl>#sn_red-pushpin0</styleUrl>
		</Pair>
		<Pair>
			<key>highlight</key>
			<styleUrl>#sh_red-pushpin</styleUrl>
		</Pair>
	</StyleMap>
	<StyleMap id="msn_ylw-pushpin3">
		<Pair>
			<key>normal</key>
			<styleUrl>#sn_ylw-pushpin2</styleUrl>
		</Pair>
		<Pair>
			<key>highlight</key>
			<styleUrl>#sh_ylw-pushpin6</styleUrl>
		</Pair>
	</StyleMap>
	<Style id="s_ylw-pushpin021">
		<IconStyle>
			<scale>1.1</scale>
			<Icon>
				<href>http://maps.google.com/mapfiles/kml/pushpin/red-pushpin.png</href>
			</Icon>
			<hotSpot x="20" y="2" xunits="pixels" yunits="pixels"/>
		</IconStyle>
	</Style>
	<Style id="s_ylw-pushpin_hl2">
		<IconStyle>
			<scale>1.3</scale>
			<Icon>
				<href>http://maps.google.com/mapfiles/kml/pushpin/red-pushpin.png</href>
			</Icon>
			<hotSpot x="20" y="2" xunits="pixels" yunits="pixels"/>
		</IconStyle>
	</Style>
	<Style id="sh_grn-pushpin">
		<IconStyle>
			<scale>1.3</scale>
			<Icon>
				<href>http://maps.google.com/mapfiles/kml/pushpin/grn-pushpin.png</href>
			</Icon>
			<hotSpot x="20" y="2" xunits="pixels" yunits="pixels"/>
		</IconStyle>
		<BalloonStyle>
		</BalloonStyle>
		<ListStyle>
		</ListStyle>
	</Style>
	<Style id="sh_red-pushpin">
		<IconStyle>
			<scale>1.3</scale>
			<Icon>
				<href>http://maps.google.com/mapfiles/kml/pushpin/red-pushpin.png</href>
			</Icon>
			<hotSpot x="20" y="2" xunits="pixels" yunits="pixels"/>
		</IconStyle>
	</Style>
	<Style id="sh_ylw-pushpin6">
		<IconStyle>
			<scale>1.3</scale>
			<Icon>
				<href>http://maps.google.com/mapfiles/kml/pushpin/ylw-pushpin.png</href>
			</Icon>
			<hotSpot x="20" y="2" xunits="pixels" yunits="pixels"/>
		</IconStyle>
		<LineStyle>
			<color>ff00ffff</color>
			<width>2</width>
		</LineStyle>
	</Style>
	<Style id="sn_grn-pushpin">
		<IconStyle>
			<scale>1.1</scale>
			<Icon>
				<href>http://maps.google.com/mapfiles/kml/pushpin/grn-pushpin.png</href>
			</Icon>
			<hotSpot x="20" y="2" xunits="pixels" yunits="pixels"/>
		</IconStyle>
		<BalloonStyle>
		</BalloonStyle>
		<ListStyle>
		</ListStyle>
	</Style>
	<Style id="sn_red-pushpin0">
		<IconStyle>
			<scale>1.1</scale>
			<Icon>
				<href>http://maps.google.com/mapfiles/kml/pushpin/red-pushpin.png</href>
			</Icon>
			<hotSpot x="20" y="2" xunits="pixels" yunits="pixels"/>
		</IconStyle>
	</Style>
	<Style id="sn_ylw-pushpin2">
		<IconStyle>
			<scale>1.1</scale>
			<Icon>
				<href>http://maps.google.com/mapfiles/kml/pushpin/ylw-pushpin.png</href>
			</Icon>
			<hotSpot x="20" y="2" xunits="pixels" yunits="pixels"/>
		</IconStyle>
		<LineStyle>
			<color>ff00ffff</color>
			<width>2</width>
		</LineStyle>
	</Style>
	<Folder>
		<name>Camporotondo_IOT</name>
		<open>1</open>
		<Placemark>
			<name>IOT</name>
			<styleUrl>#msn_ylw-pushpin3</styleUrl>
			<LineString>
				<tessellate>1</tessellate>
				<coordinates>
					13.26522192612281,43.13134600812193,0 13.26565617695962,43.13151837092531,0 13.26607206187998,43.13166640325738,0 13.26603613248141,43.13173700781841,0 13.2660975195161,43.13180756111812,0 13.26606635393317,43.13190169759925,0 13.26574106496658,43.13257929103776,0 13.26560586319768,43.13256426389809,0 13.26545880698006,43.13248407566542,0 13.26548824498481,43.13234677544478,0 13.26555599532383,43.1320022600185,0 13.26535464759598,43.13192557442757,0 13.26515905493298,43.13191364711531,0 13.26511681343545,43.13197380634718,0 13.26506517274067,43.13196766968531,0 13.26488402916266,43.13198499423974,0 13.26498660651915,43.13234326426409,0 13.26502116374189,43.13246982859621,0 13.26489544003958,43.13249212408603,0 13.26476003955044,43.13249641150424,0 13.26468813951661,43.13243108735909,0 13.26462268799119,43.13229983979689,0 13.26435955352692,43.13216306571869,0 13.26428540930761,43.13215625174774,0 13.26448497747143,43.13257116489134,0 13.26440880471027,43.13277260128333,0 13.26442246139865,43.13288912218729,0 13.26491330278744,43.13318558823093,0 13.26514623259217,43.13328967978334,0 13.26557575263298,43.13365843388572,0 13.26562532477525,43.13366354098574,0 13.26561845483647,43.13354008730761,0 13.26559835256353,43.13337143091238,0 13.26574274541225,43.1326321075563,0 
				</coordinates>
			</LineString>
		</Placemark>
		<Placemark>
			<name>1</name>
			<description>Prosegui in direzione nord-est;Continue in a northeast direction</description>
			<LookAt>
				<longitude>13.26556690596736</longitude>
				<latitude>43.13225450357692</latitude>
				<altitude>0</altitude>
				<heading>0.4733923314688101</heading>
				<tilt>10.83399154964745</tilt>
				<range>426.8402650763931</range>
				<gx:altitudeMode>relativeToSeaFloor</gx:altitudeMode>
			</LookAt>
			<styleUrl>#m_ylw-pushpin5</styleUrl>
			<Point>
				<gx:drawOrder>1</gx:drawOrder>
				<coordinates>13.26519594386544,43.13137185095647,0</coordinates>
			</Point>
		</Placemark>
		<Placemark>
			<name>2</name>
			<description>Gira a sinistra;Turn left</description>
			<LookAt>
				<longitude>13.26569389347409</longitude>
				<latitude>43.13213319815084</latitude>
				<altitude>0</altitude>
				<heading>0.4734166303673115</heading>
				<tilt>30.00132108735925</tilt>
				<range>292.6043288707158</range>
				<gx:altitudeMode>relativeToSeaFloor</gx:altitudeMode>
			</LookAt>
			<styleUrl>#m_ylw-pushpin5</styleUrl>
			<Point>
				<gx:drawOrder>1</gx:drawOrder>
				<coordinates>13.26609688115394,43.13168324309051,0</coordinates>
			</Point>
		</Placemark>
		<Placemark>
			<name>3</name>
			<open>1</open>
			<description>Gira a sinistra;Turn left</description>
			<LookAt>
				<longitude>13.26569389347411</longitude>
				<latitude>43.13213319815084</latitude>
				<altitude>0</altitude>
				<heading>0.4734166303670364</heading>
				<tilt>30.00132108735928</tilt>
				<range>292.6043288685837</range>
				<gx:altitudeMode>relativeToSeaFloor</gx:altitudeMode>
			</LookAt>
			<styleUrl>#m_ylw-pushpin5</styleUrl>
			<Point>
				<gx:drawOrder>1</gx:drawOrder>
				<coordinates>13.26574454057934,43.13253772729552,0</coordinates>
			</Point>
		</Placemark>
		<Placemark>
			<name>(t)1</name>
			<open>1</open>
			<description>Tappa 1 - Sulle impronte di Colsalvatico;Stage 1 - Sulle impronte di Colsalvatico</description>
			<LookAt>
				<longitude>13.26557307014673</longitude>
				<latitude>43.13261198080961</latitude>
				<altitude>0</altitude>
				<heading>0.0003682754047555745</heading>
				<tilt>30.48415520366376</tilt>
				<range>202.296667333628</range>
				<gx:altitudeMode>relativeToSeaFloor</gx:altitudeMode>
			</LookAt>
			<styleUrl>#msn_grn-pushpin</styleUrl>
			<Point>
				<gx:drawOrder>1</gx:drawOrder>
				<coordinates>13.26560885272135,43.1325754633028,0</coordinates>
			</Point>
		</Placemark>
		<Placemark>
			<name>4</name>
			<open>1</open>
			<description>Gira a sinistra;Turn left</description>
			<LookAt>
				<longitude>13.26569389347411</longitude>
				<latitude>43.13213319815084</latitude>
				<altitude>0</altitude>
				<heading>0.4734166303670364</heading>
				<tilt>30.00132108735928</tilt>
				<range>292.6043288685837</range>
				<gx:altitudeMode>relativeToSeaFloor</gx:altitudeMode>
			</LookAt>
			<styleUrl>#m_ylw-pushpin5</styleUrl>
			<Point>
				<gx:drawOrder>1</gx:drawOrder>
				<coordinates>13.26548302286402,43.13247630371854,0</coordinates>
			</Point>
		</Placemark>
		<Placemark>
			<name>5</name>
			<open>1</open>
			<description>Gira a destra;Turn right</description>
			<LookAt>
				<longitude>13.26551414818987</longitude>
				<latitude>43.13216313383069</latitude>
				<altitude>0</altitude>
				<heading>0.4732944368436108</heading>
				<tilt>30.00082762786908</tilt>
				<range>183.0855218414012</range>
				<gx:altitudeMode>relativeToSeaFloor</gx:altitudeMode>
			</LookAt>
			<styleUrl>#m_ylw-pushpin5</styleUrl>
			<Point>
				<gx:drawOrder>1</gx:drawOrder>
				<coordinates>13.26557397458659,43.13199656450153,0</coordinates>
			</Point>
		</Placemark>
		<Placemark>
			<name>(t)2</name>
			<open>1</open>
			<description>Tappa 2 - Piazza San Marco;Stage 2 - Piazza San Marco</description>
			<LookAt>
				<longitude>13.26546293940528</longitude>
				<latitude>43.13208854406653</latitude>
				<altitude>0</altitude>
				<heading>0.0002972262851464492</heading>
				<tilt>30.24292215705931</tilt>
				<range>122.411863202943</range>
				<gx:altitudeMode>relativeToSeaFloor</gx:altitudeMode>
			</LookAt>
			<styleUrl>#msn_grn-pushpin</styleUrl>
			<Point>
				<gx:drawOrder>1</gx:drawOrder>
				<coordinates>13.26534888879912,43.13193236861088,0</coordinates>
			</Point>
		</Placemark>
		<Placemark>
			<name>6</name>
			<description>Gira a sinistra;Turn left</description>
			<LookAt>
				<longitude>13.26551414818987</longitude>
				<latitude>43.13216313383069</latitude>
				<altitude>0</altitude>
				<heading>0.4732944368431194</heading>
				<tilt>30.00082762786905</tilt>
				<range>183.0855218369761</range>
				<gx:altitudeMode>relativeToSeaFloor</gx:altitudeMode>
			</LookAt>
			<styleUrl>#m_ylw-pushpin5</styleUrl>
			<Point>
				<gx:drawOrder>1</gx:drawOrder>
				<coordinates>13.26514150826118,43.13197039420545,0</coordinates>
			</Point>
		</Placemark>
		<Placemark>
			<name>7</name>
			<description>Gira a destra;Turn right</description>
			<LookAt>
				<longitude>13.26551414818987</longitude>
				<latitude>43.13216313383069</latitude>
				<altitude>0</altitude>
				<heading>0.4732944368431194</heading>
				<tilt>30.00082762786905</tilt>
				<range>183.0855218369761</range>
				<gx:altitudeMode>relativeToSeaFloor</gx:altitudeMode>
			</LookAt>
			<styleUrl>#m_ylw-pushpin5</styleUrl>
			<Point>
				<gx:drawOrder>1</gx:drawOrder>
				<coordinates>13.26490678286144,43.13199671808931,0</coordinates>
			</Point>
		</Placemark>
		<Placemark>
			<name>8</name>
			<description>Gira a sinistra;Turn left</description>
			<LookAt>
				<longitude>13.26509625921883</longitude>
				<latitude>43.13221186495658</latitude>
				<altitude>0</altitude>
				<heading>0.4730087333243789</heading>
				<tilt>30.00082762786905</tilt>
				<range>183.0855218376902</range>
				<gx:altitudeMode>relativeToSeaFloor</gx:altitudeMode>
			</LookAt>
			<styleUrl>#m_ylw-pushpin5</styleUrl>
			<Point>
				<gx:drawOrder>1</gx:drawOrder>
				<coordinates>13.26505381010914,43.1324804399814,0</coordinates>
			</Point>
		</Placemark>
		<Placemark>
			<name>(t)3</name>
			<open>1</open>
			<description>Tappa 3 - Passeggiata fra le rime;Stage 3 - Passeggiata fra le rime</description>
			<LookAt>
				<longitude>13.26520755878064</longitude>
				<latitude>43.13230419714794</latitude>
				<altitude>0</altitude>
				<heading>0.0002829690434121897</heading>
				<tilt>19.61385878015813</tilt>
				<range>84.40899425629864</range>
				<gx:altitudeMode>relativeToSeaFloor</gx:altitudeMode>
			</LookAt>
			<styleUrl>#msn_grn-pushpin</styleUrl>
			<Point>
				<gx:drawOrder>1</gx:drawOrder>
				<coordinates>13.26490529033326,43.13250059115155,0</coordinates>
			</Point>
		</Placemark>
		<Placemark>
			<name>9</name>
			<open>1</open>
			<description>Gira a sinistra;Turn left</description>
			<LookAt>
				<longitude>13.26520755878064</longitude>
				<latitude>43.13230419714794</latitude>
				<altitude>0</altitude>
				<heading>0.0002829690434121897</heading>
				<tilt>19.61385878015813</tilt>
				<range>84.40899425629864</range>
				<gx:altitudeMode>relativeToSeaFloor</gx:altitudeMode>
			</LookAt>
			<styleUrl>#msn_red-pushpin</styleUrl>
			<Point>
				<gx:drawOrder>1</gx:drawOrder>
				<coordinates>13.26475276548363,43.13250697950921,0</coordinates>
			</Point>
		</Placemark>
		<Placemark>
			<name>10</name>
			<description>Gira a destra;Turn right</description>
			<LookAt>
				<longitude>13.26509625921883</longitude>
				<latitude>43.13221186495658</latitude>
				<altitude>0</altitude>
				<heading>0.4730087333243789</heading>
				<tilt>30.00082762786905</tilt>
				<range>183.0855218376902</range>
				<gx:altitudeMode>relativeToSeaFloor</gx:altitudeMode>
			</LookAt>
			<styleUrl>#m_ylw-pushpin5</styleUrl>
			<Point>
				<gx:drawOrder>1</gx:drawOrder>
				<coordinates>13.2642786282413,43.1321775280019,0</coordinates>
			</Point>
		</Placemark>
		<Placemark>
			<name>11</name>
			<open>1</open>
			<description>Gira a destra;Turn right</description>
			<LookAt>
				<longitude>13.26540419739896</longitude>
				<latitude>43.13280459566082</latitude>
				<altitude>0</altitude>
				<heading>0.4732231008834577</heading>
				<tilt>27.51985374173378</tilt>
				<range>256.3447274654796</range>
				<gx:altitudeMode>relativeToSeaFloor</gx:altitudeMode>
			</LookAt>
			<styleUrl>#m_ylw-pushpin5</styleUrl>
			<Point>
				<gx:drawOrder>1</gx:drawOrder>
				<coordinates>13.26439470189475,43.13287462529374,0</coordinates>
			</Point>
		</Placemark>
		<Placemark>
			<name>12</name>
			<open>1</open>
			<description>Gira a destra;Turn right</description>
			<LookAt>
				<longitude>13.26575681974872</longitude>
				<latitude>43.13411568276084</latitude>
				<altitude>0</altitude>
				<heading>0.4732345213175088</heading>
				<tilt>27.52132964013122</tilt>
				<range>611.9212991621961</range>
				<gx:altitudeMode>relativeToSeaFloor</gx:altitudeMode>
			</LookAt>
			<styleUrl>#m_ylw-pushpin5</styleUrl>
			<Point>
				<gx:drawOrder>1</gx:drawOrder>
				<coordinates>13.26552636677422,43.13366197738806,0</coordinates>
			</Point>
		</Placemark>
		<atom:link rel="app" href="https://www.google.com/earth/about/versions/#earth-pro" title="Google Earth Pro 7.3.6.10441"></atom:link>
	</Folder>
</Document>
</kml>
