<?xml version="1.0" encoding="UTF-8"?>
<kml xmlns="http://www.opengis.net/kml/2.2" xmlns:gx="http://www.google.com/kml/ext/2.2" xmlns:kml="http://www.opengis.net/kml/2.2" xmlns:atom="http://www.w3.org/2005/Atom">
<Document>
	<name>Fiuminata_AR.kml</name>
	<StyleMap id="__managed_style_41A6BEA4D138950404B6">
		<Pair>
			<key>normal</key>
			<styleUrl>#failed02</styleUrl>
		</Pair>
		<Pair>
			<key>highlight</key>
			<styleUrl>#failed8</styleUrl>
		</Pair>
	</StyleMap>
	<Style id="failed02">
		<LineStyle>
			<color>ffff0000</color>
			<width>2</width>
		</LineStyle>
	</Style>
	<Style id="failed8">
		<LineStyle>
			<color>ffff0000</color>
			<width>2</width>
		</LineStyle>
	</Style>
	<StyleMap id="m_ylw-pushpin5">
		<Pair>
			<key>normal</key>
			<styleUrl>#s_ylw-pushpin021</styleUrl>
		</Pair>
		<Pair>
			<key>highlight</key>
			<styleUrl>#s_ylw-pushpin_hl2</styleUrl>
		</Pair>
	</StyleMap>
	<StyleMap id="msn_grn-pushpin">
		<Pair>
			<key>normal</key>
			<styleUrl>#sn_grn-pushpin</styleUrl>
		</Pair>
		<Pair>
			<key>highlight</key>
			<styleUrl>#sh_grn-pushpin</styleUrl>
		</Pair>
	</StyleMap>
	<StyleMap id="msn_red-pushpin0">
		<Pair>
			<key>normal</key>
			<styleUrl>#sn_red-pushpin</styleUrl>
		</Pair>
		<Pair>
			<key>highlight</key>
			<styleUrl>#sh_red-pushpin0</styleUrl>
		</Pair>
	</StyleMap>
	<Style id="s_ylw-pushpin021">
		<IconStyle>
			<scale>1.1</scale>
			<Icon>
				<href>http://maps.google.com/mapfiles/kml/pushpin/red-pushpin.png</href>
			</Icon>
			<hotSpot x="20" y="2" xunits="pixels" yunits="pixels"/>
		</IconStyle>
	</Style>
	<Style id="s_ylw-pushpin_hl2">
		<IconStyle>
			<scale>1.3</scale>
			<Icon>
				<href>http://maps.google.com/mapfiles/kml/pushpin/red-pushpin.png</href>
			</Icon>
			<hotSpot x="20" y="2" xunits="pixels" yunits="pixels"/>
		</IconStyle>
	</Style>
	<Style id="sh_grn-pushpin">
		<IconStyle>
			<scale>1.3</scale>
			<Icon>
				<href>http://maps.google.com/mapfiles/kml/pushpin/grn-pushpin.png</href>
			</Icon>
			<hotSpot x="20" y="2" xunits="pixels" yunits="pixels"/>
		</IconStyle>
		<BalloonStyle>
		</BalloonStyle>
		<ListStyle>
		</ListStyle>
	</Style>
	<Style id="sh_red-pushpin0">
		<IconStyle>
			<scale>1.3</scale>
			<Icon>
				<href>http://maps.google.com/mapfiles/kml/pushpin/red-pushpin.png</href>
			</Icon>
			<hotSpot x="20" y="2" xunits="pixels" yunits="pixels"/>
		</IconStyle>
	</Style>
	<Style id="sn_grn-pushpin">
		<IconStyle>
			<scale>1.1</scale>
			<Icon>
				<href>http://maps.google.com/mapfiles/kml/pushpin/grn-pushpin.png</href>
			</Icon>
			<hotSpot x="20" y="2" xunits="pixels" yunits="pixels"/>
		</IconStyle>
		<BalloonStyle>
		</BalloonStyle>
		<ListStyle>
		</ListStyle>
	</Style>
	<Style id="sn_red-pushpin">
		<IconStyle>
			<scale>1.1</scale>
			<Icon>
				<href>http://maps.google.com/mapfiles/kml/pushpin/red-pushpin.png</href>
			</Icon>
			<hotSpot x="20" y="2" xunits="pixels" yunits="pixels"/>
		</IconStyle>
	</Style>
	<Folder>
		<name>Fiuminata_AR</name>
		<open>1</open>
		<Placemark id="5572B2E4D6000005">
			<name>AR</name>
			<styleUrl>#__managed_style_41A6BEA4D138950404B6</styleUrl>
			<LineString>
				<coordinates>
					12.92361932791526,43.17977291335489,461.321 12.92370755560869,43.17952692977211,461.9409999999999 12.92383591317525,43.17923330488223,463.205 12.9239404612527,43.17904136433553,464.309 12.92409501680854,43.17879888854826,465.1139999999999 12.924027957845,43.17879177441996,465.443 12.92380204218819,43.17894010140718,465.443 12.92362851915609,43.17893268703585,464.969 12.9235358928006,43.17914380918075,463.7880000000001 12.92348517569975,43.1795958724534,462.0939999999999 12.92333680513869,43.17951421422812,460.6429999999999 12.9232175204777,43.17943360516691,459.779 12.9231298135751,43.17941653881898,459.779 12.92297443510467,43.17928308016381,458.821 12.92279989149806,43.17916887927433,458.2839999999999 12.92242369227015,43.17909318879385,457.826 12.92203790438765,43.17907064091013,458.047 12.92199327410694,43.17897207285015,458.511 12.92199504949749,43.17875555300481,459.409 12.922005,43.178575,460.574 12.922,43.17839,461.843 12.92203545723505,43.17812092851111,463.229 12.92202,43.17801,464.9879999999999 12.922,43.17784,466.734 12.92187391341637,43.17755514853346,468.7429999999999 12.92175,43.177305,470.849 12.92161,43.17706,473.231 12.92149117187865,43.17677916261332,475.844 12.92145255100139,43.17649922094661,478.538 12.92142684480598,43.17619176347807,481.47 12.92141,43.175917,484.4169999999999 12.92134875413459,43.17569115215399,487.309 12.92118592232715,43.17542106262628,490.445 12.92106,43.17514,493.7839999999999 12.921045,43.174955,496.6499999999999 12.9209997706741,43.17474925607866,499.529 12.92093896098136,43.17450138816681,502.595 12.92088329596546,43.17423075105377,505.564 12.92083724114562,43.17397166803614,508.47 12.92079607202399,43.17371789932643,511.1319999999999 12.92075337905989,43.17345900208927,513.915 12.92073,43.1732,516.873 12.92070748039186,43.17289716238575,519.6849999999999 12.92069171873734,43.17260150498554,522.313 12.92064217566132,43.17224422222534,525.009 12.92061969205466,43.17201064025859,527.569 12.92061573476588,43.17176981170023,530.078 12.92059479341859,43.17151354561857,532.744 12.92057650272904,43.17123961564165,535.763 12.92057,43.17099,538.779 12.920525,43.170815,541.628 12.92048,43.17064,544.314 12.9203315074962,43.17041955495564,547.1660000000001 12.9201766289222,43.17018008797665,550.159 12.92006,43.16996,553.263 12.919995,43.169715,556.244 12.91993,43.16947,559.318 12.91995,43.16928,562.409 12.91997,43.16909,565.978 12.919972,43.168803,569.867 12.919975,43.168516,573.653 12.919977,43.168228,577.412 12.91998,43.16794,581.148 12.91992,43.167735,584.897 12.91986,43.16753,588.943 12.91975,43.167305,593.225 12.91964,43.16708,597.528 12.91958967465221,43.16677264424195,601.624 12.919535,43.1666,605.704 12.91945,43.16642,609.914 12.91937,43.16621,614.109 12.91929,43.166,618.3339999999999 12.919305,43.165825,622.523 12.91932,43.16565,626.579 12.919413,43.16538,630.448 12.919506,43.16511,634.324 12.91961394639051,43.16488170705424,638.083 12.91962721038519,43.16469928912819,641.669 12.91956273936051,43.16455887712002,641.669 12.91947300391973,43.16446181812675,645.131 12.91926,43.16446,648.224 12.91908,43.16455,651.574 12.91901990230501,43.16468666953333,654.256 12.91894,43.16478,656.921 12.91888,43.16503,659.2089999999999 12.91873,43.16518,661.989 12.91868649829782,43.16534301888127,664.018 12.91866,43.16552,666.144 12.9186134476608,43.16570227242114,668.173 12.91852592467357,43.16578087016306,668.173 12.918269,43.165835,670.979 12.91793,43.16597,674.018 12.91782381375738,43.16610981312133,676.164 12.91787325828405,43.16629893004387,677.6759999999999 12.91801032365041,43.16653626444107,679.039 12.91801,43.1667,680.9349999999999 12.91799,43.16687,682.886 12.91806,43.16715,684.514 12.918065,43.167315,686.2089999999999 12.91807,43.16748,687.925 12.91792,43.16777,690.234 12.91795,43.167945,692.04 12.91798,43.16812,693.679 12.91786,43.1684,695.575 12.91763,43.16855,697.414 12.91746,43.16877,699.5599999999999 12.917205,43.16895,701.982 12.91695,43.16913,704.515 12.91679,43.16931,707.043 12.916897,43.169526,709.264 12.91699199305027,43.16974595715607,711.51 12.91707743550226,43.16996358895475,713.809 12.91715697331098,43.17014387205488,716.196 12.917257,43.170366,718.235 12.91732654178654,43.17057136521533,720.341 12.91734429413833,43.17069617286766,720.341 12.91728,43.17084,722.96 12.917155,43.171035,725.526 12.91700521454832,43.17123970638882,727.925 12.91697021199189,43.1715189608473,729.971 12.91704,43.17182,731.753 12.91707,43.172119,733.986 12.9171,43.17242,736.364 12.91705,43.17267,738.506 12.917,43.17292,740.616 12.916987,43.173156,742.609 12.91695893888073,43.1733856745809,744.5579999999999 12.91693590995214,43.17362674863418,746.487 12.91689,43.17392,748.4930000000001 12.91680462525465,43.17420588328989,750.342 12.91671773561982,43.17436543785073,752.428 12.91661140154659,43.17451875506588,754.467 12.91653968168297,43.17457115127257,754.467 12.91642531187632,43.17457733476218,754.467 12.91625,43.17455,756.663 12.915959,43.174435,759.385 12.91567,43.17432,762.148 12.915483,43.17414,765.437 12.915297,43.17396,773.6130000000001 12.91511493737777,43.17378153455547,776.609 12.91498685611737,43.17377953077997,776.609 12.91484,43.1738,779.5549999999999 12.91459,43.17405,782.1139999999998 12.91425,43.17423,784.77 12.91391,43.17441,787.079 12.91362,43.17444,789.6549999999999 12.913294,43.17444,792.4839999999999 12.91299716225021,43.17444297591554,795.29 12.91273,43.174585,797.462 12.91249,43.17473,799.8249999999999 12.9121,43.17476,802.8529999999998 12.91197,43.17488,804.8039999999999 12.911765,43.175025,807.114 12.91156,43.17517,809.509 12.911405,43.175355,811.5569999999998 12.91125,43.17554,813.5759999999999 12.91098,43.17564,815.6119999999999 12.910744,43.175625,818.061 12.91051,43.17561,820.3170000000001 12.910139,43.17557,822.7759999999997 12.909768,43.17553,825.2519999999998 12.909397,43.17549,827.794 12.90903451039178,43.17545076684279,830.567 12.90892872229788,43.17541841288227,830.567 12.90891,43.17533,833.3189999999998 12.90900643486292,43.17527550248526,836.1089999999999 12.9092948901179,43.17528620283772,838.6189999999999 12.90955909696792,43.17519115656456,841.8089999999997 12.90981456005189,43.17509451810308,844.8529999999997 12.91006,43.17498,847.8119999999999 12.91021401135028,43.17484110669094,850.9780000000001 12.91052,43.17465,853.8269999999999 12.91074553420252,43.17451607725597,856.823 12.91085,43.17428,859.932 12.91097411717461,43.17408723679825,863.038 12.911095,43.173905,866.1899999999999 12.91123109669209,43.17375006757552,869.1729999999999 12.91144213685192,43.17362006146776,871.9909999999998 12.91162018909577,43.17350766154493,874.681 12.91173647639142,43.17340393692231,877.2190000000001 12.91176764403557,43.17321270006122,879.9089999999999 12.9118,43.17308,882.7809999999998 12.91192289790311,43.17294292971128,885.3399999999999 12.91203808719815,43.17283019942888,887.9959999999999 12.91228,43.17272,890.1549999999999 12.91248611656014,43.17260446652298,892.7709999999998 12.912813,43.172307,895.1699999999998 12.913085,43.172085,897.5659999999999 12.913358,43.171862,899.838 12.91363,43.17164,902.0709999999999 12.91375164962425,43.17152313288644,904.157 12.91384,43.17136,906.2 12.91384,43.17106,908.42 12.913775,43.17087,910.509 12.91366132423634,43.17068877011425,912.5569999999999 12.913535,43.170495,914.4859999999999 12.91341717961532,43.17034738913631,916.4619999999999 12.91339543512011,43.17018224104982,916.4619999999999 12.91337759416922,43.17011923868029,916.4619999999999 12.91334025534116,43.17004268221631,916.4619999999999 12.91330064929916,43.16997187489818,916.4619999999999 12.9132686969369,43.16989255120175,916.4619999999999 12.91322501727901,43.16981402432312,916.4619999999999 12.91321308240604,43.16976016891103,916.4619999999999 12.91320287166027,43.16969276265198,916.4619999999999 12.913191638364,43.16962424690565,916.4619999999999 12.91317503406942,43.1695498319073,916.4619999999999 12.91315818113849,43.16943732576559,916.4619999999999 12.91316085697556,43.16925498572296,916.4619999999999 12.91313157849648,43.16925044612439,916.4619999999999 12.91314292953569,43.169436799301,916.4619999999999 12.91316293276896,43.16955121137024,916.4619999999999 12.91317925416427,43.16962986072971,916.4619999999999 12.91319338058979,43.16969672918634,916.4619999999999 12.91320485117165,43.16976333697552,916.4619999999999 12.91321729975395,43.16981410681286,916.4619999999999 12.91325914720196,43.16989375567179,916.4619999999999 12.91329328424212,43.1699735252285,916.4619999999999 12.91333056659746,43.17004247373282,916.4619999999999 12.91336691906767,43.17011993173805,916.4619999999999 12.91338598857279,43.17018116517523,916.4619999999999 12.91339961839308,43.17031129667477,916.4619999999999 12.91338515184852,43.17032141336752,916.4619999999999 12.913195,43.17005,918.3609999999999 12.91303,43.16979,920.0269999999998 12.9128,43.16957,921.8859999999999 12.91265,43.16939,923.4519999999998 12.91264745344298,43.16933187368198,925.0639999999997 12.91263,43.16906,926.3470000000001 12.91274188149913,43.16891985204618,927.6590000000001 12.91284,43.16859,929.103 12.91276,43.16829,931.3229999999999 12.91284,43.16814,932.909 12.91283,43.1679,934.6469999999999 12.91298,43.167683,936.1459999999998 12.91313,43.167467,937.792 12.91325897888874,43.16723846090579,939.211 12.91322,43.16699,941.187 12.91306,43.166815,943.196 12.9129,43.16664,944.9719999999999 12.912815,43.166435,946.734 12.91273,43.16623,948.687 12.912795,43.166045,950.2929999999998 12.91286,43.16586,951.7649999999999 12.912855,43.165615,953.4210000000002 12.91285,43.16537,955.2089999999999 12.912965,43.165205,956.9710000000001 12.91308,43.16504,958.8899999999999 12.913245,43.164925,960.5959999999999 12.91341,43.16481,962.345 12.91344,43.164525,964.5510000000002 12.91347,43.16424,966.5199999999999 12.913555,43.164055,968.2659999999998 12.91363009657488,43.16391607828291,969.7579999999999 12.91357720874369,43.16387210108693,969.7579999999999 12.91345,43.16386,971.6309999999999 12.91325441785355,43.1638054627183,973.518 12.91311,43.16366,975.2979999999999 12.912985,43.163375,976.817 12.91286,43.16309,978.3089999999999 12.91286,43.16288,979.6229999999999 12.91286,43.16267,981.0519999999999 12.912887,43.162425,982.2179999999997 12.912915,43.162181,983.697 12.912942,43.161936,984.6229999999999 12.91297,43.16169,985.582 12.913015,43.1615,986.218 12.91306,43.16131,986.8899999999999 12.913145,43.161065,987.5329999999998 12.91323,43.16082,988.556 12.91319,43.160625,989.759 12.91315,43.16043,990.814 12.9132,43.16024,991.309 12.91345,43.160115,991.367 12.9137,43.15999,991.2859999999999 12.91387,43.159795,991.6119999999999 12.91404,43.1596,992.2910000000001 12.91417,43.1593,993.8969999999999 12.91442,43.159265,993.6559999999998 12.91467,43.15923,993.4719999999999 12.91502,43.15916,993.734 12.91527,43.15924,994.057 12.91567,43.15922,994.6609999999999 12.91598,43.15931,995.1209999999999 12.916206,43.15931,996.2129999999999 12.91643,43.15931,997.509 12.91661,43.15922,999.1379999999998 12.91676836584465,43.15911324351359,1000.667 12.91682325808379,43.15901743371205,1000.667 12.9168122758301,43.15887847575679,1002.343 12.91672085773251,43.15862533311893,1004.172 12.91662603559812,43.15838633498328,1005.738 12.916555,43.158205,1007.327 12.91644,43.15804,1008.953 12.916405,43.157795,1010.295 12.91637,43.15755,1011.338 12.916315,43.15735,1012.615 12.91626,43.15715,1014.065 12.91629269427736,43.15703735288528,1015.111 12.91654270778729,43.15695361716359,1015.409 12.91677303960795,43.15688807061376,1015.723 12.91710557951094,43.1567960199071,1016.022 12.9173194714036,43.15681218040244,1016.488 12.91744773501287,43.15681787655107,1016.488 12.91758136396372,43.15678055645192,1016.767 12.91774755801478,43.15665841140146,1017.323 12.91786,43.15651,1017.622 12.91803281195331,43.15621816265184,1018.298 12.9182,43.15595,1018.528 12.918233,43.155737,1018.689 12.918267,43.155524,1018.617 12.9183,43.15531,1018.709 12.918395,43.155125,1018.434 12.91849,43.15494,1018.253 12.91859,43.154713,1018.119 12.91869,43.154487,1018.118 12.91879,43.15426,1018.174 12.91884,43.15421,1018.093 12.9189,43.1542,1017.899 12.9193,43.1543,1017.151 12.919556,43.15434,1016.974 12.91979341625252,43.15439677256997,1016.993 12.92006,43.154475,1017.165 12.92031,43.15457,1017.221 12.920505,43.154685,1017.309 12.9207,43.1548,1017.481 12.9209,43.154975,1017.37 12.92106873077465,43.15515943742857,1017.436 12.92126991789905,43.15539016498879,1017.395 12.92147,43.15562,1017.111 12.92165,43.155858,1017.13 12.92183,43.156096,1017.336 12.92201,43.156334,1017.818 12.92217409673725,43.15658407376848,1018.081 12.92237,43.15681,1018.293 12.92259,43.15704,1018.665 12.92281,43.15727,1019.021 12.922955,43.1574,1019.409 12.9231,43.15753,1019.721 12.92336,43.157713,1020.29 12.92362,43.157897,1020.696 12.92385804369119,43.15810670252242,1021.285 12.92413256274512,43.15827177000507,1021.811 12.92433,43.15827,1022.42 12.92463,43.15815,1023.146 12.92491,43.1581,1023.648 12.92526,43.15793,1024.511 12.92541,43.15822,1024.076 12.92556,43.15851,1023.79 12.92594,43.15861,1024.019 12.9262,43.15872,1024.209 12.926455,43.1589,1024.459 12.92671,43.15908,1024.638 12.92688,43.15924,1024.784 12.92668,43.159433,1023.843 12.92648,43.159627,1022.949 12.92628,43.15982,1022.088 12.92605889111132,43.15999449600482,1021.074 12.92612084469302,43.15979285938402,1020.356 12.92608131507654,43.15979133981725,1020.356 12.92602546839035,43.16000983605334,1021.089 12.92619357137626,43.16012532251393,1018.768 12.92630702979805,43.16022569189389,1017.842 12.92631147698573,43.16033503533699,1016.726 12.92622121989841,43.16035764773017,1015.409 12.92614612822437,43.16044616674514,1013.928 12.92611,43.16061,1012.437 12.92608876890318,43.16082261148502,1010.853 12.92609452148341,43.16103234201654,1009.172 12.92611,43.16125,1007.498 12.9262,43.16155,1005.897 12.92629,43.161705,1004.253 12.92638,43.16186,1002.695 12.92646,43.162015,1000.798 12.92654,43.16217,998.7369999999999 12.92668,43.16233,996.4489999999998 12.92700796389614,43.16252173959235,994.313 12.92735299442411,43.16267154170498,992.3089999999997 12.92763,43.163075,987.894 12.92773668024019,43.16324847239441,985.3799999999999 12.9279578816693,43.16395532819222,978.824 12.92797354531572,43.16411259052196,976.55 12.9279591312471,43.16430721486727,973.9719999999999 12.92795693152925,43.16445334819036,971.3949999999999 12.92796613696592,43.16462272463696,968.586 12.92810565267765,43.16493522110142,965.86 12.92816,43.16537,963.1259999999999 12.92819090423702,43.16564496213863,960.509 12.92825816820198,43.16591249540122,957.79 12.92833,43.16618,954.8289999999998 12.92842909593868,43.16643439796316,952.275 12.92855,43.166695,949.6240000000001 12.92866,43.166952,947.08 12.92877,43.16721,944.359 12.928865,43.16737,941.8849999999999 12.92896,43.16753,939.457 12.929123,43.16777,937.1299999999999 12.92926613959241,43.16801335545844,934.7879999999999 12.92942745828793,43.16825727288327,932.4239999999999 12.92957840050454,43.16851361632177,930.126 12.92973502961264,43.1687392452912,928.1089999999999 12.92993255375193,43.16898334791981,926.2499999999999 12.93008737925511,43.16918883148414,924.539 12.9302472192546,43.16939477345403,922.8750000000001 12.93042309904587,43.1696021940595,921.054 12.93055688798596,43.16971490275752,919.42 12.93098,43.16988,917.999 12.93122367144291,43.16995190583086,916.645 12.93148786834143,43.16999193702514,915.367 12.93165401227036,43.16998006923772,914.1699999999998 12.93175213166075,43.16992453155024,912.8819999999999 12.93182799791078,43.16980934410651,911.7430000000001 12.93191406881284,43.16958429478807,910.8169999999999 12.93197283334864,43.16936603513106,909.909 12.93203433766472,43.16916090919449,908.9099999999999 12.93213878253449,43.16896030650721,907.749 12.93229404425347,43.16881117520122,906.4749999999999 12.9323857343906,43.16862575337822,905.0339999999999 12.93251852776549,43.16835604229698,903.95 12.93265899614262,43.16808846095149,902.6889999999999 12.9328608587637,43.16783434095576,901.0649999999999 12.93303,43.16767,899.427 12.93321025730096,43.16760095930363,897.7799999999999 12.93383000314902,43.16755494115863,896.0340000000001 12.93406370281642,43.1674920517714,894.3549999999999 12.93421516473397,43.16738305648273,892.9099999999999 12.93432241197964,43.16724147517156,891.5089999999999 12.93442029588905,43.16708276816209,890.0949999999998 12.93456330112085,43.16681671041386,888.4939999999998 12.93469473134581,43.16654457474547,886.7699999999999 12.93482228727417,43.16627324496653,885.0989999999999 12.93492377251099,43.16605069090364,883.1149999999998 12.93504623908303,43.16583313190441,881.2839999999999 12.93516283426314,43.16565502963662,879.1699999999998 12.93529490700123,43.16547603000932,877.0819999999999 12.9354353562453,43.16533279641692,874.735 12.93566347938302,43.16514859120925,872.422 12.93589241118514,43.16496701458961,869.9619999999998 12.93613510572222,43.16479483241468,867.5079999999999 12.93639765623869,43.1646217933877,865.3090000000002 12.93659502078808,43.1644984697577,862.9940000000001 12.93679742693312,43.16439194261933,860.1929999999999 12.93707056322255,43.16428819076778,852.184 12.93735839467446,43.16418141857313,849.333 12.93765265801351,43.16409316740538,846.4389999999999 12.93793905126691,43.16397490044492,843.4109999999998 12.93818813268532,43.16384123808672,840.744 12.93828119956206,43.16382295034353,840.744 12.93840304053365,43.16381246170662,838.1369999999999 12.93850382941166,43.16386389752181,838.1369999999999 12.93860797406982,43.16393911254504,834.949 12.93880480952067,43.16414009688942,831.9129999999998 12.93892415690917,43.16422862047084,831.9129999999998 12.93903732216549,43.16428509885334,829.009 12.93920698311356,43.16429245990695,829.009 12.9393784667721,43.16426926907223,826.415 12.93959256701537,43.16422168677438,823.9339999999999 12.93981652246721,43.16419259246404,821.4900000000001 12.94008072530286,43.16416122912635,818.899 12.94033057969494,43.1641700847369,816.285 12.940932431661,43.16427790711103,810.84 12.941595,43.1644,803.683 12.94179528846565,43.16448448691755,801.2249999999999 12.94201,43.16458,798.8169999999998 12.94221168409049,43.16470069365361,796.6089999999999 12.94243892943851,43.16485475755731,794.29 12.94266,43.16501,792.019 12.942915,43.16523,789.625 12.94317,43.16545,787.174 12.943367,43.165638,784.9299999999999 12.943565,43.165825,782.8489999999999 12.943763,43.166013,780.7449999999999 12.94396,43.1662,778.8270000000001 12.94414,43.166335,776.96 12.94431789123852,43.16642989007365,775.0940000000001 12.94453906554537,43.16654168112176,773.2569999999999 12.94475047859639,43.16661104031729,771.422 12.94509616173381,43.16670929949297,769.609 12.94513534860292,43.16675216229329,769.609 12.94514656876518,43.166827646727,767.621 12.9450838992247,43.16685955753959,767.621 12.94495,43.16686,765.74 12.94469911618285,43.16683714308014,764.066 12.94436069577833,43.16679996571388,762.225 12.94411837596414,43.16676570378068,760.561 12.94390216245184,43.1667171075291,758.6799999999999 12.9435494942308,43.16655004539719,756.746 12.94332263959582,43.16642518900206,754.998 12.94308712601069,43.16627231739046,753.181 12.94284,43.16613,751.119 12.9425538589981,43.16600556036985,749.109 12.942295,43.16591,747.119 12.94203,43.16582,745.009 12.94171750678317,43.16572478573653,742.9930000000001 12.94137,43.16564,740.6420000000001 12.941094,43.165625,738.458 12.94083418722396,43.16560221494473,736.237 12.94047233600883,43.16556122094624,734.143 12.94040502549526,43.16558542156131,734.143 12.94036489734462,43.16563047076202,731.7819999999999 12.94036917257111,43.16567624543335,731.7819999999999 12.94040891046163,43.16570845376754,729.1180000000001 12.94063,43.165775,726.75 12.94087,43.16584,724.333 12.941221,43.165975,721.782 12.94159653144105,43.16614384562028,719.143 12.94180406972817,43.16628455788765,716.317 12.942024,43.166463,713.609 12.94225,43.16664,711.02 12.942455,43.16684,708.259 12.94265168565289,43.16705477336324,705.485 12.942777,43.16724,702.574 12.942893,43.16744,699.89 12.94299369997748,43.16766586143274,697.139 12.94307565908118,43.1678134445995,697.139 12.94319038375216,43.1679312616973,694.125 12.94339997698981,43.16810877994728,691.457 12.943613,43.168253,688.61 12.94382,43.16842,685.885 12.944073,43.168643,682.989 12.94431197149243,43.16889391955164,680.117 12.94458063697461,43.16911928089505,677.309 12.94492901972386,43.16925308303373,674.78 12.94505163056036,43.16935539076918,672.079 12.9450227793222,43.1694093537101,672.079 12.94489822290214,43.16943925364365,669.5650000000001 12.94472,43.16938,667.164 12.94436054767209,43.16924713160382,664.96 12.944032,43.169099,662.779 12.94369191229842,43.16896834746363,660.635 12.943414,43.1689,658.397 12.94312762574909,43.16888214164718,656.29 12.9428823578222,43.16887380098949,653.9349999999999 12.94263792956958,43.16884257558627,651.586 12.94251564578684,43.16879505205019,651.586 12.94242,43.16872,649.314 12.9422,43.16845,647.509 12.94196,43.1682,645.485 12.94162884766347,43.16803607546943,643.144 12.94133556947362,43.16799010175945,641.1799999999999 12.94086104003277,43.1680496478414,639.189 12.94058652063282,43.16813641214591,637.045 12.94056607576892,43.16818565468594,637.045 12.94057713894961,43.16824145752321,635.054 12.94083306574551,43.1682714597535,633.09 12.94105378743479,43.16828534576011,631.292 12.94126548579753,43.1683014062591,629.415 12.94146966014518,43.16835848788108,627.897 12.9415572214058,43.16844627837757,627.897 12.94167,43.1686,626.023 12.941745,43.168825,624.125 12.94182,43.16905,622.2089999999999 12.941867,43.169295,620.231 12.941915,43.169539,618.53 12.941962,43.169784,616.886 12.94201,43.17003,615.345 12.94207,43.17026,613.7809999999999 12.94216720037566,43.17033216118428,612.51 12.94225680920496,43.17033828113775,612.51 12.94231558956883,43.17032009702786,611.456 12.9424,43.17024,610.648 12.94253,43.17008,609.851 12.94265893800843,43.17002400605994,608.936 12.942724851971,43.17003594241626,607.917 12.94276073936424,43.17009218594315,606.818 12.94267919410547,43.17018764511527,605.609 12.94248,43.17041,604.135 12.94241080370469,43.17060171988925,602.774 12.94229269490437,43.17068682254424,601.42 12.94210427621885,43.17067613606853,600.419 12.94199,43.17062,599.345 12.94171739407022,43.17045662078426,598.394 12.94135952453815,43.17032249527858,597.26 12.94114143103669,43.17029122455456,596.042 12.94092425978595,43.17026689499504,594.755 12.94074862027209,43.17026796725597,593.458 12.94058137414473,43.17027343534615,592.152 12.94039343109442,43.17032999334548,590.717 12.94031149753039,43.1703959328097,589.109 12.94031375525584,43.17052700213271,589.109 12.94036581432397,43.1706744142853,587.327 12.94047574422583,43.17086133193633,585.426 12.94056367560535,43.17093732381543,583.592 12.94074999593512,43.17096143226326,581.451 12.94106558209492,43.17103328940412,579.287 12.94138326561981,43.17111860674017,576.976 12.941684,43.171188,574.572 12.94199,43.17127,572.2140000000001 12.942331,43.17138,569.967 12.94267,43.17149,567.877 12.94301,43.17167,565.561 12.94305848815126,43.1718099440264,563.427 12.9429485090751,43.17204778373878,561.109 12.94279126329098,43.17224536839453,558.949 12.94263729809585,43.17243409660497,556.838 12.94244267352135,43.17268082282362,554.564 12.94234075531416,43.17284955450227,552.343 12.94234418615047,43.17295944889733,552.343 12.94239,43.173059,550.289 12.94256,43.173308,547.998 12.94282235116789,43.17357002732186,545.724 12.94306304423205,43.17380672493796,543.646 12.94305886818309,43.17387321752972,541.569 12.94300926102251,43.17390075970002,539.458 12.94290195626393,43.17388033139154,537.452 12.94270029048689,43.17373937193594,535.5170000000001 12.94247809309686,43.17360879754496,533.609 12.94217411799274,43.17353399203588,531.667 12.94192236764219,43.17355888770195,529.6660000000001 12.94178592307235,43.17361419714982,527.682 12.94166055420162,43.17375494608478,525.561 12.94168,43.173888,523.417 12.94197,43.174027,521.346 12.94225459963867,43.17417736061741,519.1420000000001 12.942431,43.174338,517.044 12.942603,43.17451,514.877 12.942742,43.174735,512.525 12.94286765348585,43.17496977984099,510.326 12.942946,43.175218,508.0079999999999 12.94301,43.175476,505.6089999999999 12.94302268874009,43.17576575848195,500.943 12.94303041382288,43.17605754800502,498.799 12.943053,43.176344,496.458 12.94305650571815,43.17663334588273,494.074 12.94306846217737,43.17691264029877,491.9929999999999 12.94307449310482,43.17720250930331,489.929 12.943048,43.177514,487.861 12.943,43.177814,485.754 12.942951,43.178114,483.799 12.94288859954894,43.17841224990646,481.9069999999999 12.94278,43.178667,480.127 12.94266453609628,43.17893435083564,478.509 12.94254979863451,43.1791880434738,477.1209999999999 12.94241,43.179424,475.8699999999999 12.942267,43.179674,474.876 12.94210325430462,43.17990294944477,474.1850000000001 12.94196025218366,43.18015368076926,473.751 12.94183066099516,43.18041577311993,473.3199999999999 12.941695,43.180675,473.276 12.94157173546608,43.18092613680265,473.558 12.94162624368558,43.1811090578149,474.361 12.941744,43.181183,475.351 12.94180173662238,43.18103120123327,476.8009999999998 12.94200961306949,43.18086465202381,478.511 12.94223358267981,43.18068744543153,480.6089999999999 12.94245830805284,43.18050122625746,482.9470000000001 12.942624,43.180304,485.416 12.9427881273459,43.18003197446761,488.152 12.94299001723644,43.17977150317658,490.9109999999999 12.94320167581181,43.17950075518356,493.927 12.94340765354746,43.17924857755371,496.836 12.94359,43.178973,499.932 12.94366805334392,43.17878237581701,502.814 12.94369599369592,43.17857203953778,505.757 12.94402453311908,43.17854402528757,508.464 12.944191,43.178501,511.1059999999999 12.94434956026296,43.1783904559762,513.616 12.94443498804341,43.17821238821413,516.009 12.944727,43.17805,518.258 12.9450323772164,43.17788780757651,520.367 12.945321,43.177714,522.453 12.945614,43.177528,523.822 12.945907,43.177342,525.168 12.9461,43.177267,526.227 12.946293,43.177192,527.183 12.946691,43.17716,527.465 12.947087,43.177128,527.878 12.947474,43.177063,528.2430000000001 12.947581,43.176978,528.264 12.947581,43.176699,528.01 12.947431,43.176527,527.809 12.947345,43.176313,527.056 12.947259,43.176098,526.215 12.947173,43.175883,525.371 12.947152,43.175604,523.91 12.94698,43.175325,522.926 12.947039,43.17509,521.135 12.947098,43.174854,519.271 12.947157,43.174618,517.393 12.94722039519688,43.17438249581262,515.686 12.94739621772136,43.17441586770354,515.686 12.94752321368087,43.17440585879172,513.212 12.947516,43.17436,511.732 12.947795,43.174188,510.105 12.947989,43.174188,508.7089999999999 12.948203,43.174124,507.713 12.948418,43.174016,506.972 12.948804,43.173888,506.288 12.948954,43.173802,505.547 12.949104,43.173759,504.9429999999999 12.949448,43.173695,504.5319999999999 12.949555,43.173609,503.9279999999998 12.949641,43.173448,503.41 12.949727,43.173287,502.9929999999998 12.949727,43.173284,501.984 12.94974947854646,43.17331012744123,502.9169999999999 12.94969111945271,43.17347104975131,497.7089999999999 12.94958352923573,43.17361979170274,503.98 12.94946659492204,43.17371569303047,504.559 12.94911197030978,43.17377678815044,504.975 12.94897589487211,43.17382055242879,505.514 12.94882166162917,43.17390668318546,506.25 12.9484448817409,43.17404373296653,506.979 12.94822520911975,43.17414521704384,500.285 12.9480050701419,43.17423329163272,494.247 12.94801,43.17436,488.1399999999999 12.948031,43.174531,482.088 12.948117,43.174767,473.4239999999999 12.948296,43.175025,470.7259999999999 12.948475,43.175282,468.109 12.948654,43.17554,465.62 12.948745,43.175776,463.489 12.94882040229911,43.17601595768307,461.485 12.9488738489927,43.17623905431461,459.444 12.94903507655202,43.17651232323222,457.45 12.94927992175681,43.17650990772425,455.2289999999999 12.949534,43.176538,453.3349999999999 12.94979612561307,43.17661959053604,451.7669999999999 12.94997904349583,43.1767111364934,450.3899999999999 12.95017696408103,43.17685062240787,449.063 12.95037340283018,43.17696703982978,447.944 12.95058409566062,43.17718354367247,446.9179999999999 12.950778,43.177342,446.1089999999999 12.951036,43.177503,445.578 12.951293,43.177664,445.067 12.9514,43.177922,444.5629999999998 12.95141080537843,43.17813509376342,444.0219999999999 12.9514,43.178415,443.6879999999999 12.951529,43.178673,443.4569999999999 12.95167155788697,43.17880755758775,443.343 12.95185099151393,43.1789288594839,443.345 12.95213,43.179016,443.3279999999999 12.952495,43.179134,443.466 12.952859,43.179252,443.5289999999998 12.953053,43.179317,443.7209999999999 12.953364,43.179488,444.009 12.953675,43.17966,444.328 12.953987,43.179832,444.687 12.954297,43.180003,444.853 12.95450902851391,43.18016905416084,445.062 12.95467603969797,43.18034386467191,445.3279999999999 12.954855,43.180561,445.677 12.955027,43.180776,446.0429999999998 12.955141,43.180976,446.265 12.955255,43.181176,446.598 12.95537,43.181376,446.8579999999999 12.955638,43.181602,447.152 12.955906,43.181827,447.317 12.95593051219004,43.18187694895828,447.5090000000001 12.955908,43.181899,448.036 12.955908,43.1819,448.232 12.95591,43.1819,448.461 12.955746,43.182014,448.6770000000001 12.955434,43.18206,448.886 12.955124,43.182106,449.152 12.954905,43.182087,449.334 12.954686,43.182068,449.5169999999999 12.95438194950662,43.18204025784904,449.6969999999998 12.9541,43.181956,449.723 12.953795,43.18185,449.925 12.953491,43.181744,450.009 12.953265,43.181653,450.2509999999999 12.953039,43.181561,450.36 12.952818,43.181401,450.3759999999999 12.952596,43.18124,450.4549999999999 12.952243,43.181125,450.641 12.951891,43.18101,450.85 12.951558,43.180972,450.9359999999999 12.951228,43.180935,450.9179999999999 12.950996,43.180977,451.091 12.950766,43.18102,451.178 12.950563,43.181085,451.133 12.95036,43.18115,451.026 12.950099,43.181276,450.909 12.949839,43.181401,450.7189999999999 12.949483,43.181572,450.578 12.949127,43.181743,450.3740000000001 12.948771,43.181913,450.193 12.948415,43.182084,449.999 12.948061,43.182253,449.878 12.947741,43.182376,449.7839999999999 12.947422,43.182499,449.6960000000001 12.947102,43.182621,449.419 12.946784,43.182743,449.362 12.94648383202368,43.18281817571339,449.383 12.94611136729109,43.1828708501096,449.311 12.945862,43.182892,449.309 12.945437,43.182901,449.348 12.945012,43.182911,449.357 12.94459,43.18292,449.313 12.944304,43.18295,449.472 12.94402,43.18298,449.458 12.9438,43.18301,449.567 12.943473,43.18308,449.5529999999999 12.943145,43.18315,449.655 12.94282,43.18322,449.758 12.942439,43.18333,449.9979999999999 12.942058,43.18344,450.115 12.94168,43.18355,450.326 12.941449,43.18357,450.409 12.94122,43.18359,450.6610000000001 12.94117,43.1836,450.7699999999999 12.940935,43.183685,450.836 12.9407,43.18377,450.965 12.940366,43.183863,451.071 12.940032,43.183957,451.13 12.9397,43.18405,451.1559999999999 12.93952,43.1841,451.248 12.939289,43.184135,451.341 12.93906,43.18417,451.427 12.938652,43.184207,451.468 12.938245,43.184243,451.614 12.93784,43.18428,451.809 12.937524,43.18428,452.044 12.93721,43.18428,452.1129999999999 12.93678,43.184284,452.379 12.93635,43.184287,452.4179999999999 12.935921,43.184291,452.474 12.935491,43.184295,452.593 12.935061,43.184299,452.6689999999999 12.934631,43.184303,452.511 12.934201,43.184306,452.5740000000001 12.93385555254303,43.1843015422975,452.5719999999999 12.93374442647929,43.18430218347075,452.613 12.93344713861707,43.18436784957802,452.714 12.93289426153561,43.18432545066532,452.709 12.93252348970925,43.18413063161589,452.9979999999998 12.93191458676494,43.18374876476643,453.479 12.93155794532842,43.18363094792576,453.658 12.93114863583424,43.18355357575554,453.8639999999999 12.93008915891013,43.18375390209021,453.8639999999999 12.928982109661,43.1837692415729,454.1089999999999 12.92472282278684,43.18349450590121,455.633 12.92439903739185,43.18336184046131,455.626 12.92428713309783,43.1832799081207,455.509 12.92422058945658,43.18302484736893,455.5489999999999 12.92414773863516,43.18278125940704,455.4479999999999 12.92407345394178,43.18251308484916,455.534 12.92401477572086,43.18226288291561,455.6729999999999 12.92395913706738,43.18207041861274,455.739 12.92393373738766,43.18195856816955,455.918 12.92384847546985,43.18168639645428,456.174 12.92377800078207,43.18143059863397,456.4759999999999 12.92368829039757,43.18115147205552,456.929 12.92362210537748,43.18087085497412,457.6369999999999 12.92357,43.1806,458.449 12.92353034489069,43.18039828190183,459.413 12.92353,43.18026,460.609 12.92355,43.18007,462.0549999999999 12.9236,43.17987,463.584 
				</coordinates>
			</LineString>
		</Placemark>
		<Placemark>
			<name>(t)1</name>
			<description>Tappa 1 - Loc. Castello;Stage 1 - Loc. Castello</description>
			<LookAt>
				<gx:TimeStamp><when>2022-04-30</when>
</gx:TimeStamp>
				<gx:ViewerOptions>
					<gx:option name="historicalimagery"></gx:option>
					<gx:option enabled="0" name="sunlight"></gx:option>
					<gx:option enabled="0" name="streetview"></gx:option>
				</gx:ViewerOptions>
				<longitude>12.92362031449873</longitude>
				<latitude>43.17930365715659</latitude>
				<altitude>0</altitude>
				<heading>-0.01023670702888758</heading>
				<tilt>22.32158218099795</tilt>
				<range>282.0331627911896</range>
				<gx:altitudeMode>relativeToSeaFloor</gx:altitudeMode>
			</LookAt>
			<styleUrl>#msn_grn-pushpin</styleUrl>
			<Point>
				<gx:drawOrder>1</gx:drawOrder>
				<coordinates>12.92364660215715,43.17976937245971,0</coordinates>
			</Point>
		</Placemark>
		<Placemark>
			<name>1</name>
			<open>1</open>
			<description>Vai in direzione Sud;Go south</description>
			<LookAt>
				<gx:TimeStamp><when>2022-04-30</when>
</gx:TimeStamp>
				<gx:ViewerOptions>
					<gx:option name="historicalimagery"></gx:option>
					<gx:option enabled="0" name="sunlight"></gx:option>
					<gx:option enabled="0" name="streetview"></gx:option>
				</gx:ViewerOptions>
				<longitude>12.92362031449873</longitude>
				<latitude>43.17930365715659</latitude>
				<altitude>0</altitude>
				<heading>-0.01023670702888758</heading>
				<tilt>22.32158218099795</tilt>
				<range>282.0331627911896</range>
				<gx:altitudeMode>relativeToSeaFloor</gx:altitudeMode>
			</LookAt>
			<styleUrl>#msn_red-pushpin0</styleUrl>
			<Point>
				<gx:drawOrder>1</gx:drawOrder>
				<coordinates>12.92372076626536,43.17954120910639,0</coordinates>
			</Point>
		</Placemark>
		<Placemark>
			<name>2</name>
			<description>Gira a destra;Turn right</description>
			<LookAt>
				<longitude>12.92377679124062</longitude>
				<latitude>43.17912152138101</latitude>
				<altitude>0</altitude>
				<heading>-0.01451766136338887</heading>
				<tilt>19.66959606773641</tilt>
				<range>123.3344728161141</range>
				<gx:altitudeMode>relativeToSeaFloor</gx:altitudeMode>
			</LookAt>
			<styleUrl>#m_ylw-pushpin5</styleUrl>
			<Point>
				<gx:drawOrder>1</gx:drawOrder>
				<coordinates>12.92409540665477,43.17881722293565,0</coordinates>
			</Point>
		</Placemark>
		<Placemark>
			<name>3</name>
			<open>1</open>
			<description>Gira a destra;Turn right</description>
			<LookAt>
				<longitude>12.92377679124062</longitude>
				<latitude>43.17912152138101</latitude>
				<altitude>0</altitude>
				<heading>-0.01451766136338887</heading>
				<tilt>19.66959606773641</tilt>
				<range>123.3344728161141</range>
				<gx:altitudeMode>relativeToSeaFloor</gx:altitudeMode>
			</LookAt>
			<styleUrl>#m_ylw-pushpin5</styleUrl>
			<Point>
				<gx:drawOrder>1</gx:drawOrder>
				<coordinates>12.9236535906111,43.1789494929589,0</coordinates>
			</Point>
		</Placemark>
		<Placemark>
			<name>4</name>
			<open>1</open>
			<description>Gira a sinistra;Turn left</description>
			<LookAt>
				<longitude>12.92377679124062</longitude>
				<latitude>43.17912152138101</latitude>
				<altitude>0</altitude>
				<heading>-0.01451766136338887</heading>
				<tilt>19.66959606773641</tilt>
				<range>123.3344728161141</range>
				<gx:altitudeMode>relativeToSeaFloor</gx:altitudeMode>
			</LookAt>
			<styleUrl>#m_ylw-pushpin5</styleUrl>
			<Point>
				<gx:drawOrder>1</gx:drawOrder>
				<coordinates>12.92350423326257,43.17959168489024,0</coordinates>
			</Point>
		</Placemark>
		<Placemark>
			<name>5</name>
			<description>Continua dritto, immettendoti nella strada principale;Continue straight, entering the main road</description>
			<LookAt>
				<longitude>12.92377679124062</longitude>
				<latitude>43.17912152138101</latitude>
				<altitude>0</altitude>
				<heading>-0.01451766136338887</heading>
				<tilt>19.66959606773641</tilt>
				<range>123.3344728161141</range>
				<gx:altitudeMode>relativeToSeaFloor</gx:altitudeMode>
			</LookAt>
			<styleUrl>#m_ylw-pushpin5</styleUrl>
			<Point>
				<gx:drawOrder>1</gx:drawOrder>
				<coordinates>12.92322284469816,43.17945790496963,0</coordinates>
			</Point>
		</Placemark>
		<Placemark>
			<name>6</name>
			<description>Gira a sinistra;Turn left</description>
			<LookAt>
				<longitude>12.92246282704693</longitude>
				<latitude>43.17898374914157</latitude>
				<altitude>0</altitude>
				<heading>-0.01541679061547949</heading>
				<tilt>19.66959606773645</tilt>
				<range>123.3344728156805</range>
				<gx:altitudeMode>relativeToSeaFloor</gx:altitudeMode>
			</LookAt>
			<styleUrl>#m_ylw-pushpin5</styleUrl>
			<Point>
				<gx:drawOrder>1</gx:drawOrder>
				<coordinates>12.9220605347424,43.17908760103768,0</coordinates>
			</Point>
		</Placemark>
		<Placemark>
			<name>7</name>
			<description>Continua dritto e segui il percorso;Continue straight and follow the path</description>
			<LookAt>
				<longitude>12.9219258860104</longitude>
				<latitude>43.17520840211962</latitude>
				<altitude>0</altitude>
				<heading>-0.01578347079263839</heading>
				<tilt>19.67011082419376</tilt>
				<range>293.6908198339773</range>
				<gx:altitudeMode>relativeToSeaFloor</gx:altitudeMode>
			</LookAt>
			<styleUrl>#m_ylw-pushpin5</styleUrl>
			<Point>
				<gx:drawOrder>1</gx:drawOrder>
				<coordinates>12.92107027199256,43.17516523244364,0</coordinates>
			</Point>
		</Placemark>
		<Placemark>
			<name>8</name>
			<description>Tieni la sinistra e continua lungo il percorso;Keep left and continue along the path</description>
			<LookAt>
				<longitude>12.90941063191333</longitude>
				<latitude>43.17478257939895</latitude>
				<altitude>0</altitude>
				<heading>-0.02168188306697601</heading>
				<tilt>23.61731683466242</tilt>
				<range>115.6157283044441</range>
				<gx:altitudeMode>relativeToSeaFloor</gx:altitudeMode>
			</LookAt>
			<styleUrl>#m_ylw-pushpin5</styleUrl>
			<Point>
				<gx:drawOrder>1</gx:drawOrder>
				<coordinates>12.90888953186148,43.17536753399063,0</coordinates>
			</Point>
		</Placemark>
		<Placemark>
			<name>9</name>
			<open>1</open>
			<description>Svolta a sinistra per Fonte delle Gocce;Turn left onto Fonte delle Gocce</description>
			<LookAt>
				<gx:TimeStamp><when>2022-04-30</when>
</gx:TimeStamp>
				<gx:ViewerOptions>
					<gx:option name="historicalimagery"></gx:option>
					<gx:option enabled="0" name="sunlight"></gx:option>
					<gx:option enabled="0" name="streetview"></gx:option>
				</gx:ViewerOptions>
				<longitude>12.91308175377148</longitude>
				<latitude>43.16974810836373</latitude>
				<altitude>0</altitude>
				<heading>-0.01784623931003322</heading>
				<tilt>25.00571220187096</tilt>
				<range>223.5745553782375</range>
				<gx:altitudeMode>relativeToSeaFloor</gx:altitudeMode>
			</LookAt>
			<styleUrl>#msn_red-pushpin0</styleUrl>
			<Point>
				<gx:drawOrder>1</gx:drawOrder>
				<coordinates>12.91341875351685,43.17036837086749,0</coordinates>
			</Point>
		</Placemark>
		<Placemark>
			<name>(t)2</name>
			<open>1</open>
			<description>Tappa 2 - Fonte delle Cocce;Stage 2 - Fonte delle Cocce</description>
			<LookAt>
				<gx:TimeStamp><when>2022-04-30</when>
</gx:TimeStamp>
				<gx:ViewerOptions>
					<gx:option name="historicalimagery"></gx:option>
					<gx:option enabled="0" name="sunlight"></gx:option>
					<gx:option enabled="0" name="streetview"></gx:option>
				</gx:ViewerOptions>
				<longitude>12.91307876315712</longitude>
				<latitude>43.1696855851838</latitude>
				<altitude>0</altitude>
				<heading>-0.01756911605048905</heading>
				<tilt>28.72379676433213</tilt>
				<range>191.2268854093592</range>
				<gx:altitudeMode>relativeToSeaFloor</gx:altitudeMode>
			</LookAt>
			<styleUrl>#msn_grn-pushpin</styleUrl>
			<Point>
				<gx:drawOrder>1</gx:drawOrder>
				<coordinates>12.91318778150499,43.16925862908855,0</coordinates>
			</Point>
		</Placemark>
		<Placemark>
			<name>9_2</name>
			<open>1</open>
			<description>Torna indietro lungo lo stesso tragitto;Go back along the same route</description>
			<LookAt>
				<gx:TimeStamp><when>2022-04-30</when>
</gx:TimeStamp>
				<gx:ViewerOptions>
					<gx:option name="historicalimagery"></gx:option>
					<gx:option enabled="0" name="sunlight"></gx:option>
					<gx:option enabled="0" name="streetview"></gx:option>
				</gx:ViewerOptions>
				<longitude>12.913345540665</longitude>
				<latitude>43.16976458034181</latitude>
				<altitude>0</altitude>
				<heading>-0.01738649579062714</heading>
				<tilt>28.72403049893812</tilt>
				<range>245.3793168758407</range>
				<gx:altitudeMode>relativeToSeaFloor</gx:altitudeMode>
			</LookAt>
			<styleUrl>#msn_red-pushpin0</styleUrl>
			<Point>
				<gx:drawOrder>1</gx:drawOrder>
				<coordinates>12.91311273790308,43.16925472242819,0</coordinates>
			</Point>
		</Placemark>
		<Placemark>
			<name>9_3</name>
			<open>1</open>
			<description>Svolta tutto a sinistra e prendi la strada principale;Turn hard left and take the main road</description>
			<LookAt>
				<gx:TimeStamp><when>2022-04-30</when>
</gx:TimeStamp>
				<gx:ViewerOptions>
					<gx:option name="historicalimagery"></gx:option>
					<gx:option enabled="0" name="sunlight"></gx:option>
					<gx:option enabled="0" name="streetview"></gx:option>
				</gx:ViewerOptions>
				<longitude>12.91293499419706</longitude>
				<latitude>43.1697240753609</latitude>
				<altitude>0</altitude>
				<heading>-0.01766733122783643</heading>
				<tilt>28.72432436486066</tilt>
				<range>313.4210139065958</range>
				<gx:altitudeMode>relativeToSeaFloor</gx:altitudeMode>
			</LookAt>
			<styleUrl>#msn_red-pushpin0</styleUrl>
			<Point>
				<gx:drawOrder>1</gx:drawOrder>
				<coordinates>12.91337355648952,43.17027745809982,0</coordinates>
			</Point>
		</Placemark>
		<Placemark>
			<name>9</name>
			<open>1</open>
			<description>Tieni la sinistra e continua lungo il percorso;Keep left and continue along the path</description>
			<LookAt>
				<longitude>12.91546195674337</longitude>
				<latitude>43.15689089643933</latitude>
				<altitude>0</altitude>
				<heading>-0.0175421990569253</heading>
				<tilt>23.61872524780362</tilt>
				<range>507.175215005988</range>
				<gx:altitudeMode>relativeToSeaFloor</gx:altitudeMode>
			</LookAt>
			<styleUrl>#m_ylw-pushpin5</styleUrl>
			<Point>
				<gx:drawOrder>1</gx:drawOrder>
				<coordinates>12.91617611653182,43.15707833261759,0</coordinates>
			</Point>
		</Placemark>
		<Placemark>
			<name>10</name>
			<open>1</open>
			<description>Tieni la sinistra e continua lungo il percorso;Keep left and continue along the path</description>
			<LookAt>
				<longitude>12.91768852667898</longitude>
				<latitude>43.15699881532638</latitude>
				<altitude>0</altitude>
				<heading>-0.01601849320489827</heading>
				<tilt>23.62058910971194</tilt>
				<range>1025.009961902733</range>
				<gx:altitudeMode>relativeToSeaFloor</gx:altitudeMode>
			</LookAt>
			<styleUrl>#m_ylw-pushpin5</styleUrl>
			<Point>
				<gx:drawOrder>1</gx:drawOrder>
				<coordinates>12.91871300392678,43.15420915902757,0</coordinates>
			</Point>
		</Placemark>
		<Placemark>
			<name>11</name>
			<open>1</open>
			<description>Tieni la destra e continua lungo il percorso;Keep right and continue along the path</description>
			<LookAt>
				<longitude>12.9236255974188</longitude>
				<latitude>43.15782757372823</latitude>
				<altitude>0</altitude>
				<heading>-0.01195753659667786</heading>
				<tilt>23.62058910971194</tilt>
				<range>1025.009961901686</range>
				<gx:altitudeMode>relativeToSeaFloor</gx:altitudeMode>
			</LookAt>
			<styleUrl>#m_ylw-pushpin5</styleUrl>
			<Point>
				<gx:drawOrder>1</gx:drawOrder>
				<coordinates>12.92421053842355,43.15844644215499,0</coordinates>
			</Point>
		</Placemark>
		<Placemark>
			<name>12</name>
			<description>Tieni la sinistra e continua lungo il percorso;Keep left and continue along the path</description>
			<LookAt>
				<longitude>12.92398429991746</longitude>
				<latitude>43.15868829751159</latitude>
				<altitude>0</altitude>
				<heading>-0.01171221169150319</heading>
				<tilt>23.62058910971194</tilt>
				<range>1025.009961899544</range>
				<gx:altitudeMode>relativeToSeaFloor</gx:altitudeMode>
			</LookAt>
			<styleUrl>#m_ylw-pushpin5</styleUrl>
			<Point>
				<gx:drawOrder>1</gx:drawOrder>
				<coordinates>12.92545592392871,43.157922731966,0</coordinates>
			</Point>
		</Placemark>
		<Placemark>
			<name>13</name>
			<open>1</open>
			<description>Tieni la sinistra e continua lungo il percorso;Keep left and continue along the path</description>
			<LookAt>
				<gx:TimeStamp><when>2022-04-30</when>
</gx:TimeStamp>
				<gx:ViewerOptions>
					<gx:option name="historicalimagery"></gx:option>
					<gx:option enabled="0" name="sunlight"></gx:option>
					<gx:option enabled="0" name="streetview"></gx:option>
				</gx:ViewerOptions>
				<longitude>12.92593625726108</longitude>
				<latitude>43.1594981061599</latitude>
				<altitude>0</altitude>
				<heading>-0.00816785733679834</heading>
				<tilt>25.81029788122048</tilt>
				<range>211.6041996952331</range>
				<gx:altitudeMode>relativeToSeaFloor</gx:altitudeMode>
			</LookAt>
			<styleUrl>#msn_red-pushpin0</styleUrl>
			<Point>
				<gx:drawOrder>1</gx:drawOrder>
				<coordinates>12.92689257528203,43.15924295705048,0</coordinates>
			</Point>
		</Placemark>
		<Placemark>
			<name>(t)3</name>
			<open>1</open>
			<description>Tappa 3 - Fonte del Piscio;Stage 3 - Fonte del Piscio</description>
			<LookAt>
				<gx:TimeStamp><when>2022-04-30</when>
</gx:TimeStamp>
				<gx:ViewerOptions>
					<gx:option name="historicalimagery"></gx:option>
					<gx:option enabled="0" name="sunlight"></gx:option>
					<gx:option enabled="0" name="streetview"></gx:option>
				</gx:ViewerOptions>
				<longitude>12.92593625726108</longitude>
				<latitude>43.1594981061599</latitude>
				<altitude>0</altitude>
				<heading>-0.00816785733679834</heading>
				<tilt>25.81029788122048</tilt>
				<range>211.6041996952331</range>
				<gx:altitudeMode>relativeToSeaFloor</gx:altitudeMode>
			</LookAt>
			<styleUrl>#msn_grn-pushpin</styleUrl>
			<Point>
				<gx:drawOrder>1</gx:drawOrder>
				<coordinates>12.92615992345976,43.15977302188631,0</coordinates>
			</Point>
		</Placemark>
		<Placemark>
			<name>14</name>
			<open>1</open>
			<description>Tieni la destra e continua lungo il percorso;Keep right and continue along the path</description>
			<LookAt>
				<longitude>12.9417048487379</longitude>
				<latitude>43.17204046433751</latitude>
				<altitude>0</altitude>
				<heading>-0.001314067294940109</heading>
				<tilt>9.772555123449358</tilt>
				<range>354.0927772162114</range>
				<gx:altitudeMode>relativeToSeaFloor</gx:altitudeMode>
			</LookAt>
			<styleUrl>#m_ylw-pushpin5</styleUrl>
			<Point>
				<gx:drawOrder>1</gx:drawOrder>
				<coordinates>12.94054942321361,43.17088748877285,0</coordinates>
			</Point>
		</Placemark>
		<Placemark>
			<name>15</name>
			<description>Gira a destra;Turn right</description>
			<LookAt>
				<longitude>12.94160423767702</longitude>
				<latitude>43.18053926437662</latitude>
				<altitude>0</altitude>
				<heading>-0.00138304214057652</heading>
				<tilt>9.772555123449358</tilt>
				<range>354.0927772111976</range>
				<gx:altitudeMode>relativeToSeaFloor</gx:altitudeMode>
			</LookAt>
			<styleUrl>#m_ylw-pushpin5</styleUrl>
			<Point>
				<gx:drawOrder>1</gx:drawOrder>
				<coordinates>12.94157733985297,43.18086445830318,0</coordinates>
			</Point>
		</Placemark>
		<Placemark>
			<name>(t)4</name>
			<open>1</open>
			<description>Tappa 4 - Pontile;Stage 4 - Pontile</description>
			<LookAt>
				<gx:TimeStamp><when>2022-04-30</when>
</gx:TimeStamp>
				<gx:ViewerOptions>
					<gx:option name="historicalimagery"></gx:option>
					<gx:option enabled="0" name="sunlight"></gx:option>
					<gx:option enabled="0" name="streetview"></gx:option>
				</gx:ViewerOptions>
				<longitude>12.94163560605116</longitude>
				<latitude>43.18078294893965</latitude>
				<altitude>0</altitude>
				<heading>0.001821835911765196</heading>
				<tilt>30.00084181200759</tilt>
				<range>187.9718245657222</range>
				<gx:altitudeMode>relativeToSeaFloor</gx:altitudeMode>
			</LookAt>
			<styleUrl>#msn_grn-pushpin</styleUrl>
			<Point>
				<gx:drawOrder>1</gx:drawOrder>
				<coordinates>12.94160057229824,43.18111365528565,0</coordinates>
			</Point>
		</Placemark>
		<Placemark>
			<name>16</name>
			<open>1</open>
			<description>Gira a destra;Turn right</description>
			<LookAt>
				<longitude>12.94185751495677</longitude>
				<latitude>43.18087946812408</latitude>
				<altitude>0</altitude>
				<heading>-0.0001030036382812347</heading>
				<tilt>16.73398333901149</tilt>
				<range>162.2648516864624</range>
				<gx:altitudeMode>relativeToSeaFloor</gx:altitudeMode>
			</LookAt>
			<styleUrl>#m_ylw-pushpin5</styleUrl>
			<Point>
				<gx:drawOrder>1</gx:drawOrder>
				<coordinates>12.94172250474816,43.18115976055505,0</coordinates>
			</Point>
		</Placemark>
		<Placemark>
			<name>17</name>
			<description>Gira a sinistra;Turn left</description>
			<LookAt>
				<longitude>12.94365845665654</longitude>
				<latitude>43.17907265758679</latitude>
				<altitude>0</altitude>
				<heading>0.001129483584057367</heading>
				<tilt>16.73409651442577</tilt>
				<range>206.109876366616</range>
				<gx:altitudeMode>relativeToSeaFloor</gx:altitudeMode>
			</LookAt>
			<styleUrl>#m_ylw-pushpin5</styleUrl>
			<Point>
				<gx:drawOrder>1</gx:drawOrder>
				<coordinates>12.94371394393539,43.17860522793234,0</coordinates>
			</Point>
		</Placemark>
		<Placemark>
			<name>18</name>
			<description>Tieni la sinistra;Keep left</description>
			<LookAt>
				<longitude>12.9447935617506</longitude>
				<latitude>43.17831866492097</latitude>
				<altitude>0</altitude>
				<heading>0.001906208852826554</heading>
				<tilt>16.73409651442584</tilt>
				<range>206.1098763686829</range>
				<gx:altitudeMode>relativeToSeaFloor</gx:altitudeMode>
			</LookAt>
			<styleUrl>#m_ylw-pushpin5</styleUrl>
			<Point>
				<gx:drawOrder>1</gx:drawOrder>
				<coordinates>12.94444352364512,43.17824528467625,0</coordinates>
			</Point>
		</Placemark>
		<Placemark>
			<name>19</name>
			<description>Gira a sinistra;Turn left</description>
			<LookAt>
				<longitude>12.94760120950255</longitude>
				<latitude>43.17444752964306</latitude>
				<altitude>0</altitude>
				<heading>0.003827387381260358</heading>
				<tilt>16.73409651442582</tilt>
				<range>206.1098763679631</range>
				<gx:altitudeMode>relativeToSeaFloor</gx:altitudeMode>
			</LookAt>
			<styleUrl>#m_ylw-pushpin5</styleUrl>
			<Point>
				<gx:drawOrder>1</gx:drawOrder>
				<coordinates>12.94723147397022,43.1744229019306,0</coordinates>
			</Point>
		</Placemark>
		<Placemark>
			<name>20</name>
			<description>Tieni la destra;Keep right</description>
			<LookAt>
				<longitude>12.94872739173686</longitude>
				<latitude>43.17361703727907</latitude>
				<altitude>0</altitude>
				<heading>0.004656639904088309</heading>
				<tilt>17.41230882439072</tilt>
				<range>320.6871476702835</range>
				<gx:altitudeMode>relativeToSeaFloor</gx:altitudeMode>
			</LookAt>
			<styleUrl>#m_ylw-pushpin5</styleUrl>
			<Point>
				<gx:drawOrder>1</gx:drawOrder>
				<coordinates>12.94795396712394,43.17416529118349,0</coordinates>
			</Point>
		</Placemark>
		<Placemark>
			<name>(t)5</name>
			<open>1</open>
			<description>Tappa 5 - San Cassiano;Stage 5 - San Cassiano</description>
			<LookAt>
				<gx:TimeStamp><when>2022-04-30</when>
</gx:TimeStamp>
				<gx:ViewerOptions>
					<gx:option name="historicalimagery"></gx:option>
					<gx:option enabled="0" name="sunlight"></gx:option>
					<gx:option enabled="0" name="streetview"></gx:option>
				</gx:ViewerOptions>
				<longitude>12.94767190071919</longitude>
				<latitude>43.17412504497834</latitude>
				<altitude>0</altitude>
				<heading>0.006056267917978657</heading>
				<tilt>29.21609168578804</tilt>
				<range>231.8479098351041</range>
				<gx:altitudeMode>relativeToSeaFloor</gx:altitudeMode>
			</LookAt>
			<styleUrl>#msn_grn-pushpin</styleUrl>
			<Point>
				<gx:drawOrder>1</gx:drawOrder>
				<coordinates>12.94780096576624,43.17421113208789,0</coordinates>
			</Point>
		</Placemark>
		<Placemark>
			<name>21</name>
			<description>Vai in direzione nord-ovest e ritorna verso il centro abitato;Go northwest and return towards the town center</description>
			<LookAt>
				<longitude>12.94858524079366</longitude>
				<latitude>43.17369429062258</latitude>
				<altitude>0</altitude>
				<heading>0.004741893388281447</heading>
				<tilt>19.75687075803016</tilt>
				<range>217.5621042061366</range>
				<gx:altitudeMode>relativeToSeaFloor</gx:altitudeMode>
			</LookAt>
			<styleUrl>#m_ylw-pushpin5</styleUrl>
			<Point>
				<gx:drawOrder>1</gx:drawOrder>
				<coordinates>12.94976219017256,43.17328955446151,0</coordinates>
			</Point>
		</Placemark>
		<Placemark>
			<name>22</name>
			<description>Tieni la destra;Keep right</description>
			<LookAt>
				<longitude>12.94858524079366</longitude>
				<latitude>43.17369429062258</latitude>
				<altitude>0</altitude>
				<heading>0.004741893388249641</heading>
				<tilt>19.75687075803016</tilt>
				<range>217.5621042061366</range>
				<gx:altitudeMode>relativeToSeaFloor</gx:altitudeMode>
			</LookAt>
			<styleUrl>#m_ylw-pushpin5</styleUrl>
			<Point>
				<gx:drawOrder>1</gx:drawOrder>
				<coordinates>12.94804950470669,43.17424435592662,0</coordinates>
			</Point>
		</Placemark>
		<Placemark>
			<name>23</name>
			<open>1</open>
			<description>Tieni la destra;Keep right</description>
			<LookAt>
				<longitude>12.94949049637585</longitude>
				<latitude>43.17549514449131</latitude>
				<altitude>0</altitude>
				<heading>0.005378898040529943</heading>
				<tilt>20.68165424327596</tilt>
				<range>264.6322112221823</range>
				<gx:altitudeMode>relativeToSeaFloor</gx:altitudeMode>
			</LookAt>
			<styleUrl>#m_ylw-pushpin5</styleUrl>
			<Point>
				<gx:drawOrder>1</gx:drawOrder>
				<coordinates>12.94906604809162,43.1764645751478,0</coordinates>
			</Point>
		</Placemark>
		<Placemark>
			<name>24</name>
			<description>Tieni la sinistra;Keep left</description>
			<LookAt>
				<longitude>12.95128781755264</longitude>
				<latitude>43.17797916402447</latitude>
				<altitude>0</altitude>
				<heading>0.007034724468136996</heading>
				<tilt>29.85725030121267</tilt>
				<range>364.3295758290184</range>
				<gx:altitudeMode>relativeToSeaFloor</gx:altitudeMode>
			</LookAt>
			<styleUrl>#m_ylw-pushpin5</styleUrl>
			<Point>
				<gx:drawOrder>1</gx:drawOrder>
				<coordinates>12.95136111111111,43.17773333333333,0</coordinates>
			</Point>
		</Placemark>
		<Placemark>
			<name>25</name>
			<description>Gira a sinistra;Turn left</description>
			<LookAt>
				<longitude>12.95435920344192</longitude>
				<latitude>43.18054860251551</latitude>
				<altitude>0</altitude>
				<heading>0.009136451312038139</heading>
				<tilt>29.85732375346852</tilt>
				<range>380.7455298880019</range>
				<gx:altitudeMode>relativeToSeaFloor</gx:altitudeMode>
			</LookAt>
			<styleUrl>#m_ylw-pushpin5</styleUrl>
			<Point>
				<gx:drawOrder>1</gx:drawOrder>
				<coordinates>12.95586613870839,43.18184674505853,0</coordinates>
			</Point>
		</Placemark>
		<Placemark>
			<name>26</name>
			<description>Attraversa la strada e prosegui dritto;Cross the road and continue straight</description>
			<LookAt>
				<longitude>12.94130975837328</longitude>
				<latitude>43.18310177913708</latitude>
				<altitude>0</altitude>
				<heading>-4.383880709442594e-05</heading>
				<tilt>23.0992310773212</tilt>
				<range>187.7827361699616</range>
				<gx:altitudeMode>relativeToSeaFloor</gx:altitudeMode>
			</LookAt>
			<styleUrl>#m_ylw-pushpin5</styleUrl>
			<Point>
				<gx:drawOrder>1</gx:drawOrder>
				<coordinates>12.94142294566166,43.18360556742839,0</coordinates>
			</Point>
		</Placemark>
		<Placemark>
			<name>27</name>
			<open>1</open>
			<description>Attraversa la strada e prosegui dritto;Cross the road and continue straight</description>
			<LookAt>
				<longitude>12.93749319217124</longitude>
				<latitude>43.18230158487412</latitude>
				<altitude>0</altitude>
				<heading>-0.002655161913163301</heading>
				<tilt>23.02861601231298</tilt>
				<range>696.4137661955618</range>
				<gx:altitudeMode>relativeToSeaFloor</gx:altitudeMode>
			</LookAt>
			<styleUrl>#m_ylw-pushpin5</styleUrl>
			<Point>
				<gx:drawOrder>1</gx:drawOrder>
				<coordinates>12.93411265173009,43.184399514159,0</coordinates>
			</Point>
		</Placemark>
		<Placemark>
			<name>28</name>
			<description>Torna sulla strada asfaltata e prosegui verso Castello;Return to the paved road and continue towards Castello</description>
			<LookAt>
				<longitude>12.92457136761628</longitude>
				<latitude>43.18301100463854</latitude>
				<altitude>0</altitude>
				<heading>-0.01139608907385929</heading>
				<tilt>20.72814689367263</tilt>
				<range>209.3162564530713</range>
				<gx:altitudeMode>relativeToSeaFloor</gx:altitudeMode>
			</LookAt>
			<styleUrl>#m_ylw-pushpin5</styleUrl>
			<Point>
				<gx:drawOrder>1</gx:drawOrder>
				<coordinates>12.92443160553027,43.18339279807005,0</coordinates>
			</Point>
		</Placemark>
		<Placemark>
			<name>29</name>
			<description>Fine itinerario;End of itinerary</description>
			<LookAt>
				<longitude>12.92389120771627</longitude>
				<latitude>43.17979206325553</latitude>
				<altitude>0</altitude>
				<heading>-0.01186150935805425</heading>
				<tilt>20.72836607637123</tilt>
				<range>278.272573342852</range>
				<gx:altitudeMode>relativeToSeaFloor</gx:altitudeMode>
			</LookAt>
			<styleUrl>#m_ylw-pushpin5</styleUrl>
			<Point>
				<gx:drawOrder>1</gx:drawOrder>
				<coordinates>12.92355101763363,43.17990358426062,0</coordinates>
			</Point>
		</Placemark>
		<atom:link rel="app" href="https://www.google.com/earth/about/versions/#earth-pro" title="Google Earth Pro 7.3.6.10441"></atom:link>
	</Folder>
</Document>
</kml>
