<?xml version="1.0" encoding="UTF-8"?>
<kml xmlns="http://www.opengis.net/kml/2.2" xmlns:gx="http://www.google.com/kml/ext/2.2" xmlns:kml="http://www.opengis.net/kml/2.2" xmlns:atom="http://www.w3.org/2005/Atom">
<Document>
	<name>Gualdo_AR.kml</name>
	<StyleMap id="m_ylw-pushpin5">
		<Pair>
			<key>normal</key>
			<styleUrl>#s_ylw-pushpin021</styleUrl>
		</Pair>
		<Pair>
			<key>highlight</key>
			<styleUrl>#s_ylw-pushpin_hl2</styleUrl>
		</Pair>
	</StyleMap>
	<StyleMap id="msn_grn-pushpin">
		<Pair>
			<key>normal</key>
			<styleUrl>#sn_grn-pushpin</styleUrl>
		</Pair>
		<Pair>
			<key>highlight</key>
			<styleUrl>#sh_grn-pushpin</styleUrl>
		</Pair>
	</StyleMap>
	<StyleMap id="msn_red-pushpin0">
		<Pair>
			<key>normal</key>
			<styleUrl>#sn_red-pushpin</styleUrl>
		</Pair>
		<Pair>
			<key>highlight</key>
			<styleUrl>#sh_red-pushpin0</styleUrl>
		</Pair>
	</StyleMap>
	<StyleMap id="msn_ylw-pushpin">
		<Pair>
			<key>normal</key>
			<styleUrl>#sn_ylw-pushpin6</styleUrl>
		</Pair>
		<Pair>
			<key>highlight</key>
			<styleUrl>#sh_ylw-pushpin1</styleUrl>
		</Pair>
	</StyleMap>
	<Style id="s_ylw-pushpin021">
		<IconStyle>
			<scale>1.1</scale>
			<Icon>
				<href>http://maps.google.com/mapfiles/kml/pushpin/red-pushpin.png</href>
			</Icon>
			<hotSpot x="20" y="2" xunits="pixels" yunits="pixels"/>
		</IconStyle>
	</Style>
	<Style id="s_ylw-pushpin_hl2">
		<IconStyle>
			<scale>1.3</scale>
			<Icon>
				<href>http://maps.google.com/mapfiles/kml/pushpin/red-pushpin.png</href>
			</Icon>
			<hotSpot x="20" y="2" xunits="pixels" yunits="pixels"/>
		</IconStyle>
	</Style>
	<Style id="sh_grn-pushpin">
		<IconStyle>
			<scale>1.3</scale>
			<Icon>
				<href>http://maps.google.com/mapfiles/kml/pushpin/grn-pushpin.png</href>
			</Icon>
			<hotSpot x="20" y="2" xunits="pixels" yunits="pixels"/>
		</IconStyle>
		<BalloonStyle>
		</BalloonStyle>
		<ListStyle>
		</ListStyle>
	</Style>
	<Style id="sh_red-pushpin0">
		<IconStyle>
			<scale>1.3</scale>
			<Icon>
				<href>http://maps.google.com/mapfiles/kml/pushpin/red-pushpin.png</href>
			</Icon>
			<hotSpot x="20" y="2" xunits="pixels" yunits="pixels"/>
		</IconStyle>
	</Style>
	<Style id="sh_ylw-pushpin1">
		<IconStyle>
			<scale>1.3</scale>
			<Icon>
				<href>http://maps.google.com/mapfiles/kml/pushpin/ylw-pushpin.png</href>
			</Icon>
			<hotSpot x="20" y="2" xunits="pixels" yunits="pixels"/>
		</IconStyle>
		<LineStyle>
			<color>ffff0000</color>
			<width>4</width>
		</LineStyle>
	</Style>
	<Style id="sn_grn-pushpin">
		<IconStyle>
			<scale>1.1</scale>
			<Icon>
				<href>http://maps.google.com/mapfiles/kml/pushpin/grn-pushpin.png</href>
			</Icon>
			<hotSpot x="20" y="2" xunits="pixels" yunits="pixels"/>
		</IconStyle>
		<BalloonStyle>
		</BalloonStyle>
		<ListStyle>
		</ListStyle>
	</Style>
	<Style id="sn_red-pushpin">
		<IconStyle>
			<scale>1.1</scale>
			<Icon>
				<href>http://maps.google.com/mapfiles/kml/pushpin/red-pushpin.png</href>
			</Icon>
			<hotSpot x="20" y="2" xunits="pixels" yunits="pixels"/>
		</IconStyle>
	</Style>
	<Style id="sn_ylw-pushpin6">
		<IconStyle>
			<scale>1.1</scale>
			<Icon>
				<href>http://maps.google.com/mapfiles/kml/pushpin/ylw-pushpin.png</href>
			</Icon>
			<hotSpot x="20" y="2" xunits="pixels" yunits="pixels"/>
		</IconStyle>
		<LineStyle>
			<color>ffff0000</color>
			<width>4</width>
		</LineStyle>
	</Style>
	<Folder>
		<name>Gualdo_AR</name>
		<open>1</open>
		<Placemark>
			<name>AR</name>
			<styleUrl>#msn_ylw-pushpin</styleUrl>
			<LineString>
				<tessellate>1</tessellate>
				<coordinates>
					13.33772827861458,43.06668470559423,0 13.33778085152233,43.06668409914592,0 13.3379624362229,43.06671256135384,0 13.33798233521364,43.06673406060091,0 13.33799906360669,43.06705213174595,0 13.33815220153393,43.06712169484749,0 13.33838945772744,43.06728188413554,0 13.33831403631364,43.06739096334201,0 13.33979953892043,43.06838785031032,0 13.33991343698193,43.0682987436693,0 13.34012715090751,43.06805582047451,0 13.34032315522446,43.06793345773907,0 13.34041454394391,43.06775363593013,0 13.34042113040963,43.06765271068014,0 13.34035605577009,43.06755655908584,0 13.33939678380989,43.06702556828059,0 13.3392165310551,43.06692961874557,0 13.3390116232696,43.06687122403645,0 13.33897313362285,43.06679215654216,0 13.33890529165325,43.0667408984695,0 13.33822729552379,43.06652521356057,0 
				</coordinates>
			</LineString>
		</Placemark>
		<Placemark>
			<name>(t)1</name>
			<description>Tappa 1 - Centro studi &quot;Romolo Murri&quot;;Stage 1 - Centro studi &quot;Romolo Murri&quot;</description>
			<LookAt>
				<gx:TimeStamp><when>2022-04-30</when>
</gx:TimeStamp>
				<gx:ViewerOptions>
					<gx:option name="historicalimagery"></gx:option>
					<gx:option enabled="0" name="sunlight"></gx:option>
					<gx:option enabled="0" name="streetview"></gx:option>
				</gx:ViewerOptions>
				<longitude>13.33782029508986</longitude>
				<latitude>43.06682185513579</latitude>
				<altitude>0</altitude>
				<heading>0.002729441053946278</heading>
				<tilt>30.00042188847202</tilt>
				<range>93.1245814394572</range>
				<gx:altitudeMode>relativeToSeaFloor</gx:altitudeMode>
			</LookAt>
			<styleUrl>#msn_grn-pushpin</styleUrl>
			<Point>
				<gx:drawOrder>1</gx:drawOrder>
				<coordinates>13.33773477115346,43.06669583685046,0</coordinates>
			</Point>
		</Placemark>
		<Placemark>
			<name>1</name>
			<open>1</open>
			<description>Procedi in direzione nordest su Via Guglielmo Oberdan verso Piazza Vittorio Emanuele;Proceed northeast on Via Guglielmo Oberdan towards Piazza Vittorio Emanuele</description>
			<LookAt>
				<gx:TimeStamp><when>2022-04-30</when>
</gx:TimeStamp>
				<gx:ViewerOptions>
					<gx:option name="historicalimagery"></gx:option>
					<gx:option enabled="0" name="sunlight"></gx:option>
					<gx:option enabled="0" name="streetview"></gx:option>
				</gx:ViewerOptions>
				<longitude>13.33782029508986</longitude>
				<latitude>43.06682185513579</latitude>
				<altitude>0</altitude>
				<heading>0.002729441053946278</heading>
				<tilt>30.00042188847202</tilt>
				<range>93.1245814394572</range>
				<gx:altitudeMode>relativeToSeaFloor</gx:altitudeMode>
			</LookAt>
			<styleUrl>#msn_red-pushpin0</styleUrl>
			<Point>
				<gx:drawOrder>1</gx:drawOrder>
				<coordinates>13.33778533296374,43.06669093509306,0</coordinates>
			</Point>
		</Placemark>
		<Placemark>
			<name>(t)2</name>
			<description>Tappa 2 - Chiesa di San Savino;Stage 2 - Chiesa di San Savino</description>
			<LookAt>
				<gx:TimeStamp><when>2022-04-30</when>
</gx:TimeStamp>
				<gx:ViewerOptions>
					<gx:option name="historicalimagery"></gx:option>
					<gx:option enabled="0" name="sunlight"></gx:option>
					<gx:option enabled="0" name="streetview"></gx:option>
				</gx:ViewerOptions>
				<longitude>13.33796125777222</longitude>
				<latitude>43.06675854871385</latitude>
				<altitude>0</altitude>
				<heading>0.002830802541091109</heading>
				<tilt>30.000424380788</tilt>
				<range>88.24306874759552</range>
				<gx:altitudeMode>relativeToSeaFloor</gx:altitudeMode>
			</LookAt>
			<styleUrl>#msn_grn-pushpin</styleUrl>
			<Point>
				<gx:drawOrder>1</gx:drawOrder>
				<coordinates>13.33795534685735,43.06672030982968,0</coordinates>
			</Point>
		</Placemark>
		<Placemark>
			<name>2</name>
			<open>1</open>
			<description>Svolta a sinistra e prendi Piazza Vittorio Emanuele;Turn left and take Piazza Vittorio Emanuele</description>
			<LookAt>
				<gx:TimeStamp><when>2022-04-30</when>
</gx:TimeStamp>
				<gx:ViewerOptions>
					<gx:option name="historicalimagery"></gx:option>
					<gx:option enabled="0" name="sunlight"></gx:option>
					<gx:option enabled="0" name="streetview"></gx:option>
				</gx:ViewerOptions>
				<longitude>13.33796125777222</longitude>
				<latitude>43.06675854871385</latitude>
				<altitude>0</altitude>
				<heading>0.002830802541091109</heading>
				<tilt>30.000424380788</tilt>
				<range>88.24306874759552</range>
				<gx:altitudeMode>relativeToSeaFloor</gx:altitudeMode>
			</LookAt>
			<styleUrl>#msn_red-pushpin0</styleUrl>
			<Point>
				<gx:drawOrder>1</gx:drawOrder>
				<coordinates>13.33799422352153,43.06673208188455,0</coordinates>
			</Point>
		</Placemark>
		<Placemark>
			<name>3</name>
			<description>Svolta leggermente a sinistra e prendi Viale Vittorio Veneto;Turn slightly left and take Viale Vittorio Veneto</description>
			<LookAt>
				<gx:TimeStamp><when>2022-04-30</when>
</gx:TimeStamp>
				<gx:ViewerOptions>
					<gx:option name="historicalimagery"></gx:option>
					<gx:option enabled="0" name="sunlight"></gx:option>
					<gx:option enabled="0" name="streetview"></gx:option>
				</gx:ViewerOptions>
				<longitude>13.33825876617394</longitude>
				<latitude>43.06712985247999</latitude>
				<altitude>0</altitude>
				<heading>0.003031056067245999</heading>
				<tilt>30.00030677769767</tilt>
				<range>66.24771297388715</range>
				<gx:altitudeMode>relativeToSeaFloor</gx:altitudeMode>
			</LookAt>
			<styleUrl>#msn_red-pushpin0</styleUrl>
			<Point>
				<gx:drawOrder>1</gx:drawOrder>
				<coordinates>13.33799677458122,43.06706846383324,0</coordinates>
			</Point>
		</Placemark>
		<Placemark>
			<name>(t)3</name>
			<open>1</open>
			<description>Tappa 3 - Tipicità;Stage 3 - Tipicità</description>
			<LookAt>
				<gx:TimeStamp><when>2022-04-30</when>
</gx:TimeStamp>
				<gx:ViewerOptions>
					<gx:option name="historicalimagery"></gx:option>
					<gx:option enabled="0" name="sunlight"></gx:option>
					<gx:option enabled="0" name="streetview"></gx:option>
				</gx:ViewerOptions>
				<longitude>13.33831994547834</longitude>
				<latitude>43.06723444463492</latitude>
				<altitude>0</altitude>
				<heading>0.003122883020511111</heading>
				<tilt>29.64162800381813</tilt>
				<range>55.81778736914006</range>
				<gx:altitudeMode>relativeToSeaFloor</gx:altitudeMode>
			</LookAt>
			<styleUrl>#msn_grn-pushpin</styleUrl>
			<Point>
				<gx:drawOrder>1</gx:drawOrder>
				<coordinates>13.33830192419875,43.06739257960479,0</coordinates>
			</Point>
		</Placemark>
		<Placemark>
			<name>4</name>
			<description>Procedi in direzione sudest su Viale Vittorio Veneto verso Via Aldo Moro;Proceed southeast on Viale Vittorio Veneto towards Via Aldo Moro</description>
			<LookAt>
				<longitude>13.33949599885233</longitude>
				<latitude>43.06759505587591</latitude>
				<altitude>0</altitude>
				<heading>-3.976507498564618</heading>
				<tilt>18.10457792949338</tilt>
				<range>149.6092156909885</range>
				<gx:altitudeMode>relativeToSeaFloor</gx:altitudeMode>
			</LookAt>
			<styleUrl>#m_ylw-pushpin5</styleUrl>
			<Point>
				<gx:drawOrder>1</gx:drawOrder>
				<coordinates>13.33976471621387,43.06840026865772,0</coordinates>
			</Point>
		</Placemark>
		<Placemark>
			<name>(t)4</name>
			<open>1</open>
			<description>Tappa 4 - Chiesa Madonna delle Grazie;Stage 4 - Chiesa Madonna delle Grazie</description>
			<LookAt>
				<gx:TimeStamp><when>2022-04-30</when>
</gx:TimeStamp>
				<gx:ViewerOptions>
					<gx:option name="historicalimagery"></gx:option>
					<gx:option enabled="0" name="sunlight"></gx:option>
					<gx:option enabled="0" name="streetview"></gx:option>
				</gx:ViewerOptions>
				<longitude>13.33961663013263</longitude>
				<latitude>43.06815007924848</latitude>
				<altitude>0</altitude>
				<heading>0.004038426912710578</heading>
				<tilt>29.47812926882259</tilt>
				<range>248.1523465648213</range>
				<gx:altitudeMode>relativeToSeaFloor</gx:altitudeMode>
			</LookAt>
			<styleUrl>#msn_grn-pushpin</styleUrl>
			<Point>
				<gx:drawOrder>1</gx:drawOrder>
				<coordinates>13.33993455390372,43.06829874421245,0</coordinates>
			</Point>
		</Placemark>
		<Placemark>
			<name>5</name>
			<description>Continua dritto;Continue straight</description>
			<LookAt>
				<longitude>13.33979792390019</longitude>
				<latitude>43.0673429492067</latitude>
				<altitude>0</altitude>
				<heading>-3.976301324578013</heading>
				<tilt>18.10457792949343</tilt>
				<range>149.6092156899703</range>
				<gx:altitudeMode>relativeToSeaFloor</gx:altitudeMode>
			</LookAt>
			<styleUrl>#m_ylw-pushpin5</styleUrl>
			<Point>
				<gx:drawOrder>1</gx:drawOrder>
				<coordinates>13.34024126860955,43.06803194573941,0</coordinates>
			</Point>
		</Placemark>
		<Placemark>
			<name>(t)5</name>
			<open>1</open>
			<description>Tappa 5 - Belvedere Monti Azzurri;Stage 5 - Belvedere Monti Azzurri</description>
			<LookAt>
				<gx:TimeStamp><when>2022-04-30</when>
</gx:TimeStamp>
				<gx:ViewerOptions>
					<gx:option name="historicalimagery"></gx:option>
					<gx:option enabled="0" name="sunlight"></gx:option>
					<gx:option enabled="0" name="streetview"></gx:option>
				</gx:ViewerOptions>
				<longitude>13.33945837387461</longitude>
				<latitude>43.06767303975692</latitude>
				<altitude>0</altitude>
				<heading>0.004351530153977022</heading>
				<tilt>27.27947120775609</tilt>
				<range>228.0979819333842</range>
				<gx:altitudeMode>relativeToSeaFloor</gx:altitudeMode>
			</LookAt>
			<styleUrl>#msn_grn-pushpin</styleUrl>
			<Point>
				<gx:drawOrder>1</gx:drawOrder>
				<coordinates>13.34036380434587,43.06754388180037,0</coordinates>
			</Point>
		</Placemark>
		<Placemark>
			<name>6</name>
			<description>Tieni la destra;Keep right</description>
			<LookAt>
				<longitude>13.33880438352488</longitude>
				<latitude>43.0667884309625</latitude>
				<altitude>0</altitude>
				<heading>-3.976979771334627</heading>
				<tilt>18.10457792949341</tilt>
				<range>149.6092156919159</range>
				<gx:altitudeMode>relativeToSeaFloor</gx:altitudeMode>
			</LookAt>
			<styleUrl>#m_ylw-pushpin5</styleUrl>
			<Point>
				<gx:drawOrder>1</gx:drawOrder>
				<coordinates>13.33942295775004,43.06707350867541,0</coordinates>
			</Point>
		</Placemark>
		<Placemark>
			<name>7</name>
			<description>Gira leggermente a sinistra;Turn slightly to the left</description>
			<LookAt>
				<longitude>13.33867977370657</longitude>
				<latitude>43.06669998692997</latitude>
				<altitude>0</altitude>
				<heading>-3.977064861209972</heading>
				<tilt>18.10457792949332</tilt>
				<range>149.6092156924725</range>
				<gx:altitudeMode>relativeToSeaFloor</gx:altitudeMode>
			</LookAt>
			<styleUrl>#msn_red-pushpin0</styleUrl>
			<Point>
				<gx:drawOrder>1</gx:drawOrder>
				<coordinates>13.33902990066736,43.06688536155616,0</coordinates>
			</Point>
		</Placemark>
		<Placemark>
			<name>(t)6</name>
			<description>Tappa 6 - Terrazza sui Sibillini;Stage 6 - Terrazza sui Sibillini</description>
			<LookAt>
				<gx:TimeStamp><when>2022-04-30</when>
</gx:TimeStamp>
				<gx:ViewerOptions>
					<gx:option name="historicalimagery"></gx:option>
					<gx:option enabled="0" name="sunlight"></gx:option>
					<gx:option enabled="0" name="streetview"></gx:option>
				</gx:ViewerOptions>
				<longitude>13.3384406950808</longitude>
				<latitude>43.06666462280718</latitude>
				<altitude>0</altitude>
				<heading>0.004091032695334972</heading>
				<tilt>25.3337842261901</tilt>
				<range>199.0115297654696</range>
				<gx:altitudeMode>relativeToSeaFloor</gx:altitudeMode>
			</LookAt>
			<styleUrl>#msn_grn-pushpin</styleUrl>
			<Point>
				<gx:drawOrder>1</gx:drawOrder>
				<coordinates>13.33818829712994,43.0665203118695,0</coordinates>
			</Point>
		</Placemark>
		<atom:link rel="app" href="https://www.google.com/earth/about/versions/#earth-pro" title="Google Earth Pro 7.3.6.10441"></atom:link>
	</Folder>
</Document>
</kml>
