<?xml version="1.0" encoding="UTF-8"?>
<kml xmlns="http://www.opengis.net/kml/2.2" xmlns:gx="http://www.google.com/kml/ext/2.2" xmlns:kml="http://www.opengis.net/kml/2.2" xmlns:atom="http://www.w3.org/2005/Atom">
<Document>
	<name>Montecavallo_AR.kml</name>
	<StyleMap id="__managed_style_027C6CA321386AD0FC530">
		<Pair>
			<key>normal</key>
			<styleUrl>#failed7000</styleUrl>
		</Pair>
		<Pair>
			<key>highlight</key>
			<styleUrl>#failed002</styleUrl>
		</Pair>
	</StyleMap>
	<Style id="failed002">
		<LineStyle>
			<color>ffff0000</color>
			<width>2</width>
		</LineStyle>
	</Style>
	<Style id="failed7000">
		<LineStyle>
			<color>ffff0000</color>
			<width>2</width>
		</LineStyle>
	</Style>
	<StyleMap id="m_ylw-pushpin000">
		<Pair>
			<key>normal</key>
			<styleUrl>#s_ylw-pushpin80</styleUrl>
		</Pair>
		<Pair>
			<key>highlight</key>
			<styleUrl>#s_ylw-pushpin_hl1</styleUrl>
		</Pair>
	</StyleMap>
	<StyleMap id="msn_grn-pushpin">
		<Pair>
			<key>normal</key>
			<styleUrl>#sn_grn-pushpin</styleUrl>
		</Pair>
		<Pair>
			<key>highlight</key>
			<styleUrl>#sh_grn-pushpin</styleUrl>
		</Pair>
	</StyleMap>
	<StyleMap id="msn_red-pushpin0">
		<Pair>
			<key>normal</key>
			<styleUrl>#sn_red-pushpin</styleUrl>
		</Pair>
		<Pair>
			<key>highlight</key>
			<styleUrl>#sh_red-pushpin0</styleUrl>
		</Pair>
	</StyleMap>
	<Style id="s_ylw-pushpin80">
		<IconStyle>
			<scale>1.1</scale>
			<Icon>
				<href>http://maps.google.com/mapfiles/kml/pushpin/red-pushpin.png</href>
			</Icon>
			<hotSpot x="20" y="2" xunits="pixels" yunits="pixels"/>
		</IconStyle>
	</Style>
	<Style id="s_ylw-pushpin_hl1">
		<IconStyle>
			<scale>1.3</scale>
			<Icon>
				<href>http://maps.google.com/mapfiles/kml/pushpin/red-pushpin.png</href>
			</Icon>
			<hotSpot x="20" y="2" xunits="pixels" yunits="pixels"/>
		</IconStyle>
	</Style>
	<Style id="sh_grn-pushpin">
		<IconStyle>
			<scale>1.3</scale>
			<Icon>
				<href>http://maps.google.com/mapfiles/kml/pushpin/grn-pushpin.png</href>
			</Icon>
			<hotSpot x="20" y="2" xunits="pixels" yunits="pixels"/>
		</IconStyle>
		<BalloonStyle>
		</BalloonStyle>
		<ListStyle>
		</ListStyle>
	</Style>
	<Style id="sh_red-pushpin0">
		<IconStyle>
			<scale>1.3</scale>
			<Icon>
				<href>http://maps.google.com/mapfiles/kml/pushpin/red-pushpin.png</href>
			</Icon>
			<hotSpot x="20" y="2" xunits="pixels" yunits="pixels"/>
		</IconStyle>
	</Style>
	<Style id="sn_grn-pushpin">
		<IconStyle>
			<scale>1.1</scale>
			<Icon>
				<href>http://maps.google.com/mapfiles/kml/pushpin/grn-pushpin.png</href>
			</Icon>
			<hotSpot x="20" y="2" xunits="pixels" yunits="pixels"/>
		</IconStyle>
		<BalloonStyle>
		</BalloonStyle>
		<ListStyle>
		</ListStyle>
	</Style>
	<Style id="sn_red-pushpin">
		<IconStyle>
			<scale>1.1</scale>
			<Icon>
				<href>http://maps.google.com/mapfiles/kml/pushpin/red-pushpin.png</href>
			</Icon>
			<hotSpot x="20" y="2" xunits="pixels" yunits="pixels"/>
		</IconStyle>
	</Style>
	<Folder>
		<name>Montecavallo_AR</name>
		<open>1</open>
		<Placemark id="55487FCD80000004">
			<name>AR</name>
			<styleUrl>#__managed_style_027C6CA321386AD0FC530</styleUrl>
			<LineString>
				<coordinates>
					12.96321664245904,42.99641894611669,1120.708 12.96329476806235,42.99643221919022,1120.426 12.96347605835655,42.99627973609864,1120.426 12.96361615310861,42.99608312171031,1118.649 12.96392080737684,42.99556934864466,1116.615 12.96402104604552,42.99542300178453,1116.589 12.96405558812514,42.99535669159047,1116.566 12.96455998985626,42.99523977330509,1120.901 12.96484438148387,42.99529023151966,1124.197 12.965154,42.99537,1127.398 12.9654,42.99528,1131.619 12.965753,42.995234,1137.084 12.966373,42.995137,1143.977 12.966795,42.995152,1146.345 12.96717968132428,42.99504191139775,1148.478 12.96725009527341,42.99503339664058,1148.665 12.9675037977171,42.99510564171675,1148.665 12.967759,42.995382,1150.108 12.96799753676521,42.99584110345774,1152.585 12.9681,42.995907,1152.808 12.968431,42.995954,1153.887 12.968728,42.996055,1155.361 12.9689231542895,42.99608124223502,1156.423 12.96955205805442,42.99603776975027,1156.423 12.97026994081598,42.99595199068781,1174.589 12.97036707294212,42.99588007740275,1176.308 12.9704684334602,42.99553825836842,1179.589 12.97055666042699,42.99550260034326,1180.441 12.970603,42.995551,1182.098 12.970806,42.995753,1184.48 12.971444,42.995964,1201.108 12.972073,42.995936,1217.832 12.97234540181122,42.9958733707552,1217.832 12.972617,42.995876,1230.531 12.97275832970176,42.99596106389934,1235.439 12.97285552847186,42.99596711908191,1236.936 12.97292825757883,42.99590844910387,1238.502 12.97287511335227,42.9957799489705,1237.319 12.972392,42.995559,1233.912 12.97221656924243,42.99555165866762,1227.026 12.972044,42.995542,1225.453 12.971956,42.995423,1226.231 12.97184660266513,42.9946073191711,1239.013 12.97188490700773,42.99429341228726,1241.794 12.97201415961973,42.99408756499676,1245.523 12.97223425310888,42.99381729911522,1253.947 12.9724871984687,42.99369606473236,1255.025 12.97278012093404,42.99368310729878,1260.065 12.97344411279288,42.99356878063873,1267.935 12.97423149668199,42.99326531544677,1275.622 12.97428812461519,42.99319443627795,1275.924 12.974378,42.993046,1274.617 12.9749747995335,42.99255769402026,1275.908 12.97507117454043,42.99251192981134,1276.415 12.97532,42.992489,1277.658 12.97606278092595,42.99254043882492,1287.241 12.976383,42.992656,1291.072 12.97663031032275,42.99272900602656,1293.814 12.97719758602474,42.99285374522808,1296.696 12.97768589742206,42.99305883716031,1299.337 12.97790477791697,42.99315706371615,1299.337 12.97813016174481,42.99329493709334,1303.913 12.97817769608583,42.99339046041314,1304.608 12.97816645290025,42.99349214238109,1304.608 12.978129,42.993585,1306.636 12.97805719730254,42.99371629051377,1306.636 12.97801091549296,42.99395669709582,1310.918 12.977997,42.994529,1317.059 12.97792032832217,42.99497528097029,1321.546 12.977875,42.995146,1322.701 12.977884,42.995359,1323.575 12.977876,42.995536,1324.283 12.97788176708999,42.99601330996656,1324.283 12.97772435138086,42.99669867511319,1337.414 12.978128,42.997654,1352.508 12.97828680748591,42.99832469328261,1364.625 12.978918,42.99911,1374.645 12.979577,42.999856,1382.15 12.98002119560617,43.00020664302107,1381.026 12.98071503424993,43.00057689043529,1377.872 12.981012,43.000881,1379.198 12.981914,43.002077,1367.188 12.98221252442645,43.00239779549144,1366.008 12.9824,43.002841,1359.881 12.982513,43.004021,1339.683 12.98270093439856,43.00431328925335,1323.418 12.98293817316991,43.00454296033242,1322.883 12.98421449936248,43.00486361771191,1311.546 12.98529832073353,43.00475485962868,1298.15 12.98568873072403,43.00437049343503,1302.479 12.9858535418211,43.00430460858246,1301.626 12.985989,43.004274,1299.069 12.98649,43.004067,1294.308 12.98677274641728,43.00387869947426,1294.308 12.987251,43.003381,1294.567 12.98762101972497,43.00302658715607,1294.567 12.98789,43.002651,1280.549 12.988075,43.002327,1273.369 12.98811,43.001924,1265.841 12.987961,43.001566,1261.822 12.987795,43.001286,1257.312 12.987206,43.000755,1255.132 12.98732516398796,43.00072365495134,1250.856 12.98887425028778,43.00125347980599,1231.785 12.989753,43.001969,1223.656 12.990763,43.002245,1206.667 12.9911566181282,43.00236835703836,1206.667 12.99147485331111,43.00261819422748,1197.692 12.99167790928035,43.00285616528908,1197.692 12.99173340805696,43.00319374101011,1197.692 12.99173492537004,43.00331149534269,1197.692 12.99180978895982,43.00336327135361,1197.692 12.99237422386889,43.00304987788854,1197.692 12.99249519387379,43.0028930816314,1197.692 12.99250294437926,43.00273617488654,1197.692 12.99262463983048,43.0027736414047,1197.692 12.99309895631427,43.00299476556981,1197.692 12.99333901642414,43.00306677751489,1197.692 12.993601,43.003239,1156.818 12.99375,43.004045,1150.281 12.993912,43.004593,1143.176 12.994015,43.005068,1135.057 12.994037,43.00511,1134.592 12.994553,43.006079,1125.508 12.995307,43.006943,1116.245 12.995926,43.007212,1119.182 12.997722,43.007339,1110.596 12.99779,43.007322,1109.265 12.99795919128471,43.00716470616168,1109.265 12.99807374278262,43.00685957788999,1109.265 12.99812041538706,43.00677344662555,1109.265 12.99832881162601,43.00658159914666,1109.265 12.99885446658301,43.00647724267601,1109.265 12.99908930451721,43.00652536660214,1109.265 12.99942764465713,43.00666093775116,1109.265 12.99953567512425,43.00667072789592,1109.265 13.00010022217156,43.00689925264422,1109.265 13.00021075346999,43.00695732370356,1109.265 13.00036929164452,43.00709143206655,1109.265 13.00050731306545,43.00721192792411,1109.265 13.00075085187519,43.00738118903871,1109.265 13.0008592522782,43.00749234252021,1109.265 13.00108983427036,43.00763158039057,1109.265 13.00131554132761,43.0077106903001,1109.265 13.00154547003806,43.00774926867401,1109.265 13.00156934497371,43.00778835335416,1109.265 13.00152007696208,43.0078243271252,1109.265 13.00142740508854,43.00783883860768,1109.265 13.00130096041303,43.00783884382382,1109.265 13.00093565284158,43.00782797189461,1109.265 13.00075544722935,43.00778124432233,1109.265 13.00065330249456,43.00773521868667,1109.265 13.00053367837331,43.00761805782724,1109.265 13.00041557791136,43.0075216519743,1109.265 13.00019395233195,43.00745058607711,1109.265 12.9999894451697,43.00744740656121,1109.265 12.99963796539532,43.00740942120068,1109.265 12.99943731476903,43.00739061704016,1109.265 12.99930463859654,43.00735336363666,1109.265 12.9990937231056,43.00739376468355,1109.265 12.999043,43.007422,1070.421 12.999044,43.007476,1068.408 12.99906,43.007546,1064.888 12.999085,43.007592,1062.075 12.999119,43.007633,1058.943 12.999159,43.007677,1055.468 12.99925764371019,43.00772341452882,1055.468 12.99941818750927,43.00776093488639,1055.468 12.99950347211728,43.00775149330423,1055.468 12.99977560767437,43.00781104698251,1055.468 12.99995935403646,43.0078745273429,1055.468 13.00007181953328,43.00792951319804,1055.468 13.0002561760789,43.00802210461218,1055.468 13.00046731082405,43.00808302340447,1055.468 13.00058604189738,43.00809914561202,1055.468 13.00081443553047,43.00822049083295,1055.468 13.00107528210121,43.00831242469776,1055.468 13.001308786141,43.00843951502036,1055.468 13.001439,43.008454,1011.767 13.00164522467831,43.00845705321091,1011.767 13.00206891454826,43.00841774302364,1011.767 13.00249724337578,43.00840944946257,1011.767 13.00290168587689,43.00849748869697,1011.767 13.00289987593498,43.00851261902627,1011.767 13.00269888033217,43.00853755178758,1011.767 13.00244287064828,43.00861095134866,1011.767 13.00238231101138,43.00864546655879,1011.767 13.00233437275719,43.00866384314634,1011.767 13.00214888411231,43.00870774696917,1011.767 13.00186228920854,43.00874328482103,1011.767 13.00173226314102,43.00875479233866,1011.767 13.0016553646794,43.00876473114383,1011.767 13.0014319853354,43.0088753761112,1011.767 13.00148935307608,43.00889711634721,1011.767 13.0013722326034,43.00894350342779,1011.767 13.00130277287813,43.00896439173912,1011.767 13.0012347793826,43.00895486593888,1011.767 13.001108,43.008979,974.023 13.001038,43.008981,974.0149999999998 13.000975,43.008974,974.6079999999998 13.000898,43.008973,974.978 13.000822,43.008973,975.085 13.000754,43.008975,975.2629999999998 13.000681,43.008979,975.1279999999999 13.000612,43.008987,974.9829999999997 13.00055,43.008987,975.0439999999998 13.000462,43.00899,975.2960000000002 13.000375,43.009,975.053 13.000304,43.009011,974.671 13.000239,43.009019,974.441 13.000165,43.009019,974.615 13.000093,43.009021,974.808 12.999998,43.009037,974.4219999999999 12.999917,43.009056,975.289 12.999859,43.009075,975.777 12.999788,43.009106,975.9119999999999 12.999738,43.009134,975.847 12.999671,43.009169,975.8679999999999 12.999619,43.00921,975.3799999999998 12.999586,43.009262,974.1169999999998 12.999574,43.009321,972.122 12.999603,43.009363,969.862 12.999656,43.009406,966.808 12.999845,43.009363,964.208 12.999933,43.009339,962.8269999999998 13.000011,43.009342,961.0940000000001 13.000092,43.009357,959.692 13.000185,43.009386,957.857 13.000255,43.009413,956.072 13.000308,43.009439,954.3229999999999 13.000363,43.009468,952.495 13.000438,43.009503,950.0419999999998 13.000496,43.009518,948.7549999999999 13.000558,43.00953,947.5069999999998 13.000644,43.009541,946.0170000000001 13.000733,43.009548,944.6079999999998 13.000816,43.009544,943.85 13.000884,43.009534,943.6869999999999 13.000949,43.009531,943.4449999999999 13.001031,43.009533,942.89 13.001106,43.009544,941.7650000000001 13.00118,43.009561,940.4360000000003 13.001274,43.009582,938.648 13.001347,43.009596,937.215 13.001414,43.009602,936.3909999999998 13.001481,43.00961,935.5810000000001 13.00155,43.009616,934.7190000000002 13.001632,43.009625,933.6080000000001 13.001724,43.009628,933.2140000000001 13.001799,43.009627,933.5309999999999 13.001881,43.009623,933.9589999999998 13.001981,43.009621,934.454 13.002045,43.009638,933.8390000000001 13.002119,43.009653,933.0299999999999 13.002192,43.009666,932.4719999999998 13.002258,43.00968,931.849 13.002321,43.009696,931.0419999999999 13.002385,43.009711,930.3219999999999 13.002445,43.009725,929.414 13.002519,43.009744,928.308 13.002581,43.009759,926.9690000000001 13.002651,43.009772,925.696 13.002723,43.009781,924.554 13.002783,43.009799,923.1689999999999 13.002843,43.009815,921.754 13.002915,43.009818,920.9650000000001 13.002982,43.009816,920.677 13.003044,43.009821,919.914 13.00311,43.00983,918.912 13.003188,43.009834,918.1319999999999 13.003264,43.009836,917.5049999999999 13.003339,43.009839,916.8079999999998 13.003412,43.009845,915.1760000000002 13.003481,43.009844,913.7329999999998 13.003552,43.009844,912.3809999999999 13.003619,43.009839,911.3759999999999 13.003693,43.009827,910.431 13.003759,43.009813,910.0219999999999 13.003832,43.009796,909.5940000000001 13.003894,43.009778,909.2809999999999 13.00396,43.00976,909.0879999999999 13.004025,43.009728,909.5240000000001 13.004087,43.009701,909.826 13.004133,43.009671,910.5079999999999 13.004178,43.009638,911.5229999999999 13.004236,43.009608,911.95 13.004295,43.009586,911.9779999999998 13.004358,43.009565,911.6229999999999 13.004427,43.009545,911.248 13.004495,43.009529,910.4889999999999 13.004565,43.009511,909.711 13.004627,43.009491,909.248 13.004689,43.009473,908.7179999999998 13.004755,43.009456,907.9979999999999 13.004818,43.009447,906.8169999999999 13.004883,43.009441,905.5079999999998 13.004946,43.009435,904.216 13.005016,43.009422,903.1529999999999 13.005089,43.009416,902.3510000000001 13.005165,43.009413,901.246 13.00524,43.00941,900.141 13.005316,43.009404,899.1219999999998 13.005379,43.009399,898.3439999999999 13.00545,43.009387,897.5809999999998 13.005511,43.009376,896.9769999999999 13.005575,43.009362,896.3610000000001 13.005645,43.00935,895.5269999999999 13.005708,43.009339,894.708 13.005784,43.009337,893.5219999999998 13.005867,43.009338,892.159 13.005943,43.009337,891.2769999999999 13.006005,43.00934,890.4219999999999 13.006068,43.009345,889.5970000000001 13.006138,43.009341,888.7180000000001 13.006202,43.009319,888.28 13.00625405990255,43.00927195223844,887.997 13.00627652889106,43.00922623350726,887.7479999999999 13.00629167838436,43.00918216893609,888.061 13.00630741805055,43.00913173257878,888.0169999999999 13.0063173021913,43.00908705463677,886.9080000000001 13.00631463347451,43.00903685725365,885.859 13.00630180556759,43.00899054606749,885.186 13.00627815264623,43.00892234981166,884.174 13.00619946693636,43.00881151358745,884.0669999999999 13.00614750489213,43.00875142443031,883.9139999999999 13.00609849155411,43.00869023349291,884.542 13.00604782995667,43.00862238468895,885.222 13.00600552148128,43.00856859695002,886.014 13.00597206521285,43.00851793835704,886.808 13.00593770733203,43.00847302091671,887.6689999999999 13.00590025661169,43.00842497671884,888.456 13.00587258967233,43.00837405681646,889.114 13.00581952676534,43.00829119865701,888.9889999999999 13.00577704173998,43.0082472818488,889.4739999999999 13.00573264213177,43.00819038013471,890.2749999999999 13.00568653980485,43.00814304124304,891.4869999999999 13.00565355890186,43.00808634515891,891.744 13.00562621361251,43.00803301768533,892.0189999999998 13.00558988132921,43.00797369755654,892.309 13.00557210740154,43.00793762069792,892.419 13.00553798708629,43.00787720935076,892.908 13.00551733546737,43.00783555658492,892.9160000000001 13.00549254206634,43.00780031647755,893.283 13.00546911491374,43.00776394767343,893.3309999999999 13.00544337891343,43.00771127260551,893.586 13.00541918159894,43.00764669187229,893.431 13.00541277307792,43.00760297610646,892.9519999999999 13.00538233888608,43.00751767309274,892.6240000000001 13.0053698390595,43.00749178025152,892.311 13.00535944257059,43.00746305063777,891.9309999999999 13.00531597202193,43.00738681938436,892.4609999999999 13.00528966608219,43.00733933219581,893.3070000000001 13.00526062318802,43.00729648349183,893.9079999999999 13.00523401413416,43.00724034310218,894.1779999999999 13.00521332287327,43.00719263475539,894.9249999999998 13.00519286607114,43.0071287467628,895.5329999999999 13.00518225388877,43.00708203222931,895.2480000000002 13.005178,43.00703,895.193 13.005161,43.006979,895.2639999999999 13.00513302090773,43.00692916299329,895.1659999999999 13.0051634044254,43.0069423701069,896.888 13.00517547551179,43.00699346392432,896.1199999999999 13.00519559435194,43.00704482024551,895.6569999999998 13.00520854009314,43.00709925630049,895.799 13.00522437209217,43.00714923058305,895.3069999999998 13.00523966450715,43.00719097026398,895.227 13.005267,43.007254,894.4079999999999 13.00531426564567,43.00731001553319,894.3439999999999 13.00536830108971,43.00742219685092,893.934 13.00540043978684,43.00747220686728,893.279 13.00540803937753,43.0075246049069,893.3099999999999 13.00540949870819,43.00756638720724,892.292 13.0054310631032,43.00761951320231,893.639 13.00544952780663,43.00765552760343,894.4310000000002 13.00546803875034,43.0077152322802,894.3609999999999 13.00549044999336,43.00777149951708,894.807 13.00553411014798,43.00782904666438,895.1079999999998 13.00555654550045,43.00787680575479,895.1979999999999 13.0055784078296,43.00792116962405,895.4449999999999 13.00560723764831,43.00796663103623,895.2529999999999 13.00565445885082,43.00803084414756,894.8680000000001 13.00569408002098,43.00808869169906,894.663 13.00572730491362,43.0081438244758,894.354 13.00577795363338,43.00819936755278,893.9659999999999 13.00582734556043,43.00825653775112,893.4329999999999 13.0058698153859,43.00830533662132,892.9450000000001 13.00590376477059,43.0083496023983,892.0469999999999 13.00591488214117,43.00838435175604,891.0109999999999 13.00594654383776,43.00842876996414,889.9079999999999 13.00598657767526,43.00847695099258,888.9589999999999 13.00602264051206,43.00852461149269,888.236 13.00605972431768,43.00857280577008,887.674 13.00610525429921,43.00862113567577,887.0790000000001 13.00612825679963,43.00866452094291,886.5140000000001 13.00618359152917,43.00872302847608,886.095 13.00621973786504,43.00877264518392,885.7670000000001 13.00625641898182,43.00881585706342,885.5439999999999 13.00627326817114,43.00887626837382,885.592 13.00630745363287,43.00893041116836,886.073 13.00632837950574,43.00898084862668,886.3200000000002 13.00634087087156,43.00902414543315,886.9080000000001 13.00636331936001,43.00908107061881,887.5839999999998 13.00634725273348,43.00913475068383,888.2109999999999 13.00632139044279,43.00920594409948,888.7589999999999 13.00630302495622,43.00925658763958,888.294 13.006259,43.009298,887.6099999999998 13.00621350931078,43.00933573390013,887.9320000000001 13.006155,43.009375,887.869 13.006101,43.009418,887.664 13.006035,43.009437,887.8059999999999 13.005982,43.009462,887.816 13.005933,43.009503,887.4079999999999 13.005867,43.009536,887.091 13.005793,43.00957,886.8379999999999 13.005709,43.009601,886.9160000000002 13.005648,43.009621,887.021 13.005576,43.009638,887.2859999999999 13.005488,43.009649,887.7469999999997 13.00541,43.009668,887.919 13.005182,43.009769,886.3079999999999 13.005106,43.009802,885.461 13.005036,43.009822,884.9679999999998 13.004981,43.009843,884.5259999999998 13.004915,43.009869,884.581 13.004836,43.00989,884.9459999999999 13.004747,43.009923,885.0170000000001 13.00467,43.009955,884.8989999999999 13.004592,43.009991,884.436 13.00452,43.010021,884.3389999999999 13.004442,43.010054,884.401 13.004375,43.01009,884.321 13.004302,43.010128,884.008 13.004227,43.010157,884.0880000000001 13.004155,43.010196,883.775 13.00408,43.010237,883.2229999999998 13.004028,43.01028,882.338 13.003971,43.010321,881.4529999999997 13.003917,43.010356,880.564 13.003863,43.0104,879.3559999999999 13.003811,43.010428,878.5230000000001 13.003754,43.010449,878.0339999999998 13.003693,43.010483,877.1549999999999 13.003639,43.010505,876.5099999999999 13.003582,43.010531,875.7080000000002 13.003513,43.010554,875.1979999999999 13.003447,43.010573,874.575 13.003384,43.010591,874.093 13.00331,43.010599,874.0179999999999 13.003247,43.010616,873.5929999999998 13.003178,43.010625,873.2140000000001 13.003085,43.010623,873.5259999999998 13.003023,43.010621,873.9329999999999 13.002944,43.010626,874.1719999999999 13.002857,43.010631,874.1129999999999 13.002775,43.010639,874.0139999999998 13.002698,43.010654,873.6079999999998 13.002639,43.010667,873.192 13.002578,43.010685,872.3289999999998 13.002518,43.010701,871.777 13.002451,43.010716,870.972 13.002359,43.010731,869.9170000000001 13.00229,43.010745,869.028 13.002227,43.010752,868.5299999999997 13.002148,43.010774,867.2970000000001 13.002085,43.010779,866.726 13.002017,43.010782,866.5469999999999 13.001951,43.010789,866.1109999999999 13.001861,43.010797,865.508 13.001793,43.010795,865.417 13.001718,43.010799,865.2939999999999 13.001654,43.01081,864.7519999999998 13.001591,43.01082,864.847 13.001527,43.010826,865.4119999999999 13.001461,43.010832,866.1229999999999 13.001395,43.010828,867.2449999999999 13.001329,43.010826,868.4119999999999 13.001252,43.010829,869.5589999999997 13.001177,43.01084,870.1029999999998 13.001116,43.010851,870.423 13.001043,43.010867,870.8080000000001 13.000979,43.01088,871.0700000000001 13.000913,43.010905,870.957 13.000852,43.010939,870.1849999999999 13.000801,43.010985,868.87 13.000775,43.011031,866.9450000000001 13.000734,43.011082,865.056 13.000699,43.011126,863.4379999999998 13.000646,43.011178,861.6749999999998 13.00059,43.011214,860.8769999999998 13.000542,43.011257,859.6609999999998 13.000488,43.011294,858.727 13.000433,43.011332,857.9079999999999 13.000368,43.011382,856.6319999999998 13.000324,43.011419,855.6789999999999 13.000284,43.011457,854.4469999999999 13.000238,43.011497,853.272 13.000186,43.011546,851.797 13.000097,43.011577,851.6279999999999 13.000014,43.011562,853.84 12.999951,43.011563,854.6369999999999 12.999888,43.011521,856.962 12.999822,43.011477,859.6829999999999 12.999756,43.011432,862.5109999999999 12.999676,43.011397,865.008 12.999601,43.011361,867.7809999999999 12.999509,43.011342,869.628 12.99942,43.011334,870.896 12.999331,43.011331,871.611 12.99925,43.011325,872.626 12.999197,43.011293,874.7569999999999 12.999139,43.011272,877.1889999999997 12.999037,43.01126,880.0260000000001 12.99894,43.011254,882.127 12.998871,43.011254,883.768 12.998797,43.011247,885.514 12.998716,43.011242,887.508 12.998639,43.011251,888.7869999999999 12.998571,43.011278,888.2639999999999 12.998511,43.01131,887.0119999999998 12.998454,43.011338,885.897 12.998411,43.011385,883.2919999999999 12.998369,43.011437,879.9829999999999 12.998343,43.011483,876.4349999999998 12.998289,43.011531,873.6819999999999 12.998239,43.011566,872.0929999999998 12.998172,43.011577,872.3649999999999 12.998094,43.011557,875.521 12.998028,43.011549,878.3079999999999 12.997939,43.011547,880.7140000000001 12.997874,43.01155,882.321 12.997799,43.011552,883.919 12.997723,43.011561,885.3139999999997 12.997661,43.011569,886.3789999999999 12.997603,43.011591,886.1900000000001 12.997546,43.011616,885.4519999999999 12.997482,43.011636,885.189 12.997425,43.011657,884.4339999999999 12.997365,43.011676,884.0549999999997 12.9973,43.011693,884.21 12.997231,43.011742,883.308 12.99717,43.011786,882.2280000000001 12.997107,43.011825,881.395 12.997043,43.011855,880.9629999999999 12.996983,43.011887,880.348 12.996916,43.011906,880.213 12.996839,43.011939,879.944 12.996774,43.011946,880.256 12.996685,43.011958,881.2329999999998 12.996612,43.01199,880.4639999999999 12.996546,43.012018,879.1059999999999 12.99649,43.012039,878.1160000000001 12.996425,43.012053,877.5079999999998 12.996366,43.012078,876.6409999999998 12.996316,43.012119,874.7579999999999 12.996262,43.012157,872.966 12.996217,43.0122,871.021 12.996184,43.012247,868.836 12.996149,43.012311,865.8269999999999 12.996107,43.012351,863.7190000000001 12.996058,43.012384,862.1359999999999 12.996001,43.012406,861.1759999999999 12.995925,43.012428,860.3899999999999 12.995862,43.012438,860.0189999999999 12.995784,43.012439,860.008 12.995715,43.012454,859.2419999999998 12.995616,43.012457,858.859 12.995532,43.012464,858.457 12.995455,43.012477,857.832 12.995379,43.012493,856.997 12.995308,43.012501,856.4479999999999 12.99523,43.012502,856.33 12.995149,43.012518,856.117 12.995065,43.012521,856.092 12.994991,43.012529,855.9730000000001 12.994922,43.012536,856.2199999999999 12.994849,43.012547,856.6079999999999 12.994788,43.012541,856.974 12.994716,43.012552,857.3709999999999 12.994651,43.012569,857.679 12.994582,43.012577,858.054 12.99451,43.012582,858.429 12.994422,43.012579,858.9899999999998 12.99436,43.012588,859.3119999999998 12.994275,43.012583,859.869 12.994184,43.012577,860.2489999999998 12.994123,43.012586,860.602 12.994037,43.012577,861.122 12.993944,43.012577,861.6079999999998 12.993859,43.012577,862.029 12.993767,43.012576,862.5259999999997 12.993701,43.012589,863.1140000000001 12.993636,43.012607,863.8489999999999 12.993575,43.012635,864.8140000000001 12.99338206962091,43.01263420629299,864.8140000000001 12.99320881830482,43.012676810592,864.8140000000001 12.9930996099216,43.01269606408523,872.9820000000001 12.992994,43.0127,872.669 12.992909,43.012692,873.2269999999999 12.992833,43.012704,874.482 12.992748,43.012711,875.6869999999999 12.992667,43.012735,877.2680000000001 12.992581,43.012759,878.98 12.992508,43.012766,880.097 12.992436,43.01278,880.7380000000001 12.99236385910475,43.01278405078878,881.47 12.992265,43.012801,881.817 12.992176,43.012809,882.2079999999999 12.992111,43.012834,882.838 12.992047,43.012857,883.3250000000002 12.991979,43.01288,883.893 12.991895,43.012916,884.3779999999999 12.99183,43.012934,884.6229999999999 12.991757,43.012949,884.8939999999998 12.99168233570385,43.01297676776998,885.0359999999999 12.99161016872692,43.01301073110869,885.3929999999999 12.991558,43.013037,885.5519999999999 12.991547,43.013085,885.8529999999998 12.99157496683334,43.01312018468112,886.0079999999999 12.991641,43.013136,886.2079999999999 12.99170287600521,43.01311347922321,886.47 12.99176061761231,43.01309917909369,886.537 12.99184534087729,43.01307671644613,886.655 12.991913,43.013061,886.59 12.991975,43.013037,886.3749999999999 12.992037,43.013016,886.146 12.992128,43.013004,886.1279999999998 12.992209,43.012983,885.9449999999999 12.9923187033213,43.01294768002909,885.673 12.99238982047862,43.01293447364199,885.5849999999999 12.99246248095763,43.01292479544205,885.2129999999999 12.99254,43.012943,884.708 12.992599,43.012958,884.5719999999998 12.992663,43.012982,884.3589999999999 12.992728,43.013003,884.167 12.992808,43.013009,883.572 12.992854,43.013051,883.867 12.992917,43.013061,883.5979999999998 12.992974,43.013085,883.4400000000001 12.993023,43.013122,883.867 12.993104,43.013138,883.4809999999999 12.993175,43.013162,883.1609999999998 12.99325,43.013186,883.0170000000001 12.993321,43.013196,882.4079999999999 12.993377,43.013226,882.063 12.993423,43.013268,882.12 12.993469,43.013304,881.928 12.993532,43.013321,880.833 12.993615,43.013337,879.2479999999998 12.993683,43.013372,878.649 12.993732,43.013406,878.571 12.993786,43.013449,878.7879999999999 12.993792,43.013494,880.1729999999999 12.993782,43.013549,882.285 12.993767,43.013603,884.6130000000001 12.99376,43.013654,886.708 12.993746,43.013707,888.9920000000001 12.993743,43.013753,890.7189999999999 12.993768,43.013809,892.1369999999999 12.993762,43.01386,894.0519999999999 12.993783,43.013907,895.3769999999997 12.993812,43.013959,896.4279999999999 12.993847,43.014021,897.6299999999999 12.993896,43.014075,898.0369999999999 12.993919,43.014128,899.1170000000001 12.993919,43.014184,901.087 12.993931,43.014231,902.215 12.993937,43.014297,904.1079999999999 12.993942,43.014359,906.146 12.99393,43.014411,908.2729999999999 12.993932,43.014476,910.3309999999998 12.993951,43.01452,911.366 12.994013,43.01456,911.3109999999999 12.994086,43.014562,910.124 12.9941724888663,43.01450770383226,906.1509999999997 12.994218,43.014456,904.534 12.99426169016581,43.01441499692396,903.155 12.99432,43.014364,902.51 12.994373,43.014314,901.3079999999999 12.994421,43.014272,900.188 12.99446955594246,43.01421207255756,898.0149999999998 12.994517,43.014165,896.663 12.994582,43.014114,894.9779999999998 12.994651,43.014066,893.2429999999999 12.994721,43.014035,892.1139999999999 12.994781,43.014016,891.426 12.994863,43.014015,891.6729999999999 12.994931,43.014022,892.314 12.995013,43.01402,892.7539999999999 12.995078,43.014035,893.909 12.995141,43.014061,895.6079999999999 12.99521,43.014095,898.0659999999999 12.995284,43.014101,899.1329999999999 12.995357,43.014126,900.841 12.995424,43.014134,901.9659999999999 12.995507,43.014148,903.341 12.995583,43.014153,904.222 12.995646,43.014167,905.434 12.995708,43.014184,907.1310000000001 12.995803,43.014196,908.6429999999999 12.99587,43.0142,909.264 12.99593,43.01421,910.01 12.996009,43.014216,910.6079999999999 12.996089,43.014227,911.449 12.996174,43.01424,912.366 12.996249,43.014258,913.574 12.996501,43.014302,916.397 12.99659,43.014311,916.8940000000001 12.996672,43.014319,917.0379999999999 12.99674,43.014341,917.97 12.996833,43.014341,917.617 12.996924,43.014348,917.3079999999999 12.99699,43.014358,917.4479999999998 12.997055,43.014349,916.8649999999999 12.997125,43.014344,916.263 12.997196,43.014327,915.2879999999998 12.997269,43.014293,913.8629999999999 12.99731978852346,43.01425983192638,912.8539999999999 12.99737492939205,43.01422202683138,911.7859999999999 12.99743159616152,43.0141690231035,910.4729999999998 12.99744549179057,43.01413555479117,908.7879999999999 12.99751367574983,43.01411098300704,907.4239999999998 12.997553,43.014047,904.1260000000001 12.997621,43.014051,901.2079999999999 12.997631,43.01411,902.8129999999999 12.997603,43.014155,905.47 12.99760016770031,43.01420508197015,907.6579999999999 12.997626,43.014217,906.627 12.997619,43.014156,905.6079999999998 12.99765,43.014099,902.6139999999999 12.997657,43.014052,900.4309999999999 12.997598,43.014014,900.4789999999999 12.997543,43.014037,903.1739999999998 12.997505,43.014093,906.4889999999999 12.9974216337397,43.01411489260963,908.1699999999998 12.99739676316308,43.01417174580539,910.1819999999999 12.99735191518718,43.01420845913658,911.7190000000001 12.99730412520977,43.0142478972412,912.751 12.99725665750804,43.01427561077084,913.501 12.997198,43.014314,914.5110000000001 12.997084,43.014323,915.4079999999999 12.996989,43.014316,915.77 12.996918,43.014308,915.597 12.996838,43.014294,915.3350000000002 12.996773,43.014279,914.8099999999997 12.996698,43.01427,914.485 12.996615,43.014261,914.1559999999998 12.996534,43.014238,912.9379999999999 12.996447,43.014228,912.1349999999999 12.996371,43.014211,911.199 12.996295,43.014199,910.307 12.996211,43.014186,909.2269999999999 12.99614,43.014166,907.908 12.996079,43.014157,907.144 12.996014,43.014147,906.471 12.995947,43.014136,905.6889999999999 12.995884,43.01413,905.0940000000001 12.995804,43.014123,904.2489999999998 12.995741,43.014115,903.38 12.99567,43.014112,902.582 12.995594,43.01411,901.9289999999997 12.995527,43.014101,901.0410000000001 12.995439,43.014079,899.2809999999998 12.99535,43.014057,897.309 12.995287,43.014042,896.008 12.995222,43.014027,894.7189999999999 12.995134,43.014001,892.7859999999999 12.995058,43.013982,891.1239999999999 12.994982,43.013968,889.9889999999998 12.994914,43.013957,889.064 12.994844,43.013955,888.4549999999998 12.994772,43.013981,889.357 12.994689,43.014001,889.9440000000001 12.994633,43.014031,890.984 12.994588,43.014065,892.1069999999999 12.994558,43.014106,893.717 12.99451590455405,43.01414963760596,895.6079999999999 12.99446537855714,43.01419501717004,897.3929999999999 12.994429,43.014247,898.66 12.994387,43.014281,899.6279999999999 12.994317,43.014332,900.7129999999999 12.994281,43.014372,901.8579999999998 12.99423824655768,43.01440137560272,902.9189999999999 12.99420790180594,43.01444338975624,903.8109999999999 12.99415701571826,43.01449152175168,905.178 12.994086,43.014539,908.1739999999999 12.99402,43.014529,909.756 12.99397,43.014475,909.621 12.993962,43.014427,908.4080000000001 12.993969,43.014381,906.712 12.993971,43.014314,904.4489999999998 12.993965,43.014253,902.4669999999999 12.993951,43.014193,900.822 12.993934,43.014132,899.2669999999999 12.993918,43.014082,898.0579999999999 12.993895,43.014028,896.8699999999999 12.993866,43.013973,895.5669999999999 12.993841,43.013917,894.4509999999998 12.993805,43.013864,893.4009999999997 12.993788,43.01382,892.4110000000001 12.99379,43.013774,890.808 12.99379,43.013727,889.1799999999998 12.993796,43.013657,886.5769999999999 12.993807,43.013588,883.725 12.993813,43.013524,881.14 12.993807,43.013453,878.8549999999999 12.993789,43.013409,877.5459999999999 12.993735,43.013353,876.6379999999998 12.993667,43.01332,877.2249999999998 12.993613,43.013295,878.0810000000001 12.993556,43.013275,878.9609999999999 12.993495,43.013265,880.0169999999999 12.993436,43.01325,881.1079999999998 12.993396,43.01321,881.2629999999999 12.993333,43.013182,881.79 12.993271,43.013143,881.5180000000001 12.993221,43.013106,881.173 12.993172,43.013069,880.7580000000002 12.993097,43.013062,881.289 12.99304,43.013041,881.4709999999999 12.99297,43.013007,881.348 12.992904,43.012985,881.5459999999999 12.992826,43.012958,881.6879999999999 12.992741,43.012942,882.2159999999999 12.992668,43.012943,883.1079999999998 12.992569,43.012945,884.2789999999999 12.992496,43.012943,885.0459999999999 12.992432,43.01294,885.1739999999999 12.99234323533605,43.01296128858191,885.259 12.99228736773983,43.01298278873026,885.664 12.992222,43.012997,886.1950000000001 12.992163,43.013012,886.327 12.992103,43.013025,886.424 12.992026,43.01304,886.5639999999999 12.991951,43.013064,886.6059999999999 12.991875,43.013084,886.716 12.991814,43.013099,886.6079999999998 12.991728,43.013124,886.5909999999999 12.991664,43.013143,886.438 12.99157918015839,43.01315605434466,886.2559999999999 12.991508,43.013119,886.0509999999999 12.991418,43.013137,885.996 12.991364,43.013161,885.837 12.991311,43.013187,885.619 12.991261,43.013218,885.496 12.991212,43.013251,885.1210000000001 12.991158,43.01329,884.6409999999998 12.991111,43.013325,884.105 12.991038,43.013353,884.6079999999999 12.990955,43.013365,884.967 12.990862,43.013338,882.9739999999999 12.990799,43.013304,882.4719999999999 12.990731,43.013273,882.9769999999999 12.990681,43.013241,883.4619999999999 12.990624,43.013221,883.9829999999999 12.990544,43.013189,884.5649999999999 12.990474,43.01316,885.2119999999999 12.990411,43.013154,885.429 12.99034,43.013152,885.7 12.99027,43.01317,885.5200000000001 12.990211,43.013189,885.408 12.990154,43.013207,885.167 12.990073,43.013219,885.054 12.990032,43.013262,884.4819999999999 12.989973,43.013293,884.127 12.989918,43.013327,884.292 12.989854,43.013365,886.023 12.989784,43.013374,887.5349999999997 12.989714,43.013342,887.312 12.989665,43.013307,887.746 12.989587,43.013279,889.0879999999999 12.989518,43.01327,890.016 12.989449,43.013244,891.208 12.989386,43.01323,892.2289999999999 12.989325,43.01321,893.326 12.989263,43.013212,894.0939999999999 12.989196,43.013186,895.149 12.989138,43.013159,896.694 12.989081,43.013127,898.7949999999998 12.989036,43.013095,900.4969999999997 12.988987,43.013053,902.2939999999999 12.988941,43.013001,904.152 12.988954,43.01295,904.353 12.988917,43.012902,905.3079999999999 12.988841,43.012871,907.508 12.988781,43.01284,909.3899999999999 12.988718,43.012804,910.977 12.988652,43.012771,912.545 12.988583,43.012766,914.2799999999999 12.98849,43.012767,916.4449999999999 12.988419,43.012782,918.2559999999999 12.988365,43.012759,919.6980000000001 12.988313,43.012734,920.675 12.988304,43.012685,920.3589999999999 12.988232,43.012665,921.403 12.988172,43.012633,922.223 12.988125,43.012603,922.708 12.988042,43.012586,923.8799999999998 12.987963,43.012578,925.1169999999997 12.987904,43.01255,925.6450000000001 12.987836,43.012557,926.9599999999999 12.987775,43.012561,928.0949999999999 12.987712,43.012566,929.2760000000001 12.987649,43.012573,930.5979999999998 12.987586,43.01257,931.4249999999998 12.987518,43.012586,933.158 12.987465,43.012611,935.252 12.987391,43.012611,937.3170000000001 12.987332,43.012589,938.708 12.987268,43.012601,940.84 12.987203,43.012615,943.3269999999998 12.987143,43.012574,943.8550000000001 12.987085,43.01254,944.28 12.987027,43.01251,944.995 12.986972,43.012484,946.4160000000002 12.986917,43.012441,949.2179999999998 12.986857,43.012403,952.0349999999999 12.986814,43.012368,954.1559999999998 12.986753,43.012338,956.559 12.98669,43.012313,958.7139999999999 12.986641,43.012276,960.908 12.986622,43.012231,962.59 12.986557,43.012195,965.2670000000001 12.986502,43.01216,967.4850000000001 12.986445,43.012123,969.77 12.986391,43.012086,971.8849999999999 12.986344,43.012046,973.6859999999999 12.986283,43.012026,975.598 12.98623,43.011997,977.075 12.986292,43.011988,975.8649999999999 12.986354,43.011969,974.8679999999998 12.986409,43.011932,974.1139999999999 12.986366,43.011889,975.4079999999999 12.9863,43.011869,977.0710000000001 12.986225,43.011871,978.458 12.986154,43.011881,979.8959999999998 12.986091,43.011895,981.0409999999999 12.986059,43.011944,981.446 12.986003,43.011966,982.577 12.985985,43.012019,982.7190000000001 12.985969,43.012073,982.966 12.985957,43.012126,983.213 12.98596,43.012081,983.3429999999998 12.986022,43.012059,981.9069999999999 12.986053,43.012015,981.2079999999999 12.986095,43.011977,980.5659999999999 12.986035,43.011961,981.8829999999999 12.985976,43.011949,983.231 12.985901,43.01195,984.6159999999999 12.985927,43.011904,984.461 12.98596,43.01186,983.952 12.98591,43.011823,984.6740000000001 12.985844,43.01184,985.9109999999999 12.985816,43.01188,986.564 12.985745,43.011867,987.806 12.985801,43.011829,986.9160000000001 12.985865,43.011817,985.6079999999998 12.985891,43.011775,985.271 12.98587,43.011733,985.498 12.985846,43.011682,985.8160000000001 12.985921,43.011685,984.9309999999998 12.98593,43.011632,986.7259999999999 12.985895,43.011593,989.6169999999998 12.98584,43.011554,993.049 12.985777,43.011573,993.2459999999999 12.985698,43.011587,993.443 12.985634,43.011605,993.4640000000001 12.985568,43.011626,993.01 12.98548,43.011654,992.8079999999999 12.985422,43.011669,992.9189999999999 12.985376,43.011704,993.776 12.985335,43.011754,994.974 12.985337,43.011706,994.7489999999998 12.985335,43.011655,994.9539999999998 12.985263,43.01166,996.0349999999999 12.985221,43.011699,996.5170000000001 12.985178,43.011731,997.634 12.985181,43.011779,998.0859999999999 12.985172,43.011824,998.5599999999997 12.985138,43.011863,999.5259999999998 12.985066,43.011845,1000.708 12.984996,43.01185,1002.143 12.984941,43.01188,1003.35 12.984877,43.011872,1004.168 12.984813,43.011883,1005.123 12.984751,43.011887,1005.978 12.984681,43.011898,1007.129 12.984611,43.011909,1008.211 12.984548,43.01192,1009.288 12.984477,43.011923,1010.265 12.984422,43.0119,1010.868 12.984352,43.01188,1011.514 12.984295,43.01186,1012.208 12.984308,43.01181,1011.791 12.984285,43.011766,1011.318 12.984197,43.01178,1012.676 12.984121,43.011803,1013.881 12.984062,43.011826,1014.856 12.983983,43.011846,1016.047 12.983927,43.011869,1016.919 12.983854,43.011881,1017.946 12.983778,43.011888,1018.853 12.983728,43.011914,1019.604 12.983688,43.011948,1020.314 12.983632,43.011975,1021.008 12.983592,43.012014,1021.69 12.983584,43.012073,1022.037 12.983627,43.012107,1021.855 12.983688,43.012128,1021.39 12.983757,43.012134,1020.885 12.983831,43.012141,1020.266 12.98391,43.012154,1019.678 12.983972,43.012163,1019.195 12.983926,43.012197,1019.528 12.983838,43.012209,1020.489 12.983757,43.012215,1021.017 12.983676,43.012221,1021.808 12.983589,43.012227,1022.577 12.983512,43.012232,1023.134 12.983423,43.012249,1023.922 12.983353,43.012264,1024.457 12.983287,43.012274,1024.842 12.983207,43.012276,1025.153 12.983123,43.01227,1025.555 12.983044,43.012263,1025.822 12.982973,43.012255,1026.032 12.982894,43.012237,1026.292 12.982812,43.01222,1026.511 12.982743,43.012203,1026.608 12.982679,43.012194,1026.758 12.982595,43.012177,1026.995 12.982529,43.012166,1027.043 12.982451,43.012157,1027.278 12.982367,43.012168,1027.623 12.982282,43.012182,1028.014 12.982196,43.012189,1028.446 12.982111,43.012192,1028.753 12.982023,43.012191,1029.058 12.981932,43.012186,1029.352 12.981852,43.012191,1029.717 12.981789,43.012187,1029.808 12.981701,43.012182,1030.19 12.981616,43.012184,1030.227 12.981547,43.012181,1030.085 12.981454,43.012174,1029.74 12.981374,43.012174,1029.575 12.981296,43.012164,1029.256 12.981235,43.012157,1029.018 12.98115,43.012146,1028.625 12.981069,43.012131,1028.142 12.980989,43.01212,1027.722 12.980905,43.012109,1027.314 12.980831,43.0121,1026.908 12.980743,43.012085,1026.969 12.980683,43.012076,1027.046 12.980612,43.012068,1027.194 12.98055,43.012068,1027.419 12.980468,43.012059,1027.664 12.980402,43.012048,1027.685 12.980331,43.012048,1027.877 12.980266,43.012042,1028.064 12.980168,43.012036,1028.275 12.980106,43.012026,1028.328 12.980042,43.012008,1028.12 12.979972,43.012,1028.208 12.979886,43.011982,1028.962 12.979822,43.011951,1028.849 12.979758,43.011925,1028.817 12.979698,43.011894,1028.542 12.979627,43.011879,1028.677 12.979553,43.011872,1029.218 12.97946029161152,43.0118728350779,1028.35 12.97936985288787,43.01184536506674,1029.287 12.979266,43.011815,1030.2 12.979188,43.011801,1030.52 12.979105,43.011786,1030.708 12.97903,43.011775,1031.05 12.978968,43.011776,1031.717 12.97888,43.011768,1032.325 12.978798,43.011767,1033.16 12.978714,43.011764,1033.955 12.978647,43.011765,1034.546 12.978548,43.011765,1035.698 12.97848,43.011764,1036.395 12.9784115960125,43.01174566902658,1036.864 12.97833,43.011738,1036.706 12.97826,43.01172,1036.516 12.97817,43.011696,1036.308 12.978103,43.011688,1036.531 12.978033,43.011675,1036.748 12.97796,43.01166,1036.966 12.977887,43.011644,1037.541 12.977805,43.011626,1038.396 12.977736,43.011613,1039.077 12.977651,43.011577,1039.689 12.977594,43.01156,1040.116 12.977525,43.011541,1040.643 12.977442,43.011523,1041.364 12.977381,43.011506,1041.81 12.977295,43.011491,1042.508 12.977237,43.011472,1042.949 12.977156,43.011449,1043.496 12.977096,43.011432,1043.774 12.977039,43.011411,1044.079 12.97698,43.011392,1044.244 12.976919,43.011375,1044.455 12.976856,43.011361,1044.787 12.976796,43.011342,1044.934 12.976733,43.011325,1045.084 12.976673,43.011309,1045.207 12.976614,43.011293,1045.317 12.976531,43.011266,1045.508 12.976473,43.011243,1045.573 12.976391,43.011216,1045.58 12.976311,43.011191,1045.658 12.97625,43.011171,1045.583 12.97619,43.011153,1045.478 12.976127,43.011138,1045.489 12.976038,43.011113,1045.411 12.975979,43.01109,1045.068 12.975914,43.011065,1044.689 12.97584,43.011032,1044.006 12.975779,43.011003,1043.226 12.975721,43.010983,1042.608 12.975667,43.010959,1041.923 12.975585,43.010926,1041.05 12.975503,43.010904,1040.358 12.975441,43.010885,1039.843 12.975373,43.010862,1039.298 12.975317,43.010812,1038.329 12.975272,43.010762,1038.781 12.975232,43.010712,1039.048 12.975168,43.01066,1039.396 12.975116,43.010628,1039.531 12.975068,43.01059,1039.624 12.975014,43.010551,1039.608 12.974963,43.01051,1039.784 12.974889,43.010469,1039.651 12.974827,43.01044,1039.649 12.974755,43.01042,1039.484 12.974686,43.010397,1039.299 12.974614,43.010372,1039.08 12.974548,43.010356,1038.832 12.974476,43.010338,1038.589 12.974403,43.010322,1038.212 12.974337,43.010307,1037.932 12.974269,43.010291,1037.505 12.974201,43.010267,1037.108 12.97413,43.010249,1037.176 12.974066,43.010224,1037.593 12.974022,43.010191,1037.651 12.97399,43.010152,1037.466 12.973953,43.010114,1037.211 12.973884,43.010068,1037.022 12.973823,43.010032,1036.814 12.97377,43.010003,1036.511 12.97372,43.009962,1036.749 12.973671,43.009926,1036.902 12.973625,43.009885,1037.222 12.973564,43.00985,1037.408 12.973516,43.009821,1037.569 12.973444,43.009791,1037.656 12.973387,43.009767,1037.634 12.973321,43.009747,1037.869 12.973216,43.009704,1039.315 12.973112,43.009669,1040.557 12.973026,43.009659,1041.914 12.972954,43.00963,1042.811 12.972902,43.009596,1043.421 12.972829,43.009564,1044.203 12.972759,43.009543,1044.908 12.972703,43.009524,1045.596 12.972651,43.009489,1045.823 12.972582,43.009472,1046.561 12.972507,43.009452,1047.116 12.972436,43.009428,1047.661 12.972348,43.00941,1048.262 12.97228,43.009397,1048.794 12.97214,43.009406,1050.105 12.972079,43.009396,1050.625 12.972007,43.009389,1051.108 12.971943,43.009379,1051.692 12.97188,43.009382,1052.279 12.971802,43.009381,1052.997 12.971727,43.009391,1053.832 12.971662,43.009395,1054.467 12.971571,43.0094,1055.188 12.971503,43.009395,1055.43 12.971441,43.00939,1055.767 12.971351,43.009392,1056.255 12.971284,43.009397,1056.707 12.97121,43.009389,1057.017 12.971142,43.009381,1057.308 12.971051,43.00938,1057.83 12.970989,43.009376,1058.017 12.970896,43.009374,1058.575 12.970831,43.009369,1058.85 12.970761,43.009363,1059.135 12.970698,43.009354,1059.496 12.970608,43.009332,1059.658 12.970532,43.009317,1059.885 12.970454,43.009286,1059.595 12.970405,43.009259,1059.249 12.970346,43.009229,1058.723 12.970293,43.009201,1058.308 12.970207,43.009174,1057.954 12.97014,43.009167,1058.191 12.97007,43.009158,1058.729 12.969995,43.009143,1059.634 12.969907,43.009125,1060.769 12.96983,43.009103,1061.84 12.969748,43.009083,1062.992 12.969662,43.009087,1063.389 12.969598,43.009087,1063.654 12.969515,43.009076,1064.256 12.96945,43.009064,1064.911 12.969373,43.009053,1065.508 12.969307,43.009037,1066.28 12.969227,43.00901,1067.197 12.969162,43.008981,1068.015 12.9691,43.00896,1068.92 12.969043,43.008938,1069.695 12.968984,43.00892,1070.296 12.968909,43.008902,1070.988 12.968839,43.008893,1071.335 12.968756,43.008872,1071.975 12.968686,43.008851,1072.328 12.968602,43.008841,1072.72 12.96854,43.008834,1072.908 12.968469,43.008814,1073.152 12.968399,43.008802,1073.339 12.968327,43.008788,1073.467 12.968258,43.008767,1073.492 12.968193,43.008753,1073.467 12.96813,43.008737,1073.318 12.968047,43.008714,1073.19 12.967977,43.008695,1072.967 12.967912,43.008686,1072.793 12.967847,43.008666,1072.465 12.967784,43.008653,1072.221 12.967712,43.008635,1071.808 12.967643,43.008621,1071.424 12.96758,43.008607,1070.931 12.967512,43.008591,1070.579 12.967453,43.008575,1070.184 12.967385,43.008557,1069.719 12.967319,43.008545,1069.51 12.967252,43.008533,1069.212 12.967167,43.008509,1068.639 12.96708,43.008495,1068.271 12.967,43.008479,1067.741 12.966929,43.008466,1067.315 12.966856,43.008474,1067.308 12.966786,43.008469,1067.162 12.966712,43.008474,1067.189 12.966638,43.008481,1067.267 12.966561,43.008491,1067.842 12.966496,43.008489,1068.227 12.966428,43.008486,1068.468 12.966362,43.008485,1068.67 12.966289,43.008482,1068.927 12.966219,43.00848,1069.118 12.966153,43.008475,1069.398 12.966078,43.008468,1069.417 12.966008,43.008461,1069.508 12.965935,43.008451,1069.596 12.965874,43.008443,1069.583 12.96581,43.008436,1069.511 12.965745,43.008425,1069.426 12.965683,43.008414,1069.351 12.965622,43.008398,1068.962 12.96553,43.00837,1068.434 12.965448,43.008332,1067.591 12.965392,43.008306,1067.619 12.965307,43.008271,1068.009 12.965244,43.008243,1068.219 12.965187,43.008216,1068.408 12.965132,43.008189,1068.556 12.965058,43.008148,1068.643 12.965007,43.008119,1068.751 12.964936,43.008085,1068.886 12.964881,43.008056,1068.981 12.964828,43.008025,1069.022 12.964772,43.007998,1069.164 12.964713,43.00797,1069.281 12.964656,43.00793,1069.366 12.964592,43.007887,1069.429 12.96454,43.00786,1069.521 12.964484,43.007835,1069.608 12.964414,43.00779,1069.741 12.96436,43.007752,1069.858 12.964322,43.007707,1069.856 12.964277,43.00767,1069.961 12.96421,43.007621,1070.036 12.96417,43.007574,1070.087 12.964128,43.007517,1070.659 12.964085,43.007463,1071.586 12.964038,43.007418,1072.534 12.964002,43.007377,1073.355 12.963967,43.00733,1074.01 12.963923,43.007279,1074.808 12.963878,43.007227,1075.738 12.963834,43.007174,1076.425 12.963801,43.007126,1077.013 12.963767,43.007078,1077.698 12.963741,43.00703,1078.013 12.96371,43.006988,1078.424 12.963673,43.006944,1078.936 12.963644,43.006895,1079.343 12.963613,43.006848,1079.655 12.963581,43.006805,1080.007 12.96355,43.006764,1080.317 12.963519,43.006717,1080.608 12.963479,43.006676,1081.04 12.963434,43.006628,1081.667 12.963403,43.006583,1082.145 12.963362,43.006531,1082.69 12.963323,43.006483,1083.085 12.963287,43.006434,1083.756 12.963252,43.006392,1084.378 12.963214,43.006351,1084.935 12.963177,43.006303,1085.475 12.963136,43.006245,1085.828 12.9631,43.006189,1086.22 12.963073,43.006143,1086.308 12.963046,43.0061,1086.422 12.963004,43.006046,1086.659 12.962979,43.006001,1086.627 12.96293,43.005897,1086.347 12.962863,43.005818,1086.59 12.962826,43.005772,1087.347 12.962804,43.005723,1088.074 12.962771,43.005667,1088.956 12.962746,43.005607,1089.721 12.962732,43.005563,1090.308 12.962733,43.005517,1090.842 12.962727,43.00545,1091.589 12.962695,43.005404,1092.237 12.96269,43.00534,1092.832 12.962659,43.005293,1093.427 12.962645,43.005233,1094.078 12.962624,43.00518,1094.51 12.962616,43.00511,1095.267 12.962598,43.005062,1095.671 12.962609,43.005014,1096.141 12.96263,43.004968,1096.615 12.96262,43.004914,1097.008 12.962626,43.004853,1097.532 12.962643,43.004802,1098.039 12.962641,43.004747,1098.567 12.962631,43.004693,1098.862 12.962635,43.004641,1099.237 12.962645,43.004588,1099.818 12.962637,43.004518,1100.27 12.962635,43.004466,1100.677 12.962625,43.004415,1100.919 12.962621,43.004357,1101.309 12.962623,43.004294,1101.819 12.962607,43.004248,1102.008 12.962581,43.004187,1102.146 12.962538,43.004133,1102.083 12.962529,43.004074,1102.731 12.962524,43.004008,1103.726 12.962497,43.003952,1104.211 12.962503,43.003892,1105.292 12.962517,43.003847,1106.124 12.96249,43.0038,1106.771 12.962499,43.003746,1107.591 12.962504,43.003691,1108.381 12.96252,43.003641,1109.319 12.962517,43.003583,1110.208 12.962527,43.003532,1111.194 12.962545,43.003476,1112.321 12.96256,43.003423,1113.499 12.962564,43.003367,1114.444 12.962549,43.003316,1115.019 12.962562,43.003264,1116.18 12.962552,43.003208,1116.872 12.962566,43.00315,1118.199 12.962579,43.003083,1119.491 12.962587,43.003032,1120.481 12.962596,43.00298,1121.519 12.96261,43.002934,1122.508 12.962627,43.002876,1123.674 12.962621,43.002814,1124.561 12.962627,43.002768,1125.459 12.962654,43.002727,1126.324 12.962669,43.002678,1127.399 12.962657,43.002624,1128.17 12.962666,43.002576,1128.932 12.962678,43.002515,1130.139 12.962695,43.002463,1130.953 12.962709,43.002402,1131.704 12.962705,43.002351,1132.214 12.962689,43.002293,1132.708 12.962699,43.002231,1133.46 12.962724,43.002173,1134.237 12.962745,43.002115,1135.115 12.962755,43.002061,1135.77 12.96278,43.001905,1137.748 12.962787,43.00185,1138.245 12.96278,43.001799,1138.835 12.962791,43.001743,1139.486 12.962775,43.001689,1140.014 12.962767,43.001624,1140.508 12.962764,43.001575,1140.838 12.962762,43.001526,1141.215 12.962755,43.001465,1141.613 12.962756,43.001419,1141.958 12.962753,43.001347,1142.423 12.96276,43.001295,1142.914 12.962761,43.001248,1143.326 12.962751,43.0012,1143.613 12.962742,43.001148,1143.975 12.962733,43.001091,1144.328 12.962735,43.001037,1144.72 12.962733,43.000978,1145.208 12.96273,43.00091,1145.722 12.962724,43.000853,1146.199 12.962739,43.000804,1146.577 12.962751,43.000738,1147.142 12.962775,43.000667,1147.757 12.962793,43.000618,1148.268 12.962808,43.000555,1148.78 12.962799,43.000489,1149.127 12.962767,43.000439,1149.414 12.962734,43.000397,1149.554 12.962698,43.00034,1149.809 12.962673,43.000286,1150.108 12.962699,43.000235,1150.646 12.962732,43.000189,1151.173 12.962778,43.000156,1151.441 12.962817,43.000108,1151.966 12.962856,43.000053,1152.491 12.962881,42.999998,1152.842 12.9629,42.999952,1152.434 12.962913,42.999905,1151.991 12.962921,42.999858,1151.439 12.962925,42.999803,1150.701 12.962928,42.999747,1150.121 12.962929,42.999699,1149.508 12.96292,42.999645,1148.968 12.962911,42.999597,1148.275 12.962902,42.999548,1147.683 12.962891,42.999499,1147.098 12.962881,42.999433,1146.223 12.962868,42.999384,1145.674 12.962852,42.99933,1144.966 12.962837,42.999281,1144.373 12.962823,42.999233,1143.771 12.962806,42.999173,1142.941 12.962761,42.999012,1141.072 12.962752,42.998965,1140.559 12.962733,42.998916,1139.977 12.962703,42.998858,1139.122 12.962671,42.998807,1138.517 12.962612,42.998758,1137.688 12.962592,42.998715,1137.07 12.962579,42.998669,1136.537 12.962556,42.99862,1135.831 12.962536,42.998569,1135.161 12.962534,42.998516,1134.507 12.962527,42.998456,1133.708 12.962507,42.99841,1133.168 12.962501,42.998363,1132.425 12.962503,42.998304,1131.973 12.962499,42.99824,1131.758 12.962518,42.998194,1131.623 12.962547,42.998134,1131.534 12.962572,42.998085,1131.356 12.962584,42.998014,1131.153 12.96262,42.99797,1131.057 12.962672,42.997919,1130.8 12.962697,42.997868,1130.62 12.962719,42.99781,1130.308 12.962759,42.997764,1130.08 12.962776,42.997719,1129.847 12.96279,42.997672,1129.415 12.962799,42.997622,1129.13 12.962819,42.997569,1128.795 12.962847,42.997512,1128.366 12.962867,42.997462,1127.918 12.96289,42.997407,1127.545 12.96291,42.997354,1127.285 12.962931,42.997306,1126.889 12.962937,42.997259,1126.517 12.962949,42.997197,1126.108 12.962973,42.997129,1125.613 12.963005,42.997065,1125.17 12.96304,42.997023,1124.758 12.963074,42.996983,1124.333 12.963087,42.996934,1124.088 12.963126,42.996872,1123.459 12.96315,42.996823,1123.061 12.963156,42.996774,1122.618 12.963143,42.996725,1122.371 12.963173,42.996663,1121.841 12.963205,42.996596,1121.415 12.963228,42.99654,1121.108 12.96324,42.996485,1120.892 
				</coordinates>
			</LineString>
		</Placemark>
		<Placemark>
			<name>(t)1</name>
			<description>Tappa 1 - Selvapiana;Stage 1 - Selvapiana</description>
			<LookAt>
				<gx:TimeStamp><when>2022-04-30</when>
</gx:TimeStamp>
				<gx:ViewerOptions>
					<gx:option name="historicalimagery"></gx:option>
					<gx:option enabled="0" name="sunlight"></gx:option>
					<gx:option enabled="0" name="streetview"></gx:option>
				</gx:ViewerOptions>
				<longitude>12.96304062611936</longitude>
				<latitude>42.99655985100676</latitude>
				<altitude>0</altitude>
				<heading>-0.01516161775330572</heading>
				<tilt>34.0753324926365</tilt>
				<range>183.5908410276333</range>
				<gx:altitudeMode>relativeToSeaFloor</gx:altitudeMode>
			</LookAt>
			<styleUrl>#msn_grn-pushpin</styleUrl>
			<Point>
				<gx:drawOrder>1</gx:drawOrder>
				<coordinates>12.96322620331973,42.99640871232336,0</coordinates>
			</Point>
		</Placemark>
		<Placemark>
			<name>1</name>
			<open>1</open>
			<description>Svolta a destra e prosegui lungo la strada asfarlata;Turn right and continue along the paved road</description>
			<LookAt>
				<gx:TimeStamp><when>2022-04-30</when>
</gx:TimeStamp>
				<gx:ViewerOptions>
					<gx:option name="historicalimagery"></gx:option>
					<gx:option enabled="0" name="sunlight"></gx:option>
					<gx:option enabled="0" name="streetview"></gx:option>
				</gx:ViewerOptions>
				<longitude>12.96304062611936</longitude>
				<latitude>42.99655985100676</latitude>
				<altitude>0</altitude>
				<heading>-0.01516161775330572</heading>
				<tilt>34.0753324926365</tilt>
				<range>183.5908410276333</range>
				<gx:altitudeMode>relativeToSeaFloor</gx:altitudeMode>
			</LookAt>
			<styleUrl>#msn_red-pushpin0</styleUrl>
			<Point>
				<gx:drawOrder>1</gx:drawOrder>
				<coordinates>12.96330741227932,42.99644247815979,0</coordinates>
			</Point>
		</Placemark>
		<Placemark>
			<name>2</name>
			<description>Svolta a sinistra;Turn left</description>
			<LookAt>
				<longitude>12.96391470430919</longitude>
				<latitude>42.99558335570947</latitude>
				<altitude>0</altitude>
				<heading>-0.2993680554035445</heading>
				<tilt>30.0010487613557</tilt>
				<range>232.9936181842156</range>
				<gx:altitudeMode>relativeToSeaFloor</gx:altitudeMode>
			</LookAt>
			<styleUrl>#m_ylw-pushpin000</styleUrl>
			<Point>
				<gx:drawOrder>1</gx:drawOrder>
				<coordinates>12.96405133789309,42.99542732600743,0</coordinates>
			</Point>
		</Placemark>
		<Placemark>
			<name>3</name>
			<description>Al crocevia svolta a sinistra a prosegui lungo il sentiero sterrato;At the crossroads, turn left and continue along the dirt path</description>
			<LookAt>
				<longitude>12.96622794785091</longitude>
				<latitude>42.99549552350915</latitude>
				<altitude>0</altitude>
				<heading>-0.2977905620056857</heading>
				<tilt>30.00104876135567</tilt>
				<range>232.993618182095</range>
				<gx:altitudeMode>relativeToSeaFloor</gx:altitudeMode>
			</LookAt>
			<styleUrl>#m_ylw-pushpin000</styleUrl>
			<Point>
				<gx:drawOrder>1</gx:drawOrder>
				<coordinates>12.96717191768099,42.99507534176295,0</coordinates>
			</Point>
		</Placemark>
		<Placemark>
			<name>4</name>
			<description>Tieni la destra;Keep right</description>
			<LookAt>
				<longitude>12.96884959686141</longitude>
				<latitude>42.99577106297696</latitude>
				<altitude>0</altitude>
				<heading>-0.2960183447733656</heading>
				<tilt>30.00088694914097</tilt>
				<range>196.6461137112715</range>
				<gx:altitudeMode>relativeToSeaFloor</gx:altitudeMode>
			</LookAt>
			<styleUrl>#m_ylw-pushpin000</styleUrl>
			<Point>
				<gx:drawOrder>1</gx:drawOrder>
				<coordinates>12.96873608997801,42.99607780540484,0</coordinates>
			</Point>
		</Placemark>
		<Placemark>
			<name>5</name>
			<description>Svolta a sinistra;Turn left</description>
			<LookAt>
				<longitude>12.97757390396196</longitude>
				<latitude>42.99338981247532</latitude>
				<altitude>0</altitude>
				<heading>-0.2900534389579763</heading>
				<tilt>30.00104876135568</tilt>
				<range>232.9936181823367</range>
				<gx:altitudeMode>relativeToSeaFloor</gx:altitudeMode>
			</LookAt>
			<styleUrl>#m_ylw-pushpin000</styleUrl>
			<Point>
				<gx:drawOrder>1</gx:drawOrder>
				<coordinates>12.97806666666667,42.99334722222223,0</coordinates>
			</Point>
		</Placemark>
		<Placemark>
			<name>6</name>
			<description>Continua verso destra;Continue to the right</description>
			<LookAt>
				<longitude>12.98325661104907</longitude>
				<latitude>43.00445253731926</latitude>
				<altitude>0</altitude>
				<heading>-0.28642050541013</heading>
				<tilt>23.01849102431784</tilt>
				<range>291.8885546056895</range>
				<gx:altitudeMode>relativeToSeaFloor</gx:altitudeMode>
			</LookAt>
			<styleUrl>#m_ylw-pushpin000</styleUrl>
			<Point>
				<gx:drawOrder>1</gx:drawOrder>
				<coordinates>12.98255075067596,43.00390392092323,0</coordinates>
			</Point>
		</Placemark>
		<Placemark>
			<name>7</name>
			<description>Prosegui dritto;Continue straight</description>
			<LookAt>
				<longitude>12.98652502725575</longitude>
				<latitude>43.00419762859807</latitude>
				<altitude>0</altitude>
				<heading>-0.2837741219545696</heading>
				<tilt>28.15874337639467</tilt>
				<range>198.4063308967389</range>
				<gx:altitudeMode>relativeToSeaFloor</gx:altitudeMode>
			</LookAt>
			<styleUrl>#m_ylw-pushpin000</styleUrl>
			<Point>
				<gx:drawOrder>1</gx:drawOrder>
				<coordinates>12.98651381081769,43.00407910656683,0</coordinates>
			</Point>
		</Placemark>
		<Placemark>
			<name>8</name>
			<description>Svolta a sinistra;Turn left</description>
			<LookAt>
				<longitude>12.98679990887816</longitude>
				<latitude>43.00105863634001</latitude>
				<altitude>0</altitude>
				<heading>-0.2835865408382816</heading>
				<tilt>28.15904144629413</tilt>
				<range>268.6934414507751</range>
				<gx:altitudeMode>relativeToSeaFloor</gx:altitudeMode>
			</LookAt>
			<styleUrl>#m_ylw-pushpin000</styleUrl>
			<Point>
				<gx:drawOrder>1</gx:drawOrder>
				<coordinates>12.98722613846364,43.00081406651145,0</coordinates>
			</Point>
		</Placemark>
		<Placemark>
			<name>9</name>
			<description>Presegui dritto;Continue straight</description>
			<LookAt>
				<longitude>12.99339258989956</longitude>
				<latitude>43.0037374705708</latitude>
				<altitude>0</altitude>
				<heading>1.697510093545328</heading>
				<tilt>30.00127761177148</tilt>
				<range>284.4969603868615</range>
				<gx:altitudeMode>relativeToSeaFloor</gx:altitudeMode>
			</LookAt>
			<styleUrl>#m_ylw-pushpin000</styleUrl>
			<Point>
				<gx:drawOrder>1</gx:drawOrder>
				<coordinates>12.993425,43.00316944444445,0</coordinates>
			</Point>
		</Placemark>
		<Placemark>
			<name>10</name>
			<description>Svolta a sinistra;Turn left</description>
			<LookAt>
				<longitude>13.00065599338151</longitude>
				<latitude>43.00748964102345</latitude>
				<altitude>0</altitude>
				<heading>-0.2747110441895647</heading>
				<tilt>22.97129833075199</tilt>
				<range>255.4176741994608</range>
				<gx:altitudeMode>relativeToSeaFloor</gx:altitudeMode>
			</LookAt>
			<styleUrl>#m_ylw-pushpin000</styleUrl>
			<Point>
				<gx:drawOrder>1</gx:drawOrder>
				<coordinates>13.00158361084389,43.00773497365261,0</coordinates>
			</Point>
		</Placemark>
		<Placemark>
			<name>11</name>
			<open>1</open>
			<description>Svolta a destra;Turn right</description>
			<LookAt>
				<longitude>13.00042138079273</longitude>
				<latitude>43.00802208409189</latitude>
				<altitude>0</altitude>
				<heading>-0.2748710828733073</heading>
				<tilt>22.97129833075197</tilt>
				<range>255.417674198676</range>
				<gx:altitudeMode>relativeToSeaFloor</gx:altitudeMode>
			</LookAt>
			<styleUrl>#m_ylw-pushpin000</styleUrl>
			<Point>
				<gx:drawOrder>1</gx:drawOrder>
				<coordinates>12.99898822303756,43.00743434719334,0</coordinates>
			</Point>
		</Placemark>
		<Placemark>
			<name>12</name>
			<open>1</open>
			<description>Svolta a sinistra;Turn left</description>
			<LookAt>
				<longitude>13.00126153601011</longitude>
				<latitude>43.00822767465096</latitude>
				<altitude>0</altitude>
				<heading>-0.2742980128247995</heading>
				<tilt>22.97129833075189</tilt>
				<range>255.4176741975436</range>
				<gx:altitudeMode>relativeToSeaFloor</gx:altitudeMode>
			</LookAt>
			<styleUrl>#m_ylw-pushpin000</styleUrl>
			<Point>
				<gx:drawOrder>1</gx:drawOrder>
				<coordinates>13.00290754202943,43.00848161892237,0</coordinates>
			</Point>
		</Placemark>
		<Placemark>
			<name>13</name>
			<description>Svolta a destra;Turn right</description>
			<LookAt>
				<longitude>13.0004053262715</longitude>
				<latitude>43.00801603078301</latitude>
				<altitude>0</altitude>
				<heading>-0.274880360802289</heading>
				<tilt>23.00701263878212</tilt>
				<range>252.5643177038457</range>
				<gx:altitudeMode>relativeToSeaFloor</gx:altitudeMode>
			</LookAt>
			<styleUrl>#m_ylw-pushpin000</styleUrl>
			<Point>
				<gx:drawOrder>1</gx:drawOrder>
				<coordinates>12.99951397729305,43.00931498624516,0</coordinates>
			</Point>
		</Placemark>
		<Placemark>
			<name>14</name>
			<open>1</open>
			<description>Svolta a destra;Turn right</description>
			<LookAt>
				<longitude>13.00541297612243</longitude>
				<latitude>43.00830920392289</latitude>
				<altitude>0</altitude>
				<heading>-0.2714645928363886</heading>
				<tilt>23.00701263878209</tilt>
				<range>252.564317701954</range>
				<gx:altitudeMode>relativeToSeaFloor</gx:altitudeMode>
			</LookAt>
			<styleUrl>#m_ylw-pushpin000</styleUrl>
			<Point>
				<gx:drawOrder>1</gx:drawOrder>
				<coordinates>13.00606137308763,43.00925257375116,0</coordinates>
			</Point>
		</Placemark>
		<Placemark>
			<name>(t)2</name>
			<description>Tappa 2 - Cesure:Stage 2 - Cesure</description>
			<LookAt>
				<longitude>13.00515999840487</longitude>
				<latitude>43.00722901859934</latitude>
				<altitude>0</altitude>
				<heading>-0.2716272847184026</heading>
				<tilt>26.58721209867326</tilt>
				<range>190.8975016650618</range>
				<gx:altitudeMode>relativeToSeaFloor</gx:altitudeMode>
			</LookAt>
			<styleUrl>#msn_grn-pushpin</styleUrl>
			<Point>
				<gx:drawOrder>1</gx:drawOrder>
				<coordinates>13.00511388888889,43.006925,0</coordinates>
			</Point>
		</Placemark>
		<Placemark>
			<name>15</name>
			<open>1</open>
			<description>Torna indietro passando per lo stesso percorso fatto per arrivare fin quì;Go back along the same path you took to get here</description>
			<LookAt>
				<gx:TimeStamp><when>2022-04-30</when>
</gx:TimeStamp>
				<gx:ViewerOptions>
					<gx:option name="historicalimagery"></gx:option>
					<gx:option enabled="0" name="sunlight"></gx:option>
					<gx:option enabled="0" name="streetview"></gx:option>
				</gx:ViewerOptions>
				<longitude>13.00484122364804</longitude>
				<latitude>43.00705359155207</latitude>
				<altitude>0</altitude>
				<heading>0.01265786660244815</heading>
				<tilt>26.31717320628574</tilt>
				<range>126.3707194491623</range>
				<gx:altitudeMode>relativeToSeaFloor</gx:altitudeMode>
			</LookAt>
			<styleUrl>#msn_red-pushpin0</styleUrl>
			<Point>
				<gx:drawOrder>1</gx:drawOrder>
				<coordinates>13.00516795133047,43.00693446527272,0</coordinates>
			</Point>
		</Placemark>
		<Placemark>
			<name>16</name>
			<description>Tieni la destra;Keep right</description>
			<LookAt>
				<longitude>13.00640365400867</longitude>
				<latitude>43.00945304380249</latitude>
				<altitude>0</altitude>
				<heading>-0.2707790128281756</heading>
				<tilt>26.58721209867326</tilt>
				<range>190.8975016637121</range>
				<gx:altitudeMode>relativeToSeaFloor</gx:altitudeMode>
			</LookAt>
			<styleUrl>#m_ylw-pushpin000</styleUrl>
			<Point>
				<gx:drawOrder>1</gx:drawOrder>
				<coordinates>13.00625833333333,43.009325,0</coordinates>
			</Point>
		</Placemark>
		<Placemark>
			<name>17</name>
			<description>Svolta a destra;Keep right</description>
			<LookAt>
				<longitude>12.99228519640807</longitude>
				<latitude>43.01315686109221</latitude>
				<altitude>0</altitude>
				<heading>-0.2804107806900976</heading>
				<tilt>26.26868245697359</tilt>
				<range>288.6896014768582</range>
				<gx:altitudeMode>relativeToSeaFloor</gx:altitudeMode>
			</LookAt>
			<styleUrl>#m_ylw-pushpin000</styleUrl>
			<Point>
				<gx:drawOrder>1</gx:drawOrder>
				<coordinates>12.99156815423531,43.01298130236469,0</coordinates>
			</Point>
		</Placemark>
		<Placemark>
			<name>18</name>
			<description>Torna indietro passando per lo stesso percorso fatto per arrivare fin quì;Go back along the same path you took to get here</description>
			<LookAt>
				<longitude>12.99692005120031</longitude>
				<latitude>43.01326447422021</latitude>
				<altitude>0</altitude>
				<heading>-0.2772490514117233</heading>
				<tilt>26.26868245697355</tilt>
				<range>288.6896014812342</range>
				<gx:altitudeMode>relativeToSeaFloor</gx:altitudeMode>
			</LookAt>
			<styleUrl>#m_ylw-pushpin000</styleUrl>
			<Point>
				<gx:drawOrder>1</gx:drawOrder>
				<coordinates>12.99768970389305,43.01421529166986,0</coordinates>
			</Point>
		</Placemark>
		<Placemark>
			<name>19</name>
			<description>Svolta a destra;Keep right</description>
			<LookAt>
				<longitude>12.99152504599238</longitude>
				<latitude>43.01342863149176</latitude>
				<altitude>0</altitude>
				<heading>-0.2809060245815908</heading>
				<tilt>30.00071745675541</tilt>
				<range>158.9950867494512</range>
				<gx:altitudeMode>relativeToSeaFloor</gx:altitudeMode>
			</LookAt>
			<styleUrl>#m_ylw-pushpin000</styleUrl>
			<Point>
				<gx:drawOrder>1</gx:drawOrder>
				<coordinates>12.99150231330684,43.01313036128545,0</coordinates>
			</Point>
		</Placemark>
		<Placemark>
			<name>(t)3</name>
			<description>Tappa 3 - Valcaldara;Stage 3 - Valcaldara</description>
			<LookAt>
				<gx:TimeStamp><when>2022-04-30</when>
</gx:TimeStamp>
				<gx:ViewerOptions>
					<gx:option name="historicalimagery"></gx:option>
					<gx:option enabled="0" name="sunlight"></gx:option>
					<gx:option enabled="0" name="streetview"></gx:option>
				</gx:ViewerOptions>
				<longitude>12.99097294959938</longitude>
				<latitude>43.01321971751444</latitude>
				<altitude>0</altitude>
				<heading>-0.005516409494479819</heading>
				<tilt>20.09082728997898</tilt>
				<range>163.0720723632409</range>
				<gx:altitudeMode>relativeToSeaFloor</gx:altitudeMode>
			</LookAt>
			<styleUrl>#msn_grn-pushpin</styleUrl>
			<Point>
				<gx:drawOrder>1</gx:drawOrder>
				<coordinates>12.99046928843492,43.01317203387241,0</coordinates>
			</Point>
		</Placemark>
		<Placemark>
			<name>20</name>
			<open>1</open>
			<description>Prendere il sentiero a sinistra per le cascate di Val Cadara;Take the path on the left to the Val Cadara waterfalls</description>
			<LookAt>
				<longitude>12.99011200109604</longitude>
				<latitude>43.013166129974</latitude>
				<altitude>0</altitude>
				<heading>-0.2818699642755678</heading>
				<tilt>30.00071745675538</tilt>
				<range>158.9950867491667</range>
				<gx:altitudeMode>relativeToSeaFloor</gx:altitudeMode>
			</LookAt>
			<styleUrl>#m_ylw-pushpin000</styleUrl>
			<Point>
				<gx:drawOrder>1</gx:drawOrder>
				<coordinates>12.98979031476545,43.01338687499495,0</coordinates>
			</Point>
		</Placemark>
		<Placemark>
			<name>21</name>
			<description>Svolta a sinistra e prendi il sentiero principale;Turn left and take the main path</description>
			<LookAt>
				<gx:TimeStamp><when>2022-04-30</when>
</gx:TimeStamp>
				<gx:ViewerOptions>
					<gx:option name="historicalimagery"></gx:option>
					<gx:option enabled="0" name="sunlight"></gx:option>
					<gx:option enabled="0" name="streetview"></gx:option>
				</gx:ViewerOptions>
				<longitude>12.9840453358217</longitude>
				<latitude>43.01226825355661</latitude>
				<altitude>0</altitude>
				<heading>-0.2860149399651512</heading>
				<tilt>29.19121289855663</tilt>
				<range>74.76515425338783</range>
				<gx:altitudeMode>relativeToSeaFloor</gx:altitudeMode>
			</LookAt>
			<styleUrl>#m_ylw-pushpin000</styleUrl>
			<Point>
				<gx:drawOrder>1</gx:drawOrder>
				<coordinates>12.98398333333333,43.01216111111111,0</coordinates>
			</Point>
		</Placemark>
		<Placemark>
			<name>(t)4</name>
			<open>1</open>
			<description>Tappa 4 - Vene di Valcaldara;Stage 4 - Vene di Valcaldara</description>
			<LookAt>
				<gx:TimeStamp><when>2022-04-30</when>
</gx:TimeStamp>
				<gx:ViewerOptions>
					<gx:option name="historicalimagery"></gx:option>
					<gx:option enabled="0" name="sunlight"></gx:option>
					<gx:option enabled="0" name="streetview"></gx:option>
				</gx:ViewerOptions>
				<longitude>12.97902080786263</longitude>
				<latitude>43.01208712064843</latitude>
				<altitude>0</altitude>
				<heading>-0.01369919316562544</heading>
				<tilt>20.70738942480194</tilt>
				<range>825.5409458404445</range>
				<gx:altitudeMode>relativeToSeaFloor</gx:altitudeMode>
			</LookAt>
			<styleUrl>#msn_grn-pushpin</styleUrl>
			<Point>
				<gx:drawOrder>1</gx:drawOrder>
				<coordinates>12.9796552098124,43.01196691273219,0</coordinates>
			</Point>
		</Placemark>
		<Placemark>
			<name>22</name>
			<description>Tieni la sinistra;Keep left</description>
			<LookAt>
				<gx:TimeStamp><when>2022-04-30</when>
</gx:TimeStamp>
				<gx:ViewerOptions>
					<gx:option name="historicalimagery"></gx:option>
					<gx:option enabled="0" name="sunlight"></gx:option>
					<gx:option enabled="0" name="streetview"></gx:option>
				</gx:ViewerOptions>
				<longitude>12.9626685419621</longitude>
				<latitude>43.00011541918008</latitude>
				<altitude>0</altitude>
				<heading>-0.3005966580108048</heading>
				<tilt>29.19121289855665</tilt>
				<range>74.76515425451214</range>
				<gx:altitudeMode>relativeToSeaFloor</gx:altitudeMode>
			</LookAt>
			<styleUrl>#m_ylw-pushpin000</styleUrl>
			<Point>
				<gx:drawOrder>1</gx:drawOrder>
				<coordinates>12.96266666666667,43.00027085451731,0</coordinates>
			</Point>
		</Placemark>
		<Placemark>
			<name>23</name>
			<description>Svoltare a sinistra;Turn left</description>
			<LookAt>
				<gx:TimeStamp><when>2022-04-30</when>
</gx:TimeStamp>
				<gx:ViewerOptions>
					<gx:option name="historicalimagery"></gx:option>
					<gx:option enabled="0" name="sunlight"></gx:option>
					<gx:option enabled="0" name="streetview"></gx:option>
				</gx:ViewerOptions>
				<longitude>12.96301183020737</longitude>
				<latitude>42.99638372630647</latitude>
				<altitude>0</altitude>
				<heading>-0.3003625153924893</heading>
				<tilt>29.19130195901811</tilt>
				<range>95.08144224880331</range>
				<gx:altitudeMode>relativeToSeaFloor</gx:altitudeMode>
			</LookAt>
			<styleUrl>#m_ylw-pushpin000</styleUrl>
			<Point>
				<gx:drawOrder>1</gx:drawOrder>
				<coordinates>12.96320833333333,42.99652222222223,0</coordinates>
			</Point>
		</Placemark>
		<Placemark>
			<name>(t)5</name>
			<open>1</open>
			<description>Tappa 5;Stage 5</description>
			<LookAt>
				<gx:TimeStamp><when>2022-04-30</when>
</gx:TimeStamp>
				<gx:ViewerOptions>
					<gx:option name="historicalimagery"></gx:option>
					<gx:option enabled="0" name="sunlight"></gx:option>
					<gx:option enabled="0" name="streetview"></gx:option>
				</gx:ViewerOptions>
				<longitude>12.96331077709457</longitude>
				<latitude>42.9965723421579</latitude>
				<altitude>0</altitude>
				<heading>-0.02368384517387964</heading>
				<tilt>29.51660710399572</tilt>
				<range>189.7207349028853</range>
				<gx:altitudeMode>relativeToSeaFloor</gx:altitudeMode>
			</LookAt>
			<styleUrl>#msn_red-pushpin0</styleUrl>
			<Point>
				<gx:drawOrder>1</gx:drawOrder>
				<coordinates>12.96325243345885,42.99648769487354,0</coordinates>
			</Point>
		</Placemark>
		<atom:link rel="app" href="https://www.google.com/earth/about/versions/#earth-pro" title="Google Earth Pro 7.3.6.10441"></atom:link>
	</Folder>
</Document>
</kml>
