<?xml version="1.0" encoding="UTF-8"?>
<kml xmlns="http://www.opengis.net/kml/2.2" xmlns:gx="http://www.google.com/kml/ext/2.2" xmlns:kml="http://www.opengis.net/kml/2.2" xmlns:atom="http://www.w3.org/2005/Atom">
<Document>
	<name>PoggioSanVicino_IOT.kml</name>
	<StyleMap id="__managed_style_6ED950632E39D87D5FA6">
		<Pair>
			<key>normal</key>
			<styleUrl>#failed13</styleUrl>
		</Pair>
		<Pair>
			<key>highlight</key>
			<styleUrl>#failed03</styleUrl>
		</Pair>
	</StyleMap>
	<Style id="failed03">
		<LineStyle>
			<color>ff0affff</color>
			<width>2</width>
		</LineStyle>
	</Style>
	<Style id="failed13">
		<LineStyle>
			<color>ff0affff</color>
			<width>2</width>
		</LineStyle>
	</Style>
	<StyleMap id="m_ylw-pushpin01">
		<Pair>
			<key>normal</key>
			<styleUrl>#s_ylw-pushpin00</styleUrl>
		</Pair>
		<Pair>
			<key>highlight</key>
			<styleUrl>#s_ylw-pushpin_hl010</styleUrl>
		</Pair>
	</StyleMap>
	<StyleMap id="m_ylw-pushpin010">
		<Pair>
			<key>normal</key>
			<styleUrl>#s_ylw-pushpin0</styleUrl>
		</Pair>
		<Pair>
			<key>highlight</key>
			<styleUrl>#s_ylw-pushpin_hl01</styleUrl>
		</Pair>
	</StyleMap>
	<StyleMap id="msn_grn-pushpin">
		<Pair>
			<key>normal</key>
			<styleUrl>#sn_grn-pushpin0</styleUrl>
		</Pair>
		<Pair>
			<key>highlight</key>
			<styleUrl>#sh_grn-pushpin</styleUrl>
		</Pair>
	</StyleMap>
	<StyleMap id="msn_grn-pushpin0">
		<Pair>
			<key>normal</key>
			<styleUrl>#sn_grn-pushpin1</styleUrl>
		</Pair>
		<Pair>
			<key>highlight</key>
			<styleUrl>#sh_grn-pushpin0</styleUrl>
		</Pair>
	</StyleMap>
	<StyleMap id="msn_grn-pushpin1">
		<Pair>
			<key>normal</key>
			<styleUrl>#sn_grn-pushpin</styleUrl>
		</Pair>
		<Pair>
			<key>highlight</key>
			<styleUrl>#sh_grn-pushpin1</styleUrl>
		</Pair>
	</StyleMap>
	<StyleMap id="msn_red-pushpin">
		<Pair>
			<key>normal</key>
			<styleUrl>#sn_red-pushpin0</styleUrl>
		</Pair>
		<Pair>
			<key>highlight</key>
			<styleUrl>#sh_red-pushpin</styleUrl>
		</Pair>
	</StyleMap>
	<StyleMap id="msn_red-pushpin0">
		<Pair>
			<key>normal</key>
			<styleUrl>#sn_red-pushpin</styleUrl>
		</Pair>
		<Pair>
			<key>highlight</key>
			<styleUrl>#sh_red-pushpin0</styleUrl>
		</Pair>
	</StyleMap>
	<Style id="s_ylw-pushpin0">
		<IconStyle>
			<scale>1.1</scale>
			<Icon>
				<href>http://maps.google.com/mapfiles/kml/pushpin/red-pushpin.png</href>
			</Icon>
			<hotSpot x="20" y="2" xunits="pixels" yunits="pixels"/>
		</IconStyle>
	</Style>
	<Style id="s_ylw-pushpin00">
		<IconStyle>
			<scale>1.1</scale>
			<Icon>
				<href>http://maps.google.com/mapfiles/kml/pushpin/red-pushpin.png</href>
			</Icon>
			<hotSpot x="20" y="2" xunits="pixels" yunits="pixels"/>
		</IconStyle>
	</Style>
	<Style id="s_ylw-pushpin_hl01">
		<IconStyle>
			<scale>1.3</scale>
			<Icon>
				<href>http://maps.google.com/mapfiles/kml/pushpin/red-pushpin.png</href>
			</Icon>
			<hotSpot x="20" y="2" xunits="pixels" yunits="pixels"/>
		</IconStyle>
	</Style>
	<Style id="s_ylw-pushpin_hl010">
		<IconStyle>
			<scale>1.3</scale>
			<Icon>
				<href>http://maps.google.com/mapfiles/kml/pushpin/red-pushpin.png</href>
			</Icon>
			<hotSpot x="20" y="2" xunits="pixels" yunits="pixels"/>
		</IconStyle>
	</Style>
	<Style id="sh_grn-pushpin">
		<IconStyle>
			<scale>1.3</scale>
			<Icon>
				<href>http://maps.google.com/mapfiles/kml/pushpin/grn-pushpin.png</href>
			</Icon>
			<hotSpot x="20" y="2" xunits="pixels" yunits="pixels"/>
		</IconStyle>
		<BalloonStyle>
		</BalloonStyle>
		<ListStyle>
		</ListStyle>
	</Style>
	<Style id="sh_grn-pushpin0">
		<IconStyle>
			<scale>1.3</scale>
			<Icon>
				<href>http://maps.google.com/mapfiles/kml/pushpin/grn-pushpin.png</href>
			</Icon>
			<hotSpot x="20" y="2" xunits="pixels" yunits="pixels"/>
		</IconStyle>
		<BalloonStyle>
		</BalloonStyle>
		<ListStyle>
		</ListStyle>
	</Style>
	<Style id="sh_grn-pushpin1">
		<IconStyle>
			<scale>1.3</scale>
			<Icon>
				<href>http://maps.google.com/mapfiles/kml/pushpin/grn-pushpin.png</href>
			</Icon>
			<hotSpot x="20" y="2" xunits="pixels" yunits="pixels"/>
		</IconStyle>
		<BalloonStyle>
		</BalloonStyle>
		<ListStyle>
		</ListStyle>
	</Style>
	<Style id="sh_red-pushpin">
		<IconStyle>
			<scale>1.3</scale>
			<Icon>
				<href>http://maps.google.com/mapfiles/kml/pushpin/red-pushpin.png</href>
			</Icon>
			<hotSpot x="20" y="2" xunits="pixels" yunits="pixels"/>
		</IconStyle>
		<BalloonStyle>
		</BalloonStyle>
	</Style>
	<Style id="sh_red-pushpin0">
		<IconStyle>
			<scale>1.3</scale>
			<Icon>
				<href>http://maps.google.com/mapfiles/kml/pushpin/red-pushpin.png</href>
			</Icon>
			<hotSpot x="20" y="2" xunits="pixels" yunits="pixels"/>
		</IconStyle>
		<BalloonStyle>
		</BalloonStyle>
	</Style>
	<Style id="sn_grn-pushpin">
		<IconStyle>
			<scale>1.1</scale>
			<Icon>
				<href>http://maps.google.com/mapfiles/kml/pushpin/grn-pushpin.png</href>
			</Icon>
			<hotSpot x="20" y="2" xunits="pixels" yunits="pixels"/>
		</IconStyle>
		<BalloonStyle>
		</BalloonStyle>
		<ListStyle>
		</ListStyle>
	</Style>
	<Style id="sn_grn-pushpin0">
		<IconStyle>
			<scale>1.1</scale>
			<Icon>
				<href>http://maps.google.com/mapfiles/kml/pushpin/grn-pushpin.png</href>
			</Icon>
			<hotSpot x="20" y="2" xunits="pixels" yunits="pixels"/>
		</IconStyle>
		<BalloonStyle>
		</BalloonStyle>
		<ListStyle>
		</ListStyle>
	</Style>
	<Style id="sn_grn-pushpin1">
		<IconStyle>
			<scale>1.1</scale>
			<Icon>
				<href>http://maps.google.com/mapfiles/kml/pushpin/grn-pushpin.png</href>
			</Icon>
			<hotSpot x="20" y="2" xunits="pixels" yunits="pixels"/>
		</IconStyle>
		<BalloonStyle>
		</BalloonStyle>
		<ListStyle>
		</ListStyle>
	</Style>
	<Style id="sn_red-pushpin">
		<IconStyle>
			<scale>1.1</scale>
			<Icon>
				<href>http://maps.google.com/mapfiles/kml/pushpin/red-pushpin.png</href>
			</Icon>
			<hotSpot x="20" y="2" xunits="pixels" yunits="pixels"/>
		</IconStyle>
		<BalloonStyle>
		</BalloonStyle>
	</Style>
	<Style id="sn_red-pushpin0">
		<IconStyle>
			<scale>1.1</scale>
			<Icon>
				<href>http://maps.google.com/mapfiles/kml/pushpin/red-pushpin.png</href>
			</Icon>
			<hotSpot x="20" y="2" xunits="pixels" yunits="pixels"/>
		</IconStyle>
		<BalloonStyle>
		</BalloonStyle>
	</Style>
	<Folder>
		<name>PoggioSanVicino_IOT</name>
		<open>1</open>
		<Placemark id="56B62C704C000005">
			<name>IOT</name>
			<LookAt>
				<longitude>13.08263128193148</longitude>
				<latitude>43.38044929692704</latitude>
				<altitude>0</altitude>
				<heading>0.0008819980490777743</heading>
				<tilt>50.74327974738478</tilt>
				<range>3187.471821598397</range>
				<gx:altitudeMode>relativeToSeaFloor</gx:altitudeMode>
			</LookAt>
			<styleUrl>#__managed_style_6ED950632E39D87D5FA6</styleUrl>
			<LineString>
				<coordinates>
					13.07839345144199,43.3756435014237,505.9229999999999 13.07838135779119,43.37559027754934,505.9229999999999 13.07838745151078,43.37530060015724,505.9229999999999 13.07827052186322,43.37503933874025,507.863 13.07815375927102,43.37475142237856,505.2669999999999 13.07800051200456,43.37454116014541,504.4759999999999 13.07795653719689,43.37440213100923,502.893 13.07797662962061,43.37402542077685,503.5869999999999 13.0779933535147,43.37364838664055,506.415 13.07799718602817,43.37340587234059,507.535 13.07793854342012,43.37287641101394,503.599 13.0778,43.372,503.576 13.07770371279815,43.37105268130613,493.29 13.07764787363022,43.37005625690386,494.5189999999999 13.07755956200495,43.36910017479843,492.009 13.07744929542994,43.368496922851,490.049 13.07730451017114,43.36802411079298,490.049 13.07715517501907,43.36768838039776,486.079 13.07662056693933,43.36673816417024,483.213 13.07652100305975,43.36666007720785,477.532 13.07652819806716,43.36660487551723,477.532 13.0764799630519,43.3664454613072,474.279 13.07623,43.36586,467.483 13.0759,43.36543,463.3509999999998 13.07546,43.36493,461.3709999999999 13.07529,43.36455,457.5350000000001 13.07507,43.36412,452.692 13.07509,43.3639,453.673 13.075,43.36378,452.62 13.07494,43.36381,452.009 13.07491,43.36389,450.741 13.07487,43.36414,449.751 13.07476,43.36444,446.355 13.07482,43.36486,441.5239999999999 13.07508,43.36559,438.641 13.0753,43.36588,434.8450000000001 13.07536,43.36614,433.2529999999999 13.07525,43.36641,431.1130000000001 13.07499,43.36667,429.117 13.07478,43.36685,429.3779999999999 13.07467,43.36723,426.4329999999999 13.07452,43.3676,425.126 13.07451,43.3678,424.309 13.0746,43.36798,422.8389999999999 13.07475,43.36821,420.369 13.07492,43.36841,418.0529999999999 13.07477,43.36855,421.772 13.07479664237241,43.36869069820496,423.2189999999998 13.07484694240363,43.3687886833596,423.2189999999998 13.07488360566058,43.36896487168398,423.633 13.07493737732356,43.36909531590251,425.6209999999999 13.07492,43.36944,426.271 13.07494248184405,43.36969460270979,424.6349999999999 13.07466,43.37029,438.1489999999999 13.07451,43.37072,433.102 13.07445714901802,43.37125234675128,432.7219999999999 13.07413,43.37186,439.809 13.074,43.37226,444.386 13.07367,43.37304,452.9859999999999 13.07345060759837,43.37331137321962,450.9499999999999 13.07346594132128,43.3733372184714,450.9069999999999 13.07370359979952,43.37304824850752,452.917 13.07402588759998,43.37226349221798,444.309 13.07415125901871,43.37185867358193,439.897 13.07448179344494,43.37124940716748,432.797 13.07454758494355,43.37073106801869,433.191 13.07470657709529,43.37029653449356,438.13 13.07496099005145,43.36970036198585,424.667 13.07495378001665,43.36944056346725,426.261 13.07496834717225,43.36909548730298,425.659 13.07491032241827,43.36896537567208,425.659 13.07486825910905,43.36878013868476,423.629 13.07481088745756,43.36866212335904,423.2629999999999 13.07478637606918,43.3685529065965,421.773 13.07494309358067,43.36842214664613,418.085 13.07512,43.36858,417.413 13.07523,43.36871,417.909 13.07531,43.36887,419.0189999999999 13.07563,43.36915,417.099 13.0757,43.36926,415.513 13.0757,43.36939,412.7119999999999 13.07568,43.36987,408.779 13.07538,43.37047,406.0629999999999 13.07535,43.37083,404.2710000000001 13.07523,43.37149,408.121 13.07523,43.37161,406.1249999999998 13.07525,43.37215,396.7490000000001 13.07515,43.37292,396.602 13.0752,43.37329,394.922 13.07506,43.37393,393.809 13.07498,43.3745,386.166 13.07507,43.37478,384.136 13.07510331128521,43.37521729855037,383.04 13.07511013112359,43.37532032069345,383.04 13.07505758223149,43.37548022941993,383.04 13.07505033728503,43.37556592235025,383.04 13.07506881608318,43.37568351076435,383.04 13.07506669298196,43.37577562510914,383.04 13.07506143382353,43.37581858114444,383.04 13.07516037688388,43.37585255017344,383.04 13.07525399593105,43.37588445330974,383.04 13.07530659457228,43.37598594447969,383.04 13.07531481541011,43.37612297999278,383.04 13.07530491321073,43.37621861079739,383.04 13.07523960234637,43.37642028665463,383.04 13.07519469821208,43.37650638427807,383.04 13.07513126617372,43.37665715557094,383.04 13.07507386873132,43.37674525753323,383.04 13.07482762487387,43.37654656816685,383.04 13.074798872607,43.37636619770506,383.04 13.0747437217852,43.37629521371143,383.04 13.07472652546321,43.37625642357055,383.04 13.0746902925453,43.37622846067433,383.04 13.07463216883782,43.37625976574427,383.04 13.07455063091254,43.3763019418156,383.04 13.07449965660619,43.37634822583495,383.04 13.07417322408489,43.3762581091391,383.04 13.07399783246425,43.37611698406074,383.04 13.07388162933007,43.37616563682421,383.04 13.07373927797829,43.37616020498102,383.04 13.07348134032681,43.37597227113786,383.04 13.07321090343231,43.37578083392573,383.04 13.07304640421195,43.37566116289265,383.04 13.07294638302741,43.37550505703613,383.04 13.07279484901421,43.37534865154586,383.04 13.07270259219611,43.37520801517502,383.04 13.07244666089899,43.37472724918928,383.04 13.07222958136359,43.37431244621179,383.04 13.07148783665997,43.37306341452772,383.04 13.07128793224722,43.37274936293727,383.04 13.07114532266746,43.37234404380082,383.04 13.07050950378078,43.37211488464923,383.04 13.06992279074342,43.37180235172259,383.04 13.06973023193463,43.37165731444348,383.04 13.06936613228869,43.37168852291506,383.04 13.06879387905575,43.37163168224351,383.04 13.06877277999014,43.37169104730462,383.04 13.06887177461702,43.37182112043298,383.04 13.06894469962239,43.37199983311989,383.04 13.06914953621234,43.37235063862239,383.04 13.06935402921587,43.37280408912809,383.04 13.06952470580853,43.37306089311691,383.04 13.06945719026493,43.37311675478981,383.04 13.06815146328683,43.37261253173613,383.04 13.06742594815604,43.37245694787545,383.04 13.06697560307012,43.37217518106145,383.04 13.06649057641598,43.37191334047333,383.04 13.06625764360899,43.37170876884215,377.799 13.06623111544839,43.37172604840526,377.799 13.06646640996274,43.37192909538899,377.799 13.06695166820988,43.37219187837058,377.799 13.06740427589799,43.37248075253967,377.799 13.06814112362405,43.37262576288447,377.799 13.06945480762659,43.37313448430217,377.799 13.06955610608567,43.37306992479589,377.799 13.06937581429599,43.37279361333724,377.799 13.06917270424785,43.37234498754497,377.799 13.06896128603189,43.37199047980017,377.799 13.06889271814037,43.37181250160889,377.799 13.06878903965783,43.37168968140764,377.799 13.06880295101186,43.37164200886864,377.799 13.06936984999184,43.37170098944595,377.799 13.06972679011278,43.37166954395628,377.799 13.06990326915614,43.37180953230693,377.799 13.07049714971139,43.37212496829004,377.799 13.07113289278184,43.37235725294684,377.799 13.07127264682382,43.37275793775073,377.799 13.07147162511938,43.37307867257394,377.799 13.07220947240335,43.37432599251016,377.799 13.0724283601422,43.37474888437433,377.799 13.07268943215669,43.37521775804179,377.799 13.07277981013519,43.37535943675304,377.799 13.07292938319259,43.37551444432385,377.799 13.07303447722818,43.37567641848228,377.799 13.07319861672614,43.37579217892527,377.799 13.07346868807027,43.37598736809466,377.799 13.07372556231956,43.37617587002276,377.799 13.0738711310072,43.37618152802615,377.799 13.07398425947701,43.37613180673872,377.799 13.07416566198213,43.37627321921009,377.799 13.07448484610297,43.37636034863734,377.799 13.07457138164754,43.37631454618187,377.799 13.07464341442496,43.37627407737997,377.799 13.07469667486576,43.37625772021651,377.036 13.0747,43.37629,376.98 13.07476,43.37636,377.548 13.07478963773694,43.37654869695832,378.698 13.07503269113445,43.37676348523901,383.482 13.07536392524437,43.37698867070489,391.0969999999999 13.07535,43.37721,387.723 13.07531,43.37732,385.725 13.0752,43.37747,381.609 13.074778,43.377914,372.571 13.074825,43.378091,374.791 13.074739,43.378376,377.175 13.074922,43.378415,377.164 13.074833,43.378563,377.531 13.074963,43.379173,367.555 13.075124,43.379653,370.223 13.07549,43.380129,368.983 13.075482,43.38032,368.647 13.075394,43.380366,369.354 13.075388,43.380545,369.856 13.075535,43.380712,367.811 13.075701,43.380869,365.709 13.075691,43.381134,364.837 13.07584,43.381142,361.297 13.07597,43.381056,360.131 13.076266,43.38102,358.03 13.075909,43.381108,360.017 13.075951,43.381271,360.811 13.07586,43.381359,363.289 13.075898,43.38155,365.3589999999999 13.075793,43.381727,370.083 13.075566,43.381914,378.244 13.07576,43.382021,378.305 13.075987,43.381928,373.0149999999999 13.076501,43.38158,358.309 13.076684,43.381631,357.136 13.076874,43.381747,359.376 13.07725,43.38199,359.74 13.077583,43.382011,354.959 13.077735,43.382119,354.236 13.078634,43.38224,348.23 13.078777,43.382156,346.578 13.078907,43.382146,345.798 13.079032,43.38223,346.172 13.079157,43.38242,348.946 13.079353,43.382627,349.788 13.079591,43.382796,349.6159999999999 13.07963731327892,43.38288743748663,350.409 13.07962639133645,43.38277840256345,350.409 13.0793801732906,43.38260639773893,350.409 13.0791927991425,43.38240498039261,350.409 13.07910616293448,43.38224437461377,350.409 13.07994509549504,43.38175909300084,348.91 13.07992,43.3816,351.37 13.07939,43.38125,358.534 13.0794,43.3811,361.453 13.0796,43.38089,365.67 13.08062,43.37978,382.014 13.08059,43.37964,386.312 13.08039,43.37963,389.482 13.07968,43.37997,386.986 13.07945,43.37999,387.394 13.07897,43.37954,396.957 13.07888,43.37947,397.5219999999999 13.07875,43.37942,398.809 13.07842,43.37938,402.091 13.07835,43.37933,404.871 13.07834,43.37927,407.595 13.07838,43.37924,408.254 13.07846,43.37922,408.0110000000001 13.07876,43.37929,403.0649999999999 13.07901,43.37932,402.3729999999999 13.07921,43.37932,403.473 13.07942,43.37927,406.517 13.07982,43.37895,414.1139999999999 13.08015,43.37876,417.954 13.08016,43.3787,419.709 13.08013,43.37865,421.309 13.08005,43.37861,422.853 13.07992,43.37861,423.333 13.07967,43.37867,422.827 13.07956,43.37872,422.476 13.07944,43.37873,423.273 13.07937,43.37868,425.217 13.0793,43.37861,428.175 13.0793,43.37861,428.139 13.07953,43.37848,430.299 13.07989,43.37837,429.307 13.08024,43.37819,432.3269999999999 13.08049,43.37802,434.609 13.08073,43.37782,437.081 13.08079,43.37767,439.081 13.08075,43.37752,441.6849999999999 13.08067,43.37738,443.784 13.07969,43.37692,463.871 13.0796,43.3768,467.165 13.07974,43.37663,466.753 13.0796,43.37651,469.473 13.07949,43.37659,471.4769999999999 13.07942,43.37667,472.4469999999999 13.07936,43.37679,471.429 13.07929,43.37686,471.721 13.07915,43.37697,472.909 13.07902,43.37704,474.1859999999999 13.07886,43.37708,476.1559999999998 13.07825,43.37715,481.41 13.07814,43.37714,482.589 13.07834,43.37695,485.8560000000001 13.07853,43.37672,489.74 13.07851,43.37657,493.838 13.07859,43.37635,498.168 13.07861,43.37611,502.042 13.07861,43.37611,502.074 13.07856,43.37608,502.5640000000001 13.07853,43.37605,502.718 13.07844,43.37568,504.0769999999998 
				</coordinates>
			</LineString>
		</Placemark>
		<Placemark>
			<name>(t)1</name>
			<description>Tappa 1 - Torre Civica;Stage 1 - Torre Civica</description>
			<LookAt>
				<longitude>13.07848815362033</longitude>
				<latitude>43.37561671515707</latitude>
				<altitude>0</altitude>
				<heading>0.006159104144743317</heading>
				<tilt>24.73703821789745</tilt>
				<range>99.41906335429132</range>
				<gx:altitudeMode>relativeToSeaFloor</gx:altitudeMode>
			</LookAt>
			<styleUrl>#msn_grn-pushpin0</styleUrl>
			<Point>
				<gx:drawOrder>1</gx:drawOrder>
				<coordinates>13.07838149486852,43.37563703777444,0</coordinates>
			</Point>
		</Placemark>
		<Placemark>
			<name>1</name>
			<open>1</open>
			<description>Procedi in direzione sudest su Via Borgo Garibaldi verso Via Giacomo Leopardi;Proceed southeast on Via Borgo Garibaldi towards Via Giacomo Leopardi</description>
			<LookAt>
				<longitude>13.07849241599938</longitude>
				<latitude>43.37561588768384</latitude>
				<altitude>0</altitude>
				<heading>0.006162031451354905</heading>
				<tilt>24.73703821789744</tilt>
				<range>99.41906335874791</range>
				<gx:altitudeMode>relativeToSeaFloor</gx:altitudeMode>
			</LookAt>
			<styleUrl>#m_ylw-pushpin01</styleUrl>
			<Point>
				<gx:drawOrder>1</gx:drawOrder>
				<coordinates>13.07839158058966,43.37559164078952,0</coordinates>
			</Point>
		</Placemark>
		<Placemark>
			<name>2</name>
			<description>Svolta leggermente a destra;Turn slightly right</description>
			<LookAt>
				<longitude>13.07765279258786</longitude>
				<latitude>43.37522330025397</latitude>
				<altitude>0</altitude>
				<heading>-5.521904117976247</heading>
				<tilt>30.00106923456282</tilt>
				<range>237.9136059470603</range>
				<gx:altitudeMode>relativeToSeaFloor</gx:altitudeMode>
			</LookAt>
			<styleUrl>#m_ylw-pushpin010</styleUrl>
			<Point>
				<gx:drawOrder>1</gx:drawOrder>
				<coordinates>13.07842612811806,43.375287468301,0</coordinates>
			</Point>
		</Placemark>
		<Placemark>
			<name>3</name>
			<description>Prosegui lungo il percorso;Continue along the path</description>
			<LookAt>
				<longitude>13.07796955177804</longitude>
				<latitude>43.37437101493595</latitude>
				<altitude>0</altitude>
				<heading>-1.449991449198119</heading>
				<tilt>31.46091864944256</tilt>
				<range>89.85511279129457</range>
				<gx:altitudeMode>relativeToSeaFloor</gx:altitudeMode>
			</LookAt>
			<styleUrl>#m_ylw-pushpin010</styleUrl>
			<Point>
				<gx:drawOrder>1</gx:drawOrder>
				<coordinates>13.07798468629684,43.37456594049841,0</coordinates>
			</Point>
		</Placemark>
		<Placemark>
			<name>4</name>
			<description>Svolta a sinistra e imbocca il sentiero;Turn left and take the path</description>
			<LookAt>
				<longitude>13.07648858245469</longitude>
				<latitude>43.36664747532681</latitude>
				<altitude>0</altitude>
				<heading>177.3501342393493</heading>
				<tilt>22.93380811712005</tilt>
				<range>101.3707128967534</range>
				<gx:altitudeMode>relativeToSeaFloor</gx:altitudeMode>
			</LookAt>
			<styleUrl>#m_ylw-pushpin010</styleUrl>
			<Point>
				<gx:drawOrder>1</gx:drawOrder>
				<coordinates>13.07650106269928,43.36666180536736,0</coordinates>
			</Point>
		</Placemark>
		<Placemark>
			<name>5</name>
			<description>Prosegui svoltanto a destra;Continue turning right</description>
			<LookAt>
				<longitude>13.07531457906652</longitude>
				<latitude>43.36426490862083</latitude>
				<altitude>0</altitude>
				<heading>177.349328097166</heading>
				<tilt>22.93380811712002</tilt>
				<range>101.3707128959952</range>
				<gx:altitudeMode>relativeToSeaFloor</gx:altitudeMode>
			</LookAt>
			<styleUrl>#m_ylw-pushpin010</styleUrl>
			<Point>
				<gx:drawOrder>1</gx:drawOrder>
				<coordinates>13.07505528112548,43.36380080322811,0</coordinates>
			</Point>
		</Placemark>
		<Placemark>
			<name>6</name>
			<description>Gira a sinistra verso Ginocchielli di S. Romualdo;Turn left towards Ginocchielli di S. Romualdo</description>
			<LookAt>
				<longitude>13.07471917533151</longitude>
				<latitude>43.36820394197865</latitude>
				<altitude>0</altitude>
				<heading>-1.132914020084878</heading>
				<tilt>20.28354366800088</tilt>
				<range>136.6871771829578</range>
				<gx:altitudeMode>relativeToSeaFloor</gx:altitudeMode>
			</LookAt>
			<styleUrl>#m_ylw-pushpin010</styleUrl>
			<Point>
				<gx:drawOrder>1</gx:drawOrder>
				<coordinates>13.07489001247444,43.36839265306671,0</coordinates>
			</Point>
		</Placemark>
		<Placemark>
			<name>7</name>
			<description>Torna indietro e ripercorri la strada fino al crocevia;Go back and retrace the road to the crossroads</description>
			<LookAt>
				<longitude>13.07326082342609</longitude>
				<latitude>43.37319077847877</latitude>
				<altitude>0</altitude>
				<heading>0.002601673211143297</heading>
				<tilt>19.52261902763307</tilt>
				<range>96.3786630364213</range>
				<gx:altitudeMode>relativeToSeaFloor</gx:altitudeMode>
			</LookAt>
			<styleUrl>#msn_red-pushpin0</styleUrl>
			<Point>
				<gx:drawOrder>1</gx:drawOrder>
				<coordinates>13.07344503948328,43.37331137332582,0</coordinates>
			</Point>
		</Placemark>
		<Placemark>
			<name>(t)2</name>
			<description>Tappa 2 - Ginocchielli di San Romualdo;Stage 2 - Ginocchielli di San Romualdo</description>
			<LookAt>
				<longitude>13.07326082342609</longitude>
				<latitude>43.37319077847877</latitude>
				<altitude>0</altitude>
				<heading>0.002601673211143297</heading>
				<tilt>19.52261902763307</tilt>
				<range>96.3786630364213</range>
				<gx:altitudeMode>relativeToSeaFloor</gx:altitudeMode>
			</LookAt>
			<styleUrl>#msn_grn-pushpin</styleUrl>
			<Point>
				<gx:drawOrder>1</gx:drawOrder>
				<coordinates>13.07346839195713,43.37333784503871,0</coordinates>
			</Point>
		</Placemark>
		<Placemark>
			<name>8</name>
			<description>Gira a sinistra;Turn left</description>
			<LookAt>
				<longitude>13.07497201574182</longitude>
				<latitude>43.36820782630918</latitude>
				<altitude>0</altitude>
				<heading>-1.133447018400165</heading>
				<tilt>9.382032265670388</tilt>
				<range>153.2001983304059</range>
				<gx:altitudeMode>relativeToSeaFloor</gx:altitudeMode>
			</LookAt>
			<styleUrl>#m_ylw-pushpin010</styleUrl>
			<Point>
				<gx:drawOrder>1</gx:drawOrder>
				<coordinates>13.07495780776584,43.36844695140919,0</coordinates>
			</Point>
		</Placemark>
		<Placemark>
			<name>9</name>
			<description>Gira a sinistra;Turn left</description>
			<LookAt>
				<longitude>13.07422124055436</longitude>
				<latitude>43.37633719016203</latitude>
				<altitude>0</altitude>
				<heading>-1.133467048793859</heading>
				<tilt>16.48974652270571</tilt>
				<range>474.5378421057837</range>
				<gx:altitudeMode>relativeToSeaFloor</gx:altitudeMode>
			</LookAt>
			<styleUrl>#m_ylw-pushpin010</styleUrl>
			<Point>
				<gx:drawOrder>1</gx:drawOrder>
				<coordinates>13.07506901976443,43.3766599105578,0</coordinates>
			</Point>
		</Placemark>
		<Placemark>
			<name>(t)3</name>
			<description>Tappa 3 - Ex Miniera di manganese;Stage 3 - Ex Miniera di manganese</description>
			<LookAt>
				<longitude>13.06676596832515</longitude>
				<latitude>43.37191264037991</latitude>
				<altitude>0</altitude>
				<heading>-0.002063207934695229</heading>
				<tilt>26.72679323119607</tilt>
				<range>134.2299529041935</range>
				<gx:altitudeMode>relativeToSeaFloor</gx:altitudeMode>
			</LookAt>
			<styleUrl>#msn_grn-pushpin0</styleUrl>
			<Point>
				<gx:drawOrder>1</gx:drawOrder>
				<coordinates>13.0662615814091,43.37169511568126,0</coordinates>
			</Point>
		</Placemark>
		<Placemark>
			<name>10</name>
			<open>1</open>
			<description>Torna indietro e riprendi la strada principale;Go back and get back on the main road</description>
			<LookAt>
				<longitude>13.06676596832515</longitude>
				<latitude>43.37191264037991</latitude>
				<altitude>0</altitude>
				<heading>-0.002063207934695229</heading>
				<tilt>26.72679323119607</tilt>
				<range>134.2299529041935</range>
				<gx:altitudeMode>relativeToSeaFloor</gx:altitudeMode>
			</LookAt>
			<styleUrl>#msn_red-pushpin</styleUrl>
			<Point>
				<gx:drawOrder>1</gx:drawOrder>
				<coordinates>13.06622689556129,43.37172430923018,0</coordinates>
			</Point>
		</Placemark>
		<Placemark>
			<name>11</name>
			<description>Gira a sinistra;Turn left</description>
			<LookAt>
				<longitude>13.07520648247081</longitude>
				<latitude>43.37669179933273</latitude>
				<altitude>0</altitude>
				<heading>-1.133594092410539</heading>
				<tilt>19.56675630315771</tilt>
				<range>137.9298973689566</range>
				<gx:altitudeMode>relativeToSeaFloor</gx:altitudeMode>
			</LookAt>
			<styleUrl>#m_ylw-pushpin010</styleUrl>
			<Point>
				<gx:drawOrder>1</gx:drawOrder>
				<coordinates>13.07535094199211,43.37694398245399,0</coordinates>
			</Point>
		</Placemark>
		<Placemark>
			<name>12</name>
			<description>Gira a destra e inbocca il sentiero sterrato;Turn right and take the dirt path</description>
			<LookAt>
				<longitude>13.07495474033291</longitude>
				<latitude>43.3783461770708</latitude>
				<altitude>0</altitude>
				<heading>-1.13376750775112</heading>
				<tilt>19.56717584507295</tilt>
				<range>277.456225777478</range>
				<gx:altitudeMode>relativeToSeaFloor</gx:altitudeMode>
			</LookAt>
			<styleUrl>#m_ylw-pushpin010</styleUrl>
			<Point>
				<gx:drawOrder>1</gx:drawOrder>
				<coordinates>13.07482209928315,43.37791432647309,0</coordinates>
			</Point>
		</Placemark>
		<Placemark>
			<name>(t)4</name>
			<description>Tappa 4 - La via dei mulini;Stage 4 - La via dei muliini</description>
			<LookAt>
				<longitude>13.07541163331334</longitude>
				<latitude>43.37595576325656</latitude>
				<altitude>0</altitude>
				<heading>0.003874417150423095</heading>
				<tilt>26.73347635840176</tilt>
				<range>1788.335760565732</range>
				<gx:altitudeMode>relativeToSeaFloor</gx:altitudeMode>
			</LookAt>
			<styleUrl>#msn_grn-pushpin1</styleUrl>
			<Point>
				<gx:drawOrder>1</gx:drawOrder>
				<coordinates>13.07569181121172,43.3820091486866,0</coordinates>
			</Point>
		</Placemark>
		<Placemark>
			<name>13</name>
			<description>Tieni la destra;Keep right</description>
			<LookAt>
				<longitude>13.07938536407488</longitude>
				<latitude>43.38139008817793</latitude>
				<altitude>0</altitude>
				<heading>-1.967714115577392</heading>
				<tilt>28.44971622574612</tilt>
				<range>515.84411485577</range>
				<gx:altitudeMode>relativeToSeaFloor</gx:altitudeMode>
			</LookAt>
			<styleUrl>#m_ylw-pushpin010</styleUrl>
			<Point>
				<gx:drawOrder>1</gx:drawOrder>
				<coordinates>13.07994801891097,43.38181110512037,0</coordinates>
			</Point>
		</Placemark>
		<Placemark>
			<name>14</name>
			<description>Gira a destra;Turn right</description>
			<LookAt>
				<longitude>13.07933405902775</longitude>
				<latitude>43.37933658346616</latitude>
				<altitude>0</altitude>
				<heading>-1.967891886272686</heading>
				<tilt>26.00100586890676</tilt>
				<range>262.9041878689919</range>
				<gx:altitudeMode>relativeToSeaFloor</gx:altitudeMode>
			</LookAt>
			<styleUrl>#m_ylw-pushpin010</styleUrl>
			<Point>
				<gx:drawOrder>1</gx:drawOrder>
				<coordinates>13.08067222222222,43.37979444444444,0</coordinates>
			</Point>
		</Placemark>
		<Placemark>
			<name>15</name>
			<description>Gira a sinistra;Turn left</description>
			<LookAt>
				<longitude>13.07936595314646</longitude>
				<latitude>43.37872574678791</latitude>
				<altitude>0</altitude>
				<heading>-1.967869977698773</heading>
				<tilt>26.00100586890678</tilt>
				<range>262.9041878707074</range>
				<gx:altitudeMode>relativeToSeaFloor</gx:altitudeMode>
			</LookAt>
			<styleUrl>#m_ylw-pushpin010</styleUrl>
			<Point>
				<gx:drawOrder>1</gx:drawOrder>
				<coordinates>13.07930644266438,43.37864371230209,0</coordinates>
			</Point>
		</Placemark>
		<Placemark>
			<name>16</name>
			<description>Gira a destra;Turn right</description>
			<LookAt>
				<longitude>13.07997834894011</longitude>
				<latitude>43.37768920082488</latitude>
				<altitude>0</altitude>
				<heading>-1.967448272587194</heading>
				<tilt>25.55117578466364</tilt>
				<range>224.572774074516</range>
				<gx:altitudeMode>relativeToSeaFloor</gx:altitudeMode>
			</LookAt>
			<styleUrl>#m_ylw-pushpin010</styleUrl>
			<Point>
				<gx:drawOrder>1</gx:drawOrder>
				<coordinates>13.08070124324541,43.37737902258964,0</coordinates>
			</Point>
		</Placemark>
		<Placemark>
			<name>17</name>
			<description>Gira a sinistra;Turn left</description>
			<LookAt>
				<longitude>13.07861120413369</longitude>
				<latitude>43.37768002225393</latitude>
				<altitude>0</altitude>
				<heading>-1.968388063808651</heading>
				<tilt>25.90931365382346</tilt>
				<range>284.5215788122653</range>
				<gx:altitudeMode>relativeToSeaFloor</gx:altitudeMode>
			</LookAt>
			<styleUrl>#m_ylw-pushpin010</styleUrl>
			<Point>
				<gx:drawOrder>1</gx:drawOrder>
				<coordinates>13.07816534723645,43.37715954374269,0</coordinates>
			</Point>
		</Placemark>
		<Placemark>
			<name>18</name>
			<description>Gira a destra;Turn right</description>
			<LookAt>
				<longitude>13.07859445199563</longitude>
				<latitude>43.37587799668722</latitude>
				<altitude>0</altitude>
				<heading>-1.968399565297393</heading>
				<tilt>25.90931365382346</tilt>
				<range>284.5215788099725</range>
				<gx:altitudeMode>relativeToSeaFloor</gx:altitudeMode>
			</LookAt>
			<styleUrl>#m_ylw-pushpin010</styleUrl>
			<Point>
				<gx:drawOrder>1</gx:drawOrder>
				<coordinates>13.07864417303294,43.37609080429544,0</coordinates>
			</Point>
		</Placemark>
		<atom:link rel="app" href="https://www.google.com/earth/about/versions/#earth-pro" title="Google Earth Pro 7.3.6.10441"></atom:link>
	</Folder>
</Document>
</kml>
