<?xml version="1.0" encoding="UTF-8"?>
<kml xmlns="http://www.opengis.net/kml/2.2" xmlns:gx="http://www.google.com/kml/ext/2.2" xmlns:kml="http://www.opengis.net/kml/2.2" xmlns:atom="http://www.w3.org/2005/Atom">
<Document id="1OCnFinmiUQr0VpCsdeH0zeS4XEz4BMr2">
	<name>Sefro_AR</name>
	<open>1</open>
	<atom:link rel="app" href="https://www.google.com/earth/about/versions/#earth-pro" title="Google Earth Pro 7.3.6.10441"></atom:link><gx:CascadingStyle kml:id="__managed_style_27EA7882D93958930DA1">
		<styleUrl>https://earth.google.com/balloon_components/base/1.1.0.0/none_template.kml#main</styleUrl>
		<Style>
			<IconStyle>
				<scale>1.2</scale>
				<Icon>
					<href>https://earth.google.com/earth/document/icon?color=fbc02d<![CDATA[&]]>id=2283<![CDATA[&]]>scale=4</href>
				</Icon>
				<hotSpot x="64" y="128" xunits="pixels" yunits="insetPixels"></hotSpot>
			</IconStyle>
			<LabelStyle>
			</LabelStyle>
			<LineStyle>
				<color>ff2dc0fb</color>
				<width>6</width>
			</LineStyle>
			<PolyStyle>
				<color>40ffffff</color>
			</PolyStyle>
			<BalloonStyle>
				<displayMode>hide</displayMode>
			</BalloonStyle>
		</Style>
	</gx:CascadingStyle><gx:CascadingStyle kml:id="__managed_style_18A2E976EF3958930DA1">
		<styleUrl>https://earth.google.com/balloon_components/base/1.1.0.0/none_template.kml#main</styleUrl>
		<Style>
			<IconStyle>
				<Icon>
					<href>https://earth.google.com/earth/document/icon?color=fbc02d<![CDATA[&]]>id=2283<![CDATA[&]]>scale=4</href>
				</Icon>
				<hotSpot x="64" y="128" xunits="pixels" yunits="insetPixels"></hotSpot>
			</IconStyle>
			<LabelStyle>
			</LabelStyle>
			<LineStyle>
				<color>ff2dc0fb</color>
				<width>4</width>
			</LineStyle>
			<PolyStyle>
				<color>40ffffff</color>
			</PolyStyle>
			<BalloonStyle>
				<displayMode>hide</displayMode>
			</BalloonStyle>
		</Style>
	</gx:CascadingStyle><gx:CascadingStyle kml:id="__managed_style_21BEEB91B039588CF5E7">
		<Style>
			<IconStyle>
				<scale>1.2</scale>
				<Icon>
					<href>https://earth.google.com/earth/document/icon?color=1976d2<![CDATA[&]]>id=2006<![CDATA[&]]>scale=4</href>
				</Icon>
				<hotSpot x="64" y="128" xunits="pixels" yunits="insetPixels"></hotSpot>
			</IconStyle>
			<LabelStyle>
			</LabelStyle>
			<LineStyle>
				<color>ff2dc0fb</color>
				<width>6</width>
			</LineStyle>
			<PolyStyle>
				<color>40ffffff</color>
			</PolyStyle>
			<BalloonStyle>
			</BalloonStyle>
		</Style>
	</gx:CascadingStyle><gx:CascadingStyle kml:id="__managed_style_17EDFAAD3A3958AB0F6F">
		<styleUrl>https://earth.google.com/balloon_components/base/1.1.0.0/card_template.kml#main</styleUrl>
		<Style>
			<IconStyle>
				<Icon>
					<href>https://earth.google.com/earth/document/icon?color=1976d2<![CDATA[&]]>id=2000<![CDATA[&]]>scale=4</href>
				</Icon>
				<hotSpot x="64" y="128" xunits="pixels" yunits="insetPixels"></hotSpot>
			</IconStyle>
			<LabelStyle>
			</LabelStyle>
			<LineStyle>
				<color>ff2dc0fb</color>
				<width>4</width>
			</LineStyle>
			<PolyStyle>
				<color>40ffffff</color>
			</PolyStyle>
			<BalloonStyle>
			</BalloonStyle>
		</Style>
	</gx:CascadingStyle><gx:CascadingStyle kml:id="__managed_style_13D53C462C39588CF5E7">
		<Style>
			<IconStyle>
				<Icon>
					<href>https://earth.google.com/earth/document/icon?color=1976d2<![CDATA[&]]>id=2006<![CDATA[&]]>scale=4</href>
				</Icon>
				<hotSpot x="64" y="128" xunits="pixels" yunits="insetPixels"></hotSpot>
			</IconStyle>
			<LabelStyle>
			</LabelStyle>
			<LineStyle>
				<color>ff2dc0fb</color>
				<width>4</width>
			</LineStyle>
			<PolyStyle>
				<color>40ffffff</color>
			</PolyStyle>
			<BalloonStyle>
			</BalloonStyle>
		</Style>
	</gx:CascadingStyle><gx:CascadingStyle kml:id="__managed_style_21234A371B395892071E">
		<Style>
			<IconStyle>
				<scale>1.2</scale>
				<Icon>
					<href>https://earth.google.com/earth/document/icon?color=fbc02d<![CDATA[&]]>id=2000<![CDATA[&]]>scale=4</href>
				</Icon>
				<hotSpot x="64" y="128" xunits="pixels" yunits="insetPixels"></hotSpot>
			</IconStyle>
			<LabelStyle>
			</LabelStyle>
			<LineStyle>
				<color>ff2dc0fb</color>
				<width>6</width>
			</LineStyle>
			<PolyStyle>
				<color>40ffffff</color>
			</PolyStyle>
			<BalloonStyle>
				<gx:displayMode>card</gx:displayMode>
			</BalloonStyle>
		</Style>
	</gx:CascadingStyle><gx:CascadingStyle kml:id="__managed_style_1B3DC29001395892071E">
		<Style>
			<IconStyle>
				<Icon>
					<href>https://earth.google.com/earth/document/icon?color=fbc02d<![CDATA[&]]>id=2000<![CDATA[&]]>scale=4</href>
				</Icon>
				<hotSpot x="64" y="128" xunits="pixels" yunits="insetPixels"></hotSpot>
			</IconStyle>
			<LabelStyle>
			</LabelStyle>
			<LineStyle>
				<color>ff2dc0fb</color>
				<width>4</width>
			</LineStyle>
			<PolyStyle>
				<color>40ffffff</color>
			</PolyStyle>
			<BalloonStyle>
				<gx:displayMode>card</gx:displayMode>
			</BalloonStyle>
		</Style>
	</gx:CascadingStyle><gx:CascadingStyle kml:id="__managed_style_3B5CA1DB5B39588CF5E6">
		<Style>
			<IconStyle>
				<scale>1.2</scale>
				<Icon>
					<href>https://earth.google.com/earth/document/icon?color=1976d2<![CDATA[&]]>id=2385<![CDATA[&]]>scale=4</href>
				</Icon>
				<hotSpot x="64" y="128" xunits="pixels" yunits="insetPixels"></hotSpot>
			</IconStyle>
			<LabelStyle>
			</LabelStyle>
			<LineStyle>
				<color>ff2dc0fb</color>
				<width>6</width>
			</LineStyle>
			<PolyStyle>
				<color>40ffffff</color>
			</PolyStyle>
			<BalloonStyle>
			</BalloonStyle>
		</Style>
	</gx:CascadingStyle><gx:CascadingStyle kml:id="__managed_style_6DC906F31939588CF5E6">
		<Style>
			<IconStyle>
				<scale>1.2</scale>
				<Icon>
					<href>https://earth.google.com/earth/document/icon?color=1976d2<![CDATA[&]]>id=2163<![CDATA[&]]>scale=4</href>
				</Icon>
				<hotSpot x="64" y="128" xunits="pixels" yunits="insetPixels"></hotSpot>
			</IconStyle>
			<LabelStyle>
			</LabelStyle>
			<LineStyle>
				<color>ff2dc0fb</color>
				<width>6</width>
			</LineStyle>
			<PolyStyle>
				<color>40ffffff</color>
			</PolyStyle>
			<BalloonStyle>
			</BalloonStyle>
		</Style>
	</gx:CascadingStyle><gx:CascadingStyle kml:id="__managed_style_5A9AD11FAF39588CF5E6">
		<Style>
			<IconStyle>
				<Icon>
					<href>https://earth.google.com/earth/document/icon?color=1976d2<![CDATA[&]]>id=2163<![CDATA[&]]>scale=4</href>
				</Icon>
				<hotSpot x="64" y="128" xunits="pixels" yunits="insetPixels"></hotSpot>
			</IconStyle>
			<LabelStyle>
			</LabelStyle>
			<LineStyle>
				<color>ff2dc0fb</color>
				<width>4</width>
			</LineStyle>
			<PolyStyle>
				<color>40ffffff</color>
			</PolyStyle>
			<BalloonStyle>
			</BalloonStyle>
		</Style>
	</gx:CascadingStyle><gx:CascadingStyle kml:id="__managed_style_24D0D93B6039588CF5E6">
		<Style>
			<IconStyle>
				<Icon>
					<href>https://earth.google.com/earth/document/icon?color=1976d2<![CDATA[&]]>id=2385<![CDATA[&]]>scale=4</href>
				</Icon>
				<hotSpot x="64" y="128" xunits="pixels" yunits="insetPixels"></hotSpot>
			</IconStyle>
			<LabelStyle>
			</LabelStyle>
			<LineStyle>
				<color>ff2dc0fb</color>
				<width>4</width>
			</LineStyle>
			<PolyStyle>
				<color>40ffffff</color>
			</PolyStyle>
			<BalloonStyle>
			</BalloonStyle>
		</Style>
	</gx:CascadingStyle><gx:CascadingStyle kml:id="__managed_style_29FE0C7CD639588F2BF4">
		<Style>
			<IconStyle>
				<scale>1.2</scale>
				<Icon>
					<href>https://earth.google.com/earth/document/icon?color=fbc02d<![CDATA[&]]>id=2283<![CDATA[&]]>scale=4</href>
				</Icon>
				<hotSpot x="64" y="128" xunits="pixels" yunits="insetPixels"></hotSpot>
			</IconStyle>
			<LabelStyle>
			</LabelStyle>
			<LineStyle>
				<color>ff2dc0fb</color>
				<width>6</width>
			</LineStyle>
			<PolyStyle>
				<color>40ffffff</color>
			</PolyStyle>
			<BalloonStyle>
				<gx:displayMode>card</gx:displayMode>
			</BalloonStyle>
		</Style>
	</gx:CascadingStyle><gx:CascadingStyle kml:id="__managed_style_1B2194A73F39588DE184">
		<Style>
			<IconStyle>
				<Icon>
					<href>https://earth.google.com/earth/document/icon?color=1976d2<![CDATA[&]]>id=2345<![CDATA[&]]>scale=4</href>
				</Icon>
				<hotSpot x="64" y="128" xunits="pixels" yunits="insetPixels"></hotSpot>
			</IconStyle>
			<LabelStyle>
			</LabelStyle>
			<LineStyle>
				<color>ff2dc0fb</color>
				<width>4</width>
			</LineStyle>
			<PolyStyle>
				<color>40ffffff</color>
			</PolyStyle>
			<BalloonStyle>
			</BalloonStyle>
		</Style>
	</gx:CascadingStyle><gx:CascadingStyle kml:id="__managed_style_0090C849D739588DE186">
		<Style>
			<IconStyle>
				<scale>1.2</scale>
				<Icon>
					<href>https://earth.google.com/earth/document/icon?color=1976d2<![CDATA[&]]>id=2345<![CDATA[&]]>scale=4</href>
				</Icon>
				<hotSpot x="64" y="128" xunits="pixels" yunits="insetPixels"></hotSpot>
			</IconStyle>
			<LabelStyle>
			</LabelStyle>
			<LineStyle>
				<color>ff2dc0fb</color>
				<width>6</width>
			</LineStyle>
			<PolyStyle>
				<color>40ffffff</color>
			</PolyStyle>
			<BalloonStyle>
			</BalloonStyle>
		</Style>
	</gx:CascadingStyle><gx:CascadingStyle kml:id="__managed_style_265240C24A3958AB0F6F">
		<styleUrl>https://earth.google.com/balloon_components/base/1.1.0.0/card_template.kml#main</styleUrl>
		<Style>
			<IconStyle>
				<scale>1.2</scale>
				<Icon>
					<href>https://earth.google.com/earth/document/icon?color=1976d2<![CDATA[&]]>id=2000<![CDATA[&]]>scale=4</href>
				</Icon>
				<hotSpot x="64" y="128" xunits="pixels" yunits="insetPixels"></hotSpot>
			</IconStyle>
			<LabelStyle>
			</LabelStyle>
			<LineStyle>
				<color>ff2dc0fb</color>
				<width>6</width>
			</LineStyle>
			<PolyStyle>
				<color>40ffffff</color>
			</PolyStyle>
			<BalloonStyle>
			</BalloonStyle>
		</Style>
	</gx:CascadingStyle><gx:CascadingStyle kml:id="__managed_style_18CDCF6C9639588CF5E1">
		<Style>
			<IconStyle>
				<Icon>
					<href>https://earth.google.com/earth/document/icon?color=1976d2<![CDATA[&]]>id=2000<![CDATA[&]]>scale=4</href>
				</Icon>
				<hotSpot x="64" y="128" xunits="pixels" yunits="insetPixels"></hotSpot>
			</IconStyle>
			<LabelStyle>
			</LabelStyle>
			<LineStyle>
				<color>ff2dc0fb</color>
				<width>4</width>
			</LineStyle>
			<PolyStyle>
				<color>40ffffff</color>
			</PolyStyle>
			<BalloonStyle>
			</BalloonStyle>
		</Style>
	</gx:CascadingStyle><gx:CascadingStyle kml:id="__managed_style_21626F7C8639588CF5E1">
		<Style>
			<IconStyle>
				<scale>1.2</scale>
				<Icon>
					<href>https://earth.google.com/earth/document/icon?color=1976d2<![CDATA[&]]>id=2000<![CDATA[&]]>scale=4</href>
				</Icon>
				<hotSpot x="64" y="128" xunits="pixels" yunits="insetPixels"></hotSpot>
			</IconStyle>
			<LabelStyle>
			</LabelStyle>
			<LineStyle>
				<color>ff2dc0fb</color>
				<width>6</width>
			</LineStyle>
			<PolyStyle>
				<color>40ffffff</color>
			</PolyStyle>
			<BalloonStyle>
			</BalloonStyle>
		</Style>
	</gx:CascadingStyle><gx:CascadingStyle kml:id="__managed_style_1C98CAA9DA39588F2BF4">
		<Style>
			<IconStyle>
				<Icon>
					<href>https://earth.google.com/earth/document/icon?color=fbc02d<![CDATA[&]]>id=2283<![CDATA[&]]>scale=4</href>
				</Icon>
				<hotSpot x="64" y="128" xunits="pixels" yunits="insetPixels"></hotSpot>
			</IconStyle>
			<LabelStyle>
			</LabelStyle>
			<LineStyle>
				<color>ff2dc0fb</color>
				<width>4</width>
			</LineStyle>
			<PolyStyle>
				<color>40ffffff</color>
			</PolyStyle>
			<BalloonStyle>
				<gx:displayMode>card</gx:displayMode>
			</BalloonStyle>
		</Style>
	</gx:CascadingStyle>
	<StyleMap id="__managed_style_00838CCC4739588CF5E10">
		<Pair>
			<key>normal</key>
			<styleUrl>#failed1300</styleUrl>
		</Pair>
		<Pair>
			<key>highlight</key>
			<styleUrl>#failed140</styleUrl>
		</Pair>
	</StyleMap>
	<Style id="failed1300">
		<LineStyle>
			<color>ffff0000</color>
			<width>2</width>
		</LineStyle>
	</Style>
	<Style id="failed140">
		<LineStyle>
			<color>ffff0000</color>
			<width>2</width>
		</LineStyle>
	</Style>
	<StyleMap id="m_ylw-pushpin7">
		<Pair>
			<key>normal</key>
			<styleUrl>#s_ylw-pushpin12</styleUrl>
		</Pair>
		<Pair>
			<key>highlight</key>
			<styleUrl>#s_ylw-pushpin_hl8</styleUrl>
		</Pair>
	</StyleMap>
	<StyleMap id="msn_grn-pushpin">
		<Pair>
			<key>normal</key>
			<styleUrl>#sn_grn-pushpin</styleUrl>
		</Pair>
		<Pair>
			<key>highlight</key>
			<styleUrl>#sh_grn-pushpin0</styleUrl>
		</Pair>
	</StyleMap>
	<StyleMap id="msn_grn-pushpin0">
		<Pair>
			<key>normal</key>
			<styleUrl>#sn_grn-pushpin0</styleUrl>
		</Pair>
		<Pair>
			<key>highlight</key>
			<styleUrl>#sh_grn-pushpin</styleUrl>
		</Pair>
	</StyleMap>
	<StyleMap id="msn_red-pushpin">
		<Pair>
			<key>normal</key>
			<styleUrl>#sn_red-pushpin0</styleUrl>
		</Pair>
		<Pair>
			<key>highlight</key>
			<styleUrl>#sh_red-pushpin0</styleUrl>
		</Pair>
	</StyleMap>
	<StyleMap id="msn_red-pushpin0">
		<Pair>
			<key>normal</key>
			<styleUrl>#sn_red-pushpin</styleUrl>
		</Pair>
		<Pair>
			<key>highlight</key>
			<styleUrl>#sh_red-pushpin</styleUrl>
		</Pair>
	</StyleMap>
	<Style id="s_ylw-pushpin12">
		<IconStyle>
			<scale>1.1</scale>
			<Icon>
				<href>http://maps.google.com/mapfiles/kml/pushpin/red-pushpin.png</href>
			</Icon>
			<hotSpot x="20" y="2" xunits="pixels" yunits="pixels"/>
		</IconStyle>
	</Style>
	<Style id="s_ylw-pushpin_hl8">
		<IconStyle>
			<scale>1.3</scale>
			<Icon>
				<href>http://maps.google.com/mapfiles/kml/pushpin/red-pushpin.png</href>
			</Icon>
			<hotSpot x="20" y="2" xunits="pixels" yunits="pixels"/>
		</IconStyle>
	</Style>
	<Style id="sh_grn-pushpin">
		<IconStyle>
			<scale>1.3</scale>
			<Icon>
				<href>http://maps.google.com/mapfiles/kml/pushpin/grn-pushpin.png</href>
			</Icon>
			<hotSpot x="20" y="2" xunits="pixels" yunits="pixels"/>
		</IconStyle>
		<BalloonStyle>
		</BalloonStyle>
		<ListStyle>
		</ListStyle>
	</Style>
	<Style id="sh_grn-pushpin0">
		<IconStyle>
			<scale>1.3</scale>
			<Icon>
				<href>http://maps.google.com/mapfiles/kml/pushpin/grn-pushpin.png</href>
			</Icon>
			<hotSpot x="20" y="2" xunits="pixels" yunits="pixels"/>
		</IconStyle>
		<BalloonStyle>
		</BalloonStyle>
		<ListStyle>
		</ListStyle>
	</Style>
	<Style id="sh_red-pushpin">
		<IconStyle>
			<scale>1.3</scale>
			<Icon>
				<href>http://maps.google.com/mapfiles/kml/pushpin/red-pushpin.png</href>
			</Icon>
			<hotSpot x="20" y="2" xunits="pixels" yunits="pixels"/>
		</IconStyle>
		<BalloonStyle>
		</BalloonStyle>
	</Style>
	<Style id="sh_red-pushpin0">
		<IconStyle>
			<scale>1.3</scale>
			<Icon>
				<href>http://maps.google.com/mapfiles/kml/pushpin/red-pushpin.png</href>
			</Icon>
			<hotSpot x="20" y="2" xunits="pixels" yunits="pixels"/>
		</IconStyle>
		<BalloonStyle>
		</BalloonStyle>
	</Style>
	<Style id="sn_grn-pushpin">
		<IconStyle>
			<scale>1.1</scale>
			<Icon>
				<href>http://maps.google.com/mapfiles/kml/pushpin/grn-pushpin.png</href>
			</Icon>
			<hotSpot x="20" y="2" xunits="pixels" yunits="pixels"/>
		</IconStyle>
		<BalloonStyle>
		</BalloonStyle>
		<ListStyle>
		</ListStyle>
	</Style>
	<Style id="sn_grn-pushpin0">
		<IconStyle>
			<scale>1.1</scale>
			<Icon>
				<href>http://maps.google.com/mapfiles/kml/pushpin/grn-pushpin.png</href>
			</Icon>
			<hotSpot x="20" y="2" xunits="pixels" yunits="pixels"/>
		</IconStyle>
		<BalloonStyle>
		</BalloonStyle>
		<ListStyle>
		</ListStyle>
	</Style>
	<Style id="sn_red-pushpin">
		<IconStyle>
			<scale>1.1</scale>
			<Icon>
				<href>http://maps.google.com/mapfiles/kml/pushpin/red-pushpin.png</href>
			</Icon>
			<hotSpot x="20" y="2" xunits="pixels" yunits="pixels"/>
		</IconStyle>
		<BalloonStyle>
		</BalloonStyle>
	</Style>
	<Style id="sn_red-pushpin0">
		<IconStyle>
			<scale>1.1</scale>
			<Icon>
				<href>http://maps.google.com/mapfiles/kml/pushpin/red-pushpin.png</href>
			</Icon>
			<hotSpot x="20" y="2" xunits="pixels" yunits="pixels"/>
		</IconStyle>
		<BalloonStyle>
		</BalloonStyle>
	</Style>
	<Placemark id="5635F6EE0A000002">
		<name>AR</name>
		<styleUrl>#__managed_style_00838CCC4739588CF5E10</styleUrl>
		<LineString>
			<coordinates>
				12.95032723675464,43.14769275508709,511.43 12.95025552205388,43.14762080503564,511.43 12.9497755339199,43.14703096252369,508.7499999999999 12.9497274421199,43.14702549374348,506.07 12.94962054186137,43.14705251722193,504.82 12.9494737934885,43.1471229881311,504.82 12.94912832932994,43.14725791012609,507.8200000000001 12.94903114399254,43.14732234272257,508.3200000000001 12.94884793233182,43.14747990190664,510.04 12.94864330577984,43.14777927542926,512.66 12.94856901504697,43.14792123852509,514.04 12.94844252007552,43.14806452180712,515.66 12.94778522861166,43.14855028685833,522.64 12.94767829830025,43.1485113311716,522.35 12.94732180057897,43.14835483967381,522.35 12.9474859632796,43.14802019783484,516.989501953125 12.94775686324692,43.14792178119906,516.989501953125 12.94781,43.14777,516.29 12.94779,43.1477,515.97 12.94765,43.14747,514.79 12.94754,43.14712,517.22 12.94746946062698,43.14703536651557,521.41 12.94752451877818,43.14697368338901,524.52 12.94774,43.14679,533.21 12.94792767080824,43.14666318274553,539.9 12.94802688851501,43.146608132065,539.91 12.94824063124802,43.14653784783827,539.91 12.94844146533592,43.14651315133056,534.39 12.94863154329909,43.14651083712263,530.25 12.94881,43.14643,523.92 12.94899100800547,43.14638384826041,518.39 12.94907636348777,43.14640581076649,516.9 12.949331629155,43.14637775585945,514.3200000000001 12.94941467949208,43.14640409641387,508.64 12.94944,43.14649,507.56 12.94947301278028,43.14654711832763,506.82 12.94960817115018,43.14674058399045,506.82 12.94976054703995,43.1469527334778,506.07 12.95051851979736,43.14785469674788,510.11 
			</coordinates>
		</LineString>
	</Placemark>
	<Placemark>
		<name>(t)1</name>
		<description>Tappa 1 - Cascata dello Scarzito;Stage 1 - Cascata dello Scarzito</description>
		<LookAt>
			<gx:TimeStamp><when>2022-04-30</when>
</gx:TimeStamp>
			<gx:ViewerOptions>
				<gx:option name="historicalimagery"></gx:option>
				<gx:option enabled="0" name="sunlight"></gx:option>
				<gx:option enabled="0" name="streetview"></gx:option>
			</gx:ViewerOptions>
			<longitude>12.95010099834837</longitude>
			<latitude>43.14752681291611</latitude>
			<altitude>0</altitude>
			<heading>0.0006160397514567017</heading>
			<tilt>27.72971305663476</tilt>
			<range>142.3550765840833</range>
			<gx:altitudeMode>relativeToSeaFloor</gx:altitudeMode>
		</LookAt>
		<styleUrl>#msn_grn-pushpin0</styleUrl>
		<Point>
			<gx:drawOrder>1</gx:drawOrder>
			<coordinates>12.950304928322,43.14769033869235,0</coordinates>
		</Point>
	</Placemark>
	<Placemark>
		<name>1</name>
		<open>1</open>
		<description>Procedi in direzione sudovest su Strada Provinciale 97;Proceed southwest on Provincial Road 97</description>
		<LookAt>
			<gx:TimeStamp><when>2022-04-30</when>
</gx:TimeStamp>
			<gx:ViewerOptions>
				<gx:option name="historicalimagery"></gx:option>
				<gx:option enabled="0" name="sunlight"></gx:option>
				<gx:option enabled="0" name="streetview"></gx:option>
			</gx:ViewerOptions>
			<longitude>12.95010099834839</longitude>
			<latitude>43.1475268129161</latitude>
			<altitude>0</altitude>
			<heading>0.0006160397512102086</heading>
			<tilt>27.72971305663479</tilt>
			<range>142.3550765840833</range>
			<gx:altitudeMode>relativeToSeaFloor</gx:altitudeMode>
		</LookAt>
		<styleUrl>#msn_red-pushpin</styleUrl>
		<Point>
			<gx:drawOrder>1</gx:drawOrder>
			<coordinates>12.95023932769269,43.147620805301,0</coordinates>
		</Point>
	</Placemark>
	<Placemark>
		<name>2</name>
		<description>Svolta a destra e prendi Via Castello;Turn right and take Via Castello</description>
		<LookAt>
			<longitude>12.94957992371659</longitude>
			<latitude>43.14695763720754</latitude>
			<altitude>0</altitude>
			<heading>0.00117808024503542</heading>
			<tilt>26.639088479406</tilt>
			<range>134.8160862219552</range>
			<gx:altitudeMode>relativeToSeaFloor</gx:altitudeMode>
		</LookAt>
		<styleUrl>#m_ylw-pushpin7</styleUrl>
		<Point>
			<gx:drawOrder>1</gx:drawOrder>
			<coordinates>12.94976147332797,43.14705035793708,0</coordinates>
		</Point>
	</Placemark>
	<Placemark>
		<name>(t)2</name>
		<description>Tappa 2 - Torre Varano;Stage 2 - Torre Varano</description>
		<LookAt>
			<gx:TimeStamp><when>2022-04-30</when>
</gx:TimeStamp>
			<gx:ViewerOptions>
				<gx:option name="historicalimagery"></gx:option>
				<gx:option enabled="0" name="sunlight"></gx:option>
				<gx:option enabled="0" name="streetview"></gx:option>
			</gx:ViewerOptions>
			<longitude>12.94997367498106</longitude>
			<latitude>43.14719575465684</latitude>
			<altitude>0</altitude>
			<heading>0.0005289649459682329</heading>
			<tilt>27.72971305663478</tilt>
			<range>142.3550765807128</range>
			<gx:altitudeMode>relativeToSeaFloor</gx:altitudeMode>
		</LookAt>
		<styleUrl>#msn_grn-pushpin0</styleUrl>
		<Point>
			<gx:drawOrder>1</gx:drawOrder>
			<coordinates>12.9494800993474,43.14713014273532,0</coordinates>
		</Point>
	</Placemark>
	<Placemark>
		<name>3</name>
		<description>Svolta a sinistra e prendi Via Sant&apos;Albertino;Turn left and take Via Sant&apos;Albertino</description>
		<LookAt>
			<longitude>12.94802969106746</longitude>
			<latitude>43.14777449407149</latitude>
			<altitude>0</altitude>
			<heading>0.0001179043855806481</heading>
			<tilt>26.63908847940598</tilt>
			<range>134.8160862206676</range>
			<gx:altitudeMode>relativeToSeaFloor</gx:altitudeMode>
		</LookAt>
		<styleUrl>#m_ylw-pushpin7</styleUrl>
		<Point>
			<gx:drawOrder>1</gx:drawOrder>
			<coordinates>12.94783979703696,43.14855329045403,0</coordinates>
		</Point>
	</Placemark>
	<Placemark>
		<name>4</name>
		<description>Svolta a sinistra e attraversa il bosco incantato;Turn left and go through the enchanted forest</description>
		<LookAt>
			<longitude>12.94769323898636</longitude>
			<latitude>43.14765269831604</latitude>
			<altitude>0</altitude>
			<heading>-0.0001121862220721864</heading>
			<tilt>26.63908847940598</tilt>
			<range>134.8160862232683</range>
			<gx:altitudeMode>relativeToSeaFloor</gx:altitudeMode>
		</LookAt>
		<styleUrl>#m_ylw-pushpin7</styleUrl>
		<Point>
			<gx:drawOrder>1</gx:drawOrder>
			<coordinates>12.94731604716335,43.14833264147918,0</coordinates>
		</Point>
	</Placemark>
	<Placemark>
		<name>(t)3</name>
		<description>Tappa 3 - Il bosco incantato;Stage 3 - Il bosco incantato</description>
		<LookAt>
			<gx:TimeStamp><when>2022-04-30</when>
</gx:TimeStamp>
			<gx:ViewerOptions>
				<gx:option name="historicalimagery"></gx:option>
				<gx:option enabled="0" name="sunlight"></gx:option>
				<gx:option enabled="0" name="streetview"></gx:option>
			</gx:ViewerOptions>
			<longitude>12.9478345734979</longitude>
			<latitude>43.14762625168754</latitude>
			<altitude>0</altitude>
			<heading>-0.0009339170959022274</heading>
			<tilt>27.72971305663473</tilt>
			<range>142.3550765822701</range>
			<gx:altitudeMode>relativeToSeaFloor</gx:altitudeMode>
		</LookAt>
		<styleUrl>#msn_grn-pushpin0</styleUrl>
		<Point>
			<gx:drawOrder>1</gx:drawOrder>
			<coordinates>12.94773344970995,43.14789875316807,0</coordinates>
		</Point>
	</Placemark>
	<Placemark>
		<name>5</name>
		<description>Procedi in direzione sudovest su Via del Pattinaggio verso Via Pago;Proceed southwest on Via del Pattinaggio towards Via Pago</description>
		<LookAt>
			<longitude>12.94767248256292</longitude>
			<latitude>43.14728638223117</latitude>
			<altitude>0</altitude>
			<heading>9.401377748978632e-05</heading>
			<tilt>22.04321443116877</tilt>
			<range>140.7916079091062</range>
			<gx:altitudeMode>relativeToSeaFloor</gx:altitudeMode>
		</LookAt>
		<styleUrl>#m_ylw-pushpin7</styleUrl>
		<Point>
			<gx:drawOrder>1</gx:drawOrder>
			<coordinates>12.94757631895846,43.14732461781906,0</coordinates>
		</Point>
	</Placemark>
	<Placemark>
		<name>6</name>
		<description>Svolta a sinistra e prendi Via Pago;Turn left and take Via Pago</description>
		<LookAt>
			<longitude>12.94767248256294</longitude>
			<latitude>43.14728638223117</latitude>
			<altitude>0</altitude>
			<heading>9.401377719876564e-05</heading>
			<tilt>22.04321443116873</tilt>
			<range>140.7916079070637</range>
			<gx:altitudeMode>relativeToSeaFloor</gx:altitudeMode>
		</LookAt>
		<styleUrl>#m_ylw-pushpin7</styleUrl>
		<Point>
			<gx:drawOrder>1</gx:drawOrder>
			<coordinates>12.94745181487416,43.14703834761284,0</coordinates>
		</Point>
	</Placemark>
	<Placemark>
		<name>7</name>
		<description>Continua su Piazza Giorgio Bellanti;Continue on Piazza Giorgio Bellanti</description>
		<LookAt>
			<longitude>12.94891886336683</longitude>
			<latitude>43.14656600414691</latitude>
			<altitude>0</altitude>
			<heading>0.0009458017686584489</heading>
			<tilt>24.04817554402153</tilt>
			<range>131.7478368680135</range>
			<gx:altitudeMode>relativeToSeaFloor</gx:altitudeMode>
		</LookAt>
		<styleUrl>#m_ylw-pushpin7</styleUrl>
		<Point>
			<gx:drawOrder>1</gx:drawOrder>
			<coordinates>12.94898553551471,43.14640342313672,0</coordinates>
		</Point>
	</Placemark>
	<Placemark>
		<name>(t)4</name>
		<description>Tappa 4 - Piazza Bellanti;Stage 4 - Piazza Bellanti</description>
		<LookAt>
			<gx:TimeStamp><when>2022-04-30</when>
</gx:TimeStamp>
			<gx:ViewerOptions>
				<gx:option name="historicalimagery"></gx:option>
				<gx:option enabled="0" name="sunlight"></gx:option>
				<gx:option enabled="0" name="streetview"></gx:option>
			</gx:ViewerOptions>
			<longitude>12.94842562190757</longitude>
			<latitude>43.14646128663362</latitude>
			<altitude>0</altitude>
			<heading>-0.0005297116656107429</heading>
			<tilt>27.72971305663468</tilt>
			<range>142.3550765839368</range>
			<gx:altitudeMode>relativeToSeaFloor</gx:altitudeMode>
		</LookAt>
		<styleUrl>#msn_grn-pushpin</styleUrl>
		<Point>
			<gx:drawOrder>1</gx:drawOrder>
			<coordinates>12.94933156081474,43.14637230664031,0</coordinates>
		</Point>
	</Placemark>
	<Placemark>
		<name>8</name>
		<description>Svolta a sinistra e prendi Strada Provinciale 79;Turn left and take Provincial Road 79</description>
		<LookAt>
			<gx:TimeStamp><when>2022-04-30</when>
</gx:TimeStamp>
			<gx:ViewerOptions>
				<gx:option name="historicalimagery"></gx:option>
				<gx:option enabled="0" name="sunlight"></gx:option>
				<gx:option enabled="0" name="streetview"></gx:option>
			</gx:ViewerOptions>
			<longitude>12.94926665317672</longitude>
			<latitude>43.14646875272997</latitude>
			<altitude>0</altitude>
			<heading>4.545343652700732e-05</heading>
			<tilt>27.7297130566347</tilt>
			<range>142.3550765799363</range>
			<gx:altitudeMode>relativeToSeaFloor</gx:altitudeMode>
		</LookAt>
		<styleUrl>#msn_red-pushpin0</styleUrl>
		<Point>
			<gx:drawOrder>1</gx:drawOrder>
			<coordinates>12.9494237176765,43.14639904103831,0</coordinates>
		</Point>
	</Placemark>
	<Placemark>
		<name>(t)5</name>
		<description>Tappa 5 - Tipicità;Stage 5 - Tipicità</description>
		<LookAt>
			<gx:TimeStamp><when>2022-04-30</when>
</gx:TimeStamp>
			<gx:ViewerOptions>
				<gx:option name="historicalimagery"></gx:option>
				<gx:option enabled="0" name="sunlight"></gx:option>
				<gx:option enabled="0" name="streetview"></gx:option>
			</gx:ViewerOptions>
			<longitude>12.94937630464381</longitude>
			<latitude>43.14657101265126</latitude>
			<altitude>0</altitude>
			<heading>0.0001206262111440483</heading>
			<tilt>27.41393550423552</tilt>
			<range>130.6764912529126</range>
			<gx:altitudeMode>relativeToSeaFloor</gx:altitudeMode>
		</LookAt>
		<styleUrl>#msn_grn-pushpin</styleUrl>
		<Point>
			<gx:drawOrder>1</gx:drawOrder>
			<coordinates>12.94960271612443,43.1467518284391,0</coordinates>
		</Point>
	</Placemark>
</Document>
</kml>
