<?xml version="1.0" encoding="UTF-8"?>
<kml xmlns="http://www.opengis.net/kml/2.2" xmlns:gx="http://www.google.com/kml/ext/2.2" xmlns:kml="http://www.opengis.net/kml/2.2" xmlns:atom="http://www.w3.org/2005/Atom">
<Document>
	<name>Serrapetrona_AR.kml</name>
	<StyleMap id="__managed_style_0B5A7E76A83595C788D81">
		<Pair>
			<key>normal</key>
			<styleUrl>#failed61</styleUrl>
		</Pair>
		<Pair>
			<key>highlight</key>
			<styleUrl>#failed510</styleUrl>
		</Pair>
	</StyleMap>
	<Style id="failed510">
		<LineStyle>
			<color>ffff0000</color>
			<width>4</width>
		</LineStyle>
	</Style>
	<Style id="failed61">
		<LineStyle>
			<color>ffff0000</color>
			<width>4</width>
		</LineStyle>
	</Style>
	<StyleMap id="m_ylw-pushpin8">
		<Pair>
			<key>normal</key>
			<styleUrl>#s_ylw-pushpin130</styleUrl>
		</Pair>
		<Pair>
			<key>highlight</key>
			<styleUrl>#s_ylw-pushpin_hl90</styleUrl>
		</Pair>
	</StyleMap>
	<StyleMap id="m_ylw-pushpin80">
		<Pair>
			<key>normal</key>
			<styleUrl>#s_ylw-pushpin13</styleUrl>
		</Pair>
		<Pair>
			<key>highlight</key>
			<styleUrl>#s_ylw-pushpin_hl9</styleUrl>
		</Pair>
	</StyleMap>
	<StyleMap id="msn_grn-pushpin">
		<Pair>
			<key>normal</key>
			<styleUrl>#sn_grn-pushpin</styleUrl>
		</Pair>
		<Pair>
			<key>highlight</key>
			<styleUrl>#sh_grn-pushpin</styleUrl>
		</Pair>
	</StyleMap>
	<StyleMap id="msn_red-pushpin">
		<Pair>
			<key>normal</key>
			<styleUrl>#sn_red-pushpin</styleUrl>
		</Pair>
		<Pair>
			<key>highlight</key>
			<styleUrl>#sh_red-pushpin</styleUrl>
		</Pair>
	</StyleMap>
	<Style id="s_ylw-pushpin13">
		<IconStyle>
			<scale>1.1</scale>
			<Icon>
				<href>http://maps.google.com/mapfiles/kml/pushpin/red-pushpin.png</href>
			</Icon>
			<hotSpot x="20" y="2" xunits="pixels" yunits="pixels"/>
		</IconStyle>
	</Style>
	<Style id="s_ylw-pushpin130">
		<IconStyle>
			<scale>1.1</scale>
			<Icon>
				<href>http://maps.google.com/mapfiles/kml/pushpin/red-pushpin.png</href>
			</Icon>
			<hotSpot x="20" y="2" xunits="pixels" yunits="pixels"/>
		</IconStyle>
	</Style>
	<Style id="s_ylw-pushpin_hl9">
		<IconStyle>
			<scale>1.3</scale>
			<Icon>
				<href>http://maps.google.com/mapfiles/kml/pushpin/red-pushpin.png</href>
			</Icon>
			<hotSpot x="20" y="2" xunits="pixels" yunits="pixels"/>
		</IconStyle>
	</Style>
	<Style id="s_ylw-pushpin_hl90">
		<IconStyle>
			<scale>1.3</scale>
			<Icon>
				<href>http://maps.google.com/mapfiles/kml/pushpin/red-pushpin.png</href>
			</Icon>
			<hotSpot x="20" y="2" xunits="pixels" yunits="pixels"/>
		</IconStyle>
	</Style>
	<Style id="sh_grn-pushpin">
		<IconStyle>
			<scale>1.3</scale>
			<Icon>
				<href>http://maps.google.com/mapfiles/kml/pushpin/grn-pushpin.png</href>
			</Icon>
			<hotSpot x="20" y="2" xunits="pixels" yunits="pixels"/>
		</IconStyle>
		<BalloonStyle>
		</BalloonStyle>
		<ListStyle>
		</ListStyle>
	</Style>
	<Style id="sh_red-pushpin">
		<IconStyle>
			<scale>1.3</scale>
			<Icon>
				<href>http://maps.google.com/mapfiles/kml/pushpin/red-pushpin.png</href>
			</Icon>
			<hotSpot x="20" y="2" xunits="pixels" yunits="pixels"/>
		</IconStyle>
		<BalloonStyle>
		</BalloonStyle>
	</Style>
	<Style id="sn_grn-pushpin">
		<IconStyle>
			<scale>1.1</scale>
			<Icon>
				<href>http://maps.google.com/mapfiles/kml/pushpin/grn-pushpin.png</href>
			</Icon>
			<hotSpot x="20" y="2" xunits="pixels" yunits="pixels"/>
		</IconStyle>
		<BalloonStyle>
		</BalloonStyle>
		<ListStyle>
		</ListStyle>
	</Style>
	<Style id="sn_red-pushpin">
		<IconStyle>
			<scale>1.1</scale>
			<Icon>
				<href>http://maps.google.com/mapfiles/kml/pushpin/red-pushpin.png</href>
			</Icon>
			<hotSpot x="20" y="2" xunits="pixels" yunits="pixels"/>
		</IconStyle>
		<BalloonStyle>
		</BalloonStyle>
	</Style>
	<Folder>
		<name>Serrapetrona_AR</name>
		<open>1</open>
		<Placemark id="0742A0C3393595C6EE80">
			<name>AR</name>
			<LookAt>
				<longitude>13.18773782853447</longitude>
				<latitude>43.17606112548238</latitude>
				<altitude>483.3398282120046</altitude>
				<heading>0</heading>
				<tilt>0</tilt>
				<range>263.1385999281702</range>
				<altitudeMode>absolute</altitudeMode>
				<gx:fovy>35</gx:fovy>
			</LookAt>
			<styleUrl>#__managed_style_0B5A7E76A83595C788D81</styleUrl>
			<LineString>
				<coordinates>
					13.18712196234618,43.17588987738783,0 13.18722813985113,43.17589168661546,0 13.18753114106967,43.17587999597781,0 13.18778941242647,43.17593700065761,0 13.18800911782496,43.17602025419195,0 13.18815605460932,43.17603378540894,0 13.18855609711027,43.17601093075736,0 13.18855005085981,43.17593139596539,0 13.18871938116418,43.17572379342663,0 13.18914801950295,43.17571708641054,0 13.18939180667446,43.17568735006668,0 13.18946204412315,43.17582010412597,0 13.18955700713181,43.17596473145809,0 13.1897380862616,43.17612665203544,0 
				</coordinates>
			</LineString>
		</Placemark>
		<Placemark>
			<name>(t)1</name>
			<description>Tappa 1 - Chiesa di San Francesco;Stage 1 - Chiesa di San Francesco</description>
			<LookAt>
				<gx:TimeStamp><when>2022-04-30</when>
</gx:TimeStamp>
				<gx:ViewerOptions>
					<gx:option name="historicalimagery"></gx:option>
					<gx:option enabled="0" name="sunlight"></gx:option>
					<gx:option enabled="0" name="streetview"></gx:option>
				</gx:ViewerOptions>
				<longitude>13.18734659846461</longitude>
				<latitude>43.17587103176206</latitude>
				<altitude>0</altitude>
				<heading>-0.000111946821915326</heading>
				<tilt>17.73978316748385</tilt>
				<range>84.56004766706322</range>
				<gx:altitudeMode>relativeToSeaFloor</gx:altitudeMode>
			</LookAt>
			<styleUrl>#msn_grn-pushpin</styleUrl>
			<Point>
				<gx:drawOrder>1</gx:drawOrder>
				<coordinates>13.18711879836658,43.17589895159163,0</coordinates>
			</Point>
		</Placemark>
		<Placemark>
			<name>1</name>
			<open>1</open>
			<description>Procedi verso est;Proceed east</description>
			<LookAt>
				<gx:TimeStamp><when>2022-04-30</when>
</gx:TimeStamp>
				<gx:ViewerOptions>
					<gx:option name="historicalimagery"></gx:option>
					<gx:option enabled="0" name="sunlight"></gx:option>
					<gx:option enabled="0" name="streetview"></gx:option>
				</gx:ViewerOptions>
				<longitude>13.18734659846461</longitude>
				<latitude>43.17587103176206</latitude>
				<altitude>0</altitude>
				<heading>-0.000111946821915326</heading>
				<tilt>17.73978316748385</tilt>
				<range>84.56004766706322</range>
				<gx:altitudeMode>relativeToSeaFloor</gx:altitudeMode>
			</LookAt>
			<styleUrl>#msn_red-pushpin</styleUrl>
			<Point>
				<gx:drawOrder>1</gx:drawOrder>
				<coordinates>13.18722146394766,43.17590016606879,0</coordinates>
			</Point>
		</Placemark>
		<Placemark>
			<name>2</name>
			<description>prendi Via S. Francesco;take Via S. Francesco</description>
			<LookAt>
				<longitude>13.18765217559933</longitude>
				<latitude>43.17583347083721</latitude>
				<altitude>0</altitude>
				<heading>3.784261142373246</heading>
				<tilt>11.94306848053884</tilt>
				<range>102.1294487526171</range>
				<gx:altitudeMode>relativeToSeaFloor</gx:altitudeMode>
			</LookAt>
			<styleUrl>#m_ylw-pushpin8</styleUrl>
			<Point>
				<gx:drawOrder>1</gx:drawOrder>
				<coordinates>13.18753010553747,43.17589695930474,0</coordinates>
			</Point>
		</Placemark>
		<Placemark>
			<name>(t)2</name>
			<description>Tappa 2 - Museo Pinacoteca d&apos;Arte Sacra Contemporanea;Stage 2 - Museo Pinacoteca d&apos;Arte Sacra Contemporanea</description>
			<LookAt>
				<gx:TimeStamp><when>2022-04-30</when>
</gx:TimeStamp>
				<gx:ViewerOptions>
					<gx:option name="historicalimagery"></gx:option>
					<gx:option enabled="0" name="sunlight"></gx:option>
					<gx:option enabled="0" name="streetview"></gx:option>
				</gx:ViewerOptions>
				<longitude>13.18797378398549</longitude>
				<latitude>43.17591214331484</latitude>
				<altitude>0</altitude>
				<heading>0.0003171991356087152</heading>
				<tilt>17.73978316748385</tilt>
				<range>84.56004766796892</range>
				<gx:altitudeMode>relativeToSeaFloor</gx:altitudeMode>
			</LookAt>
			<styleUrl>#msn_grn-pushpin</styleUrl>
			<Point>
				<gx:drawOrder>1</gx:drawOrder>
				<coordinates>13.18800176169584,43.17602607710846,0</coordinates>
			</Point>
		</Placemark>
		<Placemark>
			<name>3</name>
			<description>Svolta a destra e prendi Piazza S. Maria;Turn right and take Piazza S. Maria</description>
			<LookAt>
				<longitude>13.18818018970794</longitude>
				<latitude>43.17577697484906</latitude>
				<altitude>0</altitude>
				<heading>3.784622431920437</heading>
				<tilt>11.94306848053887</tilt>
				<range>102.1294487524041</range>
				<gx:altitudeMode>relativeToSeaFloor</gx:altitudeMode>
			</LookAt>
			<styleUrl>#m_ylw-pushpin8</styleUrl>
			<Point>
				<gx:drawOrder>1</gx:drawOrder>
				<coordinates>13.18855412801324,43.17602537510275,0</coordinates>
			</Point>
		</Placemark>
		<Placemark>
			<name>(t)3</name>
			<description>Tappa 3 - Chiesa di Santa Maria di Piazza;Stage 3 - Chiesa di Santa Maria di Piazza</description>
			<LookAt>
				<gx:TimeStamp><when>2022-04-30</when>
</gx:TimeStamp>
				<gx:ViewerOptions>
					<gx:option name="historicalimagery"></gx:option>
					<gx:option enabled="0" name="sunlight"></gx:option>
					<gx:option enabled="0" name="streetview"></gx:option>
				</gx:ViewerOptions>
				<longitude>13.18830359877505</longitude>
				<latitude>43.17587275233281</latitude>
				<altitude>0</altitude>
				<heading>0.0005428717225972548</heading>
				<tilt>17.73978316748385</tilt>
				<range>84.56004766471416</range>
				<gx:altitudeMode>relativeToSeaFloor</gx:altitudeMode>
			</LookAt>
			<styleUrl>#msn_grn-pushpin</styleUrl>
			<Point>
				<gx:drawOrder>1</gx:drawOrder>
				<coordinates>13.18854097264655,43.17592766936102,0</coordinates>
			</Point>
		</Placemark>
		<Placemark>
			<name>4</name>
			<description>Svolta a sinistra e prendi Via Umberto I;Turn left and take Via Umberto I</description>
			<LookAt>
				<longitude>13.18880727447156</longitude>
				<latitude>43.17581702635546</latitude>
				<altitude>0</altitude>
				<heading>3.785051507150138</heading>
				<tilt>11.94306848053881</tilt>
				<range>102.1294487532302</range>
				<gx:altitudeMode>relativeToSeaFloor</gx:altitudeMode>
			</LookAt>
			<styleUrl>#m_ylw-pushpin8</styleUrl>
			<Point>
				<gx:drawOrder>1</gx:drawOrder>
				<coordinates>13.18870323404496,43.17572281003499,0</coordinates>
			</Point>
		</Placemark>
		<Placemark>
			<name>5</name>
			<open>1</open>
			<description>Svolta a sinistra e prendi Via Rave;Turn left and take Via Rave</description>
			<LookAt>
				<longitude>13.18921527895352</longitude>
				<latitude>43.17590285577064</latitude>
				<altitude>0</altitude>
				<heading>0.0009715682042022641</heading>
				<tilt>25.02303936566105</tilt>
				<range>180.2757984737398</range>
				<gx:altitudeMode>relativeToSeaFloor</gx:altitudeMode>
			</LookAt>
			<styleUrl>#m_ylw-pushpin80</styleUrl>
			<Point>
				<gx:drawOrder>1</gx:drawOrder>
				<coordinates>13.18938434197536,43.17568276662718,0</coordinates>
			</Point>
		</Placemark>
		<Placemark>
			<name>(t)4</name>
			<description>Tappa 4 - Palazzo Claudi;Stage 4 - Palazzo Claudi</description>
			<LookAt>
				<gx:TimeStamp><when>2022-04-30</when>
</gx:TimeStamp>
				<gx:ViewerOptions>
					<gx:option name="historicalimagery"></gx:option>
					<gx:option enabled="0" name="sunlight"></gx:option>
					<gx:option enabled="0" name="streetview"></gx:option>
				</gx:ViewerOptions>
				<longitude>13.18966790112742</longitude>
				<latitude>43.17602407285128</latitude>
				<altitude>0</altitude>
				<heading>0.001476383307150093</heading>
				<tilt>17.73978316748385</tilt>
				<range>84.56004766219345</range>
				<gx:altitudeMode>relativeToSeaFloor</gx:altitudeMode>
			</LookAt>
			<styleUrl>#msn_grn-pushpin</styleUrl>
			<Point>
				<gx:drawOrder>1</gx:drawOrder>
				<coordinates>13.18974734543529,43.17612379917453,0</coordinates>
			</Point>
		</Placemark>
		<atom:link rel="app" href="https://www.google.com/earth/about/versions/#earth-pro" title="Google Earth Pro 7.3.6.10441"></atom:link>
	</Folder>
</Document>
</kml>
