<?xml version="1.0" encoding="UTF-8"?>
<kml xmlns="http://www.opengis.net/kml/2.2" xmlns:gx="http://www.google.com/kml/ext/2.2" xmlns:kml="http://www.opengis.net/kml/2.2" xmlns:atom="http://www.w3.org/2005/Atom">
<Document id="1ToHsksFYlnnIZlkIUelusH4Gi2ghprp0">
	<name>Valfornace_IOT</name>
	<open>1</open>
	<atom:link rel="app" href="https://www.google.com/earth/about/versions/#earth-pro" title="Google Earth Pro 7.3.6.10441"></atom:link><gx:CascadingStyle kml:id="__managed_style_3234FC26233797835E87">
		<Style>
			<IconStyle>
				<scale>1.2</scale>
				<Icon>
					<href>https://earth.google.com/earth/document/icon?color=1976d2<![CDATA[&]]>id=2345<![CDATA[&]]>scale=4</href>
				</Icon>
				<hotSpot x="64" y="128" xunits="pixels" yunits="insetPixels"></hotSpot>
			</IconStyle>
			<LabelStyle>
			</LabelStyle>
			<LineStyle>
				<color>ff2dc0fb</color>
				<width>6</width>
			</LineStyle>
			<PolyStyle>
				<color>40ffffff</color>
			</PolyStyle>
			<BalloonStyle>
			</BalloonStyle>
		</Style>
	</gx:CascadingStyle><gx:CascadingStyle kml:id="__managed_style_278B98C2323797835E87">
		<Style>
			<IconStyle>
				<Icon>
					<href>https://earth.google.com/earth/document/icon?color=1976d2<![CDATA[&]]>id=2345<![CDATA[&]]>scale=4</href>
				</Icon>
				<hotSpot x="64" y="128" xunits="pixels" yunits="insetPixels"></hotSpot>
			</IconStyle>
			<LabelStyle>
			</LabelStyle>
			<LineStyle>
				<color>ff2dc0fb</color>
				<width>4</width>
			</LineStyle>
			<PolyStyle>
				<color>40ffffff</color>
			</PolyStyle>
			<BalloonStyle>
			</BalloonStyle>
		</Style>
	</gx:CascadingStyle><gx:CascadingStyle kml:id="__managed_style_0A34E469023797835E87">
		<Style>
			<IconStyle>
				<scale>1.2</scale>
				<Icon>
					<href>https://earth.google.com/earth/document/icon?color=1976d2<![CDATA[&]]>id=2000<![CDATA[&]]>scale=4</href>
				</Icon>
				<hotSpot x="64" y="128" xunits="pixels" yunits="insetPixels"></hotSpot>
			</IconStyle>
			<LabelStyle>
			</LabelStyle>
			<LineStyle>
				<color>ff2dc0fb</color>
				<width>6</width>
			</LineStyle>
			<PolyStyle>
				<color>40ffffff</color>
			</PolyStyle>
			<BalloonStyle>
			</BalloonStyle>
		</Style>
	</gx:CascadingStyle><gx:CascadingStyle kml:id="__managed_style_126AD8847A3797835E86">
		<Style>
			<IconStyle>
				<Icon>
					<href>https://earth.google.com/earth/document/icon?color=1976d2<![CDATA[&]]>id=2000<![CDATA[&]]>scale=4</href>
				</Icon>
				<hotSpot x="64" y="128" xunits="pixels" yunits="insetPixels"></hotSpot>
			</IconStyle>
			<LabelStyle>
			</LabelStyle>
			<LineStyle>
				<color>ff2dc0fb</color>
				<width>4</width>
			</LineStyle>
			<PolyStyle>
				<color>40ffffff</color>
			</PolyStyle>
			<BalloonStyle>
			</BalloonStyle>
		</Style>
	</gx:CascadingStyle>
	<StyleMap id="__managed_style_0CECB9BBD13797835E86">
		<Pair>
			<key>normal</key>
			<styleUrl>#failed81</styleUrl>
		</Pair>
		<Pair>
			<key>highlight</key>
			<styleUrl>#failed91</styleUrl>
		</Pair>
	</StyleMap>
	<Style id="failed81">
		<LineStyle>
			<color>ff00ffff</color>
			<width>2</width>
		</LineStyle>
	</Style>
	<Style id="failed91">
		<LineStyle>
			<color>ff00ffff</color>
			<width>2</width>
		</LineStyle>
	</Style>
	<StyleMap id="m_ylw-pushpin11">
		<Pair>
			<key>normal</key>
			<styleUrl>#s_ylw-pushpin14</styleUrl>
		</Pair>
		<Pair>
			<key>highlight</key>
			<styleUrl>#s_ylw-pushpin_hl13</styleUrl>
		</Pair>
	</StyleMap>
	<StyleMap id="msn_grn-pushpin">
		<Pair>
			<key>normal</key>
			<styleUrl>#sn_grn-pushpin0</styleUrl>
		</Pair>
		<Pair>
			<key>highlight</key>
			<styleUrl>#sh_grn-pushpin</styleUrl>
		</Pair>
	</StyleMap>
	<StyleMap id="msn_grn-pushpin0">
		<Pair>
			<key>normal</key>
			<styleUrl>#sn_grn-pushpin</styleUrl>
		</Pair>
		<Pair>
			<key>highlight</key>
			<styleUrl>#sh_grn-pushpin0</styleUrl>
		</Pair>
	</StyleMap>
	<StyleMap id="msn_red-pushpin">
		<Pair>
			<key>normal</key>
			<styleUrl>#sn_red-pushpin0</styleUrl>
		</Pair>
		<Pair>
			<key>highlight</key>
			<styleUrl>#sh_red-pushpin0</styleUrl>
		</Pair>
	</StyleMap>
	<StyleMap id="msn_red-pushpin0">
		<Pair>
			<key>normal</key>
			<styleUrl>#sn_red-pushpin</styleUrl>
		</Pair>
		<Pair>
			<key>highlight</key>
			<styleUrl>#sh_red-pushpin</styleUrl>
		</Pair>
	</StyleMap>
	<Style id="s_ylw-pushpin14">
		<IconStyle>
			<scale>1.1</scale>
			<Icon>
				<href>http://maps.google.com/mapfiles/kml/pushpin/red-pushpin.png</href>
			</Icon>
			<hotSpot x="20" y="2" xunits="pixels" yunits="pixels"/>
		</IconStyle>
	</Style>
	<Style id="s_ylw-pushpin_hl13">
		<IconStyle>
			<scale>1.3</scale>
			<Icon>
				<href>http://maps.google.com/mapfiles/kml/pushpin/red-pushpin.png</href>
			</Icon>
			<hotSpot x="20" y="2" xunits="pixels" yunits="pixels"/>
		</IconStyle>
	</Style>
	<Style id="sh_grn-pushpin">
		<IconStyle>
			<scale>1.3</scale>
			<Icon>
				<href>http://maps.google.com/mapfiles/kml/pushpin/grn-pushpin.png</href>
			</Icon>
			<hotSpot x="20" y="2" xunits="pixels" yunits="pixels"/>
		</IconStyle>
		<BalloonStyle>
		</BalloonStyle>
		<ListStyle>
		</ListStyle>
	</Style>
	<Style id="sh_grn-pushpin0">
		<IconStyle>
			<scale>1.3</scale>
			<Icon>
				<href>http://maps.google.com/mapfiles/kml/pushpin/grn-pushpin.png</href>
			</Icon>
			<hotSpot x="20" y="2" xunits="pixels" yunits="pixels"/>
		</IconStyle>
		<BalloonStyle>
		</BalloonStyle>
		<ListStyle>
		</ListStyle>
	</Style>
	<Style id="sh_red-pushpin">
		<IconStyle>
			<scale>1.3</scale>
			<Icon>
				<href>http://maps.google.com/mapfiles/kml/pushpin/red-pushpin.png</href>
			</Icon>
			<hotSpot x="20" y="2" xunits="pixels" yunits="pixels"/>
		</IconStyle>
		<BalloonStyle>
		</BalloonStyle>
	</Style>
	<Style id="sh_red-pushpin0">
		<IconStyle>
			<scale>1.3</scale>
			<Icon>
				<href>http://maps.google.com/mapfiles/kml/pushpin/red-pushpin.png</href>
			</Icon>
			<hotSpot x="20" y="2" xunits="pixels" yunits="pixels"/>
		</IconStyle>
		<BalloonStyle>
		</BalloonStyle>
	</Style>
	<Style id="sn_grn-pushpin">
		<IconStyle>
			<scale>1.1</scale>
			<Icon>
				<href>http://maps.google.com/mapfiles/kml/pushpin/grn-pushpin.png</href>
			</Icon>
			<hotSpot x="20" y="2" xunits="pixels" yunits="pixels"/>
		</IconStyle>
		<BalloonStyle>
		</BalloonStyle>
		<ListStyle>
		</ListStyle>
	</Style>
	<Style id="sn_grn-pushpin0">
		<IconStyle>
			<scale>1.1</scale>
			<Icon>
				<href>http://maps.google.com/mapfiles/kml/pushpin/grn-pushpin.png</href>
			</Icon>
			<hotSpot x="20" y="2" xunits="pixels" yunits="pixels"/>
		</IconStyle>
		<BalloonStyle>
		</BalloonStyle>
		<ListStyle>
		</ListStyle>
	</Style>
	<Style id="sn_red-pushpin">
		<IconStyle>
			<scale>1.1</scale>
			<Icon>
				<href>http://maps.google.com/mapfiles/kml/pushpin/red-pushpin.png</href>
			</Icon>
			<hotSpot x="20" y="2" xunits="pixels" yunits="pixels"/>
		</IconStyle>
		<BalloonStyle>
		</BalloonStyle>
	</Style>
	<Style id="sn_red-pushpin0">
		<IconStyle>
			<scale>1.1</scale>
			<Icon>
				<href>http://maps.google.com/mapfiles/kml/pushpin/red-pushpin.png</href>
			</Icon>
			<hotSpot x="20" y="2" xunits="pixels" yunits="pixels"/>
		</IconStyle>
		<BalloonStyle>
		</BalloonStyle>
	</Style>
	<Placemark id="547510A145000001">
		<name>IOT</name>
		<open>1</open>
		<styleUrl>#__managed_style_0CECB9BBD13797835E86</styleUrl>
		<LineString>
			<coordinates>
				13.08535665855442,43.05978335673712,454.1299999999999 13.08532,43.05976,454.99 13.08531221117566,43.05974000994252,454.78 13.08533520109147,43.0596342973667,454.78 13.08546,43.05946,452.44 13.08546383990626,43.05945185842588,452.3999999999999 13.08544450795336,43.05945991878733,452.44 13.08527218756826,43.05963613651574,451.8699999999999 13.08507,43.05989,451.16 13.08504,43.05996,450.83 13.08495,43.06014,450.4999999999999 13.08478,43.06059,449.3399999999999 13.08477,43.06078,448.9299999999998 13.08478,43.06082,449.68 13.08475,43.06106,448.6799999999999 13.0847,43.06149,447.69 13.08464,43.06175,447.3 13.084675578636,43.06216475088213,446.91 13.08465,43.06246,446.24 13.08465,43.06248,445.78 13.08465,43.06277,445.3200000000001 13.08461,43.06294,444.79 13.08451,43.06308,444.3299999999999 13.08435,43.06324,443.73 13.08428,43.06334,443.41 13.08424,43.06344,443.1999999999999 13.08426,43.06373,442.8999999999999 13.08427857740633,43.06378093466056,442.6100000000001 13.08449,43.06405,441.41 13.08475,43.06432,440.13 13.08488,43.06439,439.79 13.08491,43.06453,438.8899999999999 13.08498,43.06499,436.86 13.08512,43.06532,435.35 13.08514,43.06537,435.2099999999999 13.08521,43.06558,434.4100000000001 13.08534,43.06603,434.4100000000001 13.08536045072861,43.06609323554624,433.6200000000001 13.08543,43.06633,432.77 13.08556,43.06698,430.85 13.08579,43.06795,431.83 13.08592,43.06837,432.8899999999999 13.08612,43.0686,433.5400000000001 13.08636,43.06881,434.2 13.08703,43.06942,433.1 13.08723,43.06952,432.8399999999999 13.08721,43.06958,432.8800000000001 13.08719,43.06964,432.92 13.08695,43.06974,431.36 13.08652,43.06997,428.23 13.08618760282743,43.07010628838034,425.69 13.08610631674575,43.07030075579231,425.69 13.08621,43.07053,422.82 13.08654,43.07076,422.0199999999999 13.0868,43.07135,420.52 13.08692,43.07168,419.7 13.08698,43.07207,418.7500000000001 13.08688,43.07232,418.1199999999999 13.08685,43.07252,417.63 13.08691,43.07268,417.2300000000001 13.08712,43.07308,416.1900000000001 13.08715,43.07331,415.65 13.08726,43.07361,414.8899999999999 13.08744,43.07396,414 13.08745,43.07415,413.55 13.08734,43.07439,412.9300000000001 13.08734,43.07454,412.5599999999998 13.08759,43.07506,411.2499999999999 13.08775,43.07555,410.03 13.08787,43.07582,409.34 13.08799,43.07598,408.9 13.08797,43.07599,408.8799999999999 13.08751,43.07625,408.85 13.08728,43.07635,408.83 13.08718,43.07639,408.76 13.08711,43.07642,408.72 13.08684,43.07646,408.51 13.08554977029824,43.07627700270522,407.51 13.08531845168929,43.07625910876325,407.42 13.0853985041861,43.07656951050647,407.33 13.08562255363907,43.07756610643897,408.5899999999999 13.08575737312958,43.07799564369103,410.3600000000001 13.08580123431692,43.07827309690756,410.3600000000001 13.08590524647025,43.07837831023981,410.3600000000001 13.0857283502727,43.07829458947953,411.86 13.08542546996321,43.07786951909353,413.47 13.0814117391968,43.07773079451884,411.27 13.08122,43.07769,409.0600000000001 13.081,43.07806,409.02 13.08081,43.07829,409 13.08024,43.078,410.46 13.07917,43.07751,413.11 13.07903,43.07736,413.65 13.07876876899305,43.07650593967597,416.11 13.07865438355005,43.07640267723185,416.49 13.07846931628334,43.07637509992573,416.3799999999999 13.0780264777239,43.07644158322761,415.67 13.0779,43.07643,415.5899999999999 13.07743,43.07633,415.34 13.07609,43.07596,418.5899999999999 13.07604,43.07582,419.8399999999999 13.07583,43.07479,428.9499999999999 13.07561,43.07449,431.89 13.07543,43.07408,435.65 13.07535,43.07396,436.82 13.07519,43.07382,438.42 13.07442,43.07337,444.7200000000001 13.07274,43.07225,459.2499999999999 13.07233,43.07194,462.9599999999999 13.07211,43.07185,464.6 13.07204,43.07174,465.67 13.07202,43.07165,464.31 13.07196,43.07161,464.0099999999998 13.0714,43.07123,463.7 13.07092,43.07101,463.2900000000001 13.0708,43.0709,463.16 13.0707,43.07072,462.98 13.07068,43.07062,464.9399999999999 13.07072,43.07051,466.9999999999999 13.07105,43.07008,476.3799999999999 13.0712,43.06984,481.46 13.07129,43.06961,485.64 13.07133,43.06958,486.85 13.0714,43.06956,487.94 13.07159,43.06963,491.6700000000001 13.07188,43.06967,496.73 13.07225,43.06969,503.0599999999999 13.07251,43.06973,506.74 13.07308,43.06972,514.52 13.07317,43.06969,516.41 13.07322,43.06963,518.03 13.07321,43.06919,527.29 13.07325,43.06904,530.5700000000001 13.0733,43.06897,532.37 13.07339,43.06894,533.86 13.07357,43.06893,534.7 13.07376,43.06888,537.73 13.07383,43.06892,537.54 13.07393,43.06893,536.83 13.07411,43.06892,535.46 13.07423,43.06892,534.59 13.07438,43.06899,533.34 13.07471,43.0692,530.14 13.0749,43.06929,528.42 13.07528,43.06941,525.41 13.0758,43.06964,519 13.07602,43.06977,515.24 13.07633,43.06998,509.82 13.07643,43.07001,508.42 13.07656,43.07019,506.07 13.07672,43.07032,504.05 13.07703,43.07043,501.45 13.07731393169243,43.07049606131199,494.7610015869141 13.07756,43.07052,494.76 13.07756,43.0705,494.76 13.07761,43.07037,495.3100000000001 13.07765,43.07009,496.0799999999999 13.07768,43.07003,495.725 13.07769,43.07,495.73 13.0778,43.06983,493.8899999999999 13.07788,43.06969,492.3999999999999 13.07795,43.06963,491.76 13.07807,43.06958,490.88 13.07822,43.06953,489.99 13.07829,43.06948,488.9499999999999 13.07834,43.06943,488.0699999999998 13.07838,43.06933,486.61 13.07843,43.06915,483.98 13.07858,43.0691,482.29 13.07864,43.06903,481.0500000000001 13.07866,43.06898,480.3299999999999 13.07866,43.06887,480.5000000000001 13.07859,43.06852,478.25 13.07859,43.06844,477.73 13.07862,43.06839,477.42 13.07867,43.06837,477.14 13.07893,43.0683,475.89 13.07902,43.0684,474.67 13.07926,43.06861,474.36 13.0794,43.06869,471.8399999999999 13.07957,43.0687,469.61 13.07971,43.06868,467.6 13.08123,43.06788,446.04 13.0813,43.0678,446.0799999999999 13.08153,43.06745,446.2500000000001 13.0816,43.06737,445.89 13.08176,43.06731,445.28 13.08202,43.06727,444.3399999999999 13.08203,43.06726,444.5699999999998 13.08255,43.06646,444.8 13.0826,43.06615,444.99 13.08256,43.06592,445.1199999999999 13.08213,43.06512,444.0799999999999 13.08208,43.06497,443.2499999999999 13.08206,43.06453,440.92 13.08205,43.06431,440.22 13.0821,43.06415,439.2699999999999 13.08226,43.06394,438.3699999999999 13.08231,43.06376,438.81 13.08234,43.06341,439.63 13.08237,43.06326,439.99 13.08243,43.06312,440.3299999999999 13.08243,43.0631,440.65 13.0825,43.06273,441.2799999999999 13.08258,43.06245,441.59 13.08275,43.06216,442.1799999999999 13.08287,43.06198,443.62 13.08404,43.06033,446.67 13.08420323607987,43.06005400716512,447.9710083007812 13.08376,43.05923,448.6999999999999 13.08369,43.05909,448.6999999999999 13.08366,43.05903,449.3099999999999 13.08365,43.05871,452.3099999999998 13.08362906626309,43.05864128012604,452.8339996337891 13.08407827002975,43.05813496390132,454.7805023193359 13.08459313050571,43.05768459556049,454.9880065917969 13.08510073942659,43.05756537985738,451.3319854736328 13.08568177607424,43.05728043424369,454.6979980468749 13.08639242856236,43.05682476108137,457.573501586914 13.08689641170522,43.05681681326385,457.573501586914 13.08702331393482,43.05699166501645,457.573501586914 13.08680939303335,43.05721685214507,457.573501586914 13.0867069590808,43.05757862605833,454.6979980468749 13.08606892647785,43.05809611631838,451.3319854736328 13.08532,43.05865,451.33 13.08498,43.05889,449.55 13.08480190464567,43.05906473258202,448.97900390625 13.085,43.05924,449.28 13.08501894079257,43.05924902509508,449.70849609375 13.08511,43.05931,449.8399999999999 13.08521,43.05934,450.04 13.08524,43.05933,450.14 13.08531,43.05932,450.24 13.08545,43.05911,450.84 13.08554,43.059,450.3700000000001 13.08559,43.05899,451.01 13.08568,43.05902,452.29 13.08554,43.05924,452.3700000000001 13.08548402523203,43.05946291097657,452.44 13.0853561471575,43.05964738478342,454.05 13.08533847704812,43.05971588244114,454.78 13.08535205815046,43.05973244175574,454.78 13.0853942804213,43.05975274069743,454.1299999999999 
			</coordinates>
		</LineString>
	</Placemark>
	<Placemark>
		<name>(t)1</name>
		<description>Tappa 1 - Chiesa di Santa Maria Assunta e Cripta Romanica;Stage 1 - Chiesa di Santa Maria Assunta e Cripta Romanica</description>
		<LookAt>
			<longitude>13.0854989451874</longitude>
			<latitude>43.0597820327889</latitude>
			<altitude>0</altitude>
			<heading>0.00129104638036484</heading>
			<tilt>28.02926280272305</tilt>
			<range>88.44898117084743</range>
			<gx:altitudeMode>relativeToSeaFloor</gx:altitudeMode>
		</LookAt>
		<styleUrl>#msn_grn-pushpin0</styleUrl>
		<Point>
			<gx:drawOrder>1</gx:drawOrder>
			<coordinates>13.08535555555556,43.05978888888889,0</coordinates>
		</Point>
	</Placemark>
	<Placemark>
		<name>1</name>
		<open>1</open>
		<description>Procedi verso Via Flaminio Napoleoni;Proceed towards Via Flaminio Napoleoni</description>
		<LookAt>
			<longitude>13.0854989451874</longitude>
			<latitude>43.0597820327889</latitude>
			<altitude>0</altitude>
			<heading>0.00129104638036484</heading>
			<tilt>28.02926280272305</tilt>
			<range>88.44898117084743</range>
			<gx:altitudeMode>relativeToSeaFloor</gx:altitudeMode>
		</LookAt>
		<styleUrl>#msn_red-pushpin</styleUrl>
		<Point>
			<gx:drawOrder>1</gx:drawOrder>
			<coordinates>13.08531302547925,43.05976120966208,0</coordinates>
		</Point>
	</Placemark>
	<Placemark>
		<name>2</name>
		<description>Svolta tutto a destra per rimanere su Via Flaminio Napoleoni;Turn sharp right to stay on Via Flaminio Napoleoni</description>
		<LookAt>
			<longitude>13.08532882072624</longitude>
			<latitude>43.05995177271436</latitude>
			<altitude>0</altitude>
			<heading>-4.262518004321062</heading>
			<tilt>30.00055406189034</tilt>
			<range>120.5226489795989</range>
			<gx:altitudeMode>relativeToSeaFloor</gx:altitudeMode>
		</LookAt>
		<styleUrl>#m_ylw-pushpin11</styleUrl>
		<Point>
			<gx:drawOrder>1</gx:drawOrder>
			<coordinates>13.08544631628192,43.0594521798221,0</coordinates>
		</Point>
	</Placemark>
	<Placemark>
		<name>3</name>
		<description>Continua su Piazza Vittorio Veneto;Continue on Piazza Vittorio Veneto</description>
		<LookAt>
			<longitude>13.08488350420089</longitude>
			<latitude>43.06052176914103</latitude>
			<altitude>0</altitude>
			<heading>-4.262822053059817</heading>
			<tilt>30.00055406189033</tilt>
			<range>120.5226489780536</range>
			<gx:altitudeMode>relativeToSeaFloor</gx:altitudeMode>
		</LookAt>
		<styleUrl>#m_ylw-pushpin11</styleUrl>
		<Point>
			<gx:drawOrder>1</gx:drawOrder>
			<coordinates>13.08480224547889,43.0607772400495,0</coordinates>
		</Point>
	</Placemark>
	<Placemark>
		<name>(t)2</name>
		<description>Tappa 2 - Museo Civico &quot;Raffaele Campelli&quot;;Stage 2 - Museo Civico &quot;Raffaele Campelli&quot;</description>
		<LookAt>
			<longitude>13.08500319512104</longitude>
			<latitude>43.06209229144954</latitude>
			<altitude>0</altitude>
			<heading>4.768672372511578</heading>
			<tilt>32.13000194979805</tilt>
			<range>178.3780504295545</range>
			<gx:altitudeMode>relativeToSeaFloor</gx:altitudeMode>
		</LookAt>
		<styleUrl>#msn_grn-pushpin0</styleUrl>
		<Point>
			<gx:drawOrder>1</gx:drawOrder>
			<coordinates>13.08469166666667,43.06216944444444,0</coordinates>
		</Point>
	</Placemark>
	<Placemark>
		<name>4</name>
		<description>Continua su Via Roma;Continue on Via Roma</description>
		<LookAt>
			<longitude>13.08487337664265</longitude>
			<latitude>43.06186615520284</latitude>
			<altitude>0</altitude>
			<heading>-4.262828970566074</heading>
			<tilt>30.00055406189033</tilt>
			<range>120.5226489813103</range>
			<gx:altitudeMode>relativeToSeaFloor</gx:altitudeMode>
		</LookAt>
		<styleUrl>#m_ylw-pushpin11</styleUrl>
		<Point>
			<gx:drawOrder>1</gx:drawOrder>
			<coordinates>13.0846803427007,43.06246918671422,0</coordinates>
		</Point>
	</Placemark>
	<Placemark>
		<name>5</name>
		<description>Svolta a destra e prendi Via Rancia;Turn right and take Via Rancia</description>
		<LookAt>
			<longitude>13.08456042752339</longitude>
			<latitude>43.06347247838744</latitude>
			<altitude>0</altitude>
			<heading>-4.263042654918658</heading>
			<tilt>30.00055406189033</tilt>
			<range>120.522648978561</range>
			<gx:altitudeMode>relativeToSeaFloor</gx:altitudeMode>
		</LookAt>
		<styleUrl>#m_ylw-pushpin11</styleUrl>
		<Point>
			<gx:drawOrder>1</gx:drawOrder>
			<coordinates>13.08429126748252,43.06343396674259,0</coordinates>
		</Point>
	</Placemark>
	<Placemark>
		<name>6</name>
		<description>Svolta a sinistra per rimanere su Via Rancia;Turn left to stay on Via Rancia</description>
		<LookAt>
			<longitude>13.08471955320808</longitude>
			<latitude>43.06444261159324</latitude>
			<altitude>0</altitude>
			<heading>-4.262934009621568</heading>
			<tilt>29.99998967779423</tilt>
			<range>120.5183741711158</range>
			<gx:altitudeMode>relativeToSeaFloor</gx:altitudeMode>
		</LookAt>
		<styleUrl>#m_ylw-pushpin11</styleUrl>
		<Point>
			<gx:drawOrder>1</gx:drawOrder>
			<coordinates>13.08489959168383,43.06437151878628,0</coordinates>
		</Point>
	</Placemark>
	<Placemark>
		<name>7</name>
		<description>Svolta a sinistra;Turn left</description>
		<LookAt>
			<longitude>13.0870737924646</longitude>
			<latitude>43.06941101729002</latitude>
			<altitude>0</altitude>
			<heading>-4.261326385243426</heading>
			<tilt>29.99998967779422</tilt>
			<range>120.5183741713415</range>
			<gx:altitudeMode>relativeToSeaFloor</gx:altitudeMode>
		</LookAt>
		<styleUrl>#m_ylw-pushpin11</styleUrl>
		<Point>
			<gx:drawOrder>1</gx:drawOrder>
			<coordinates>13.08726263326314,43.06952501608957,0</coordinates>
		</Point>
	</Placemark>
	<Placemark>
		<name>8</name>
		<description>Svolta tutto a destra;Turn hard right</description>
		<LookAt>
			<longitude>13.08605748961898</longitude>
			<latitude>43.06973035580093</latitude>
			<altitude>0</altitude>
			<heading>-4.262020411966503</heading>
			<tilt>29.99998967779421</tilt>
			<range>120.5183741719211</range>
			<gx:altitudeMode>relativeToSeaFloor</gx:altitudeMode>
		</LookAt>
		<styleUrl>#m_ylw-pushpin11</styleUrl>
		<Point>
			<gx:drawOrder>1</gx:drawOrder>
			<coordinates>13.08623772973753,43.07013199281427,0</coordinates>
		</Point>
	</Placemark>
	<Placemark>
		<name>9</name>
		<description>Svolta a sinistra;Turn left</description>
		<LookAt>
			<longitude>13.0875399958261</longitude>
			<latitude>43.0757066647858</latitude>
			<altitude>0</altitude>
			<heading>-4.261007966589639</heading>
			<tilt>29.9999896777942</tilt>
			<range>120.5183741702168</range>
			<gx:altitudeMode>relativeToSeaFloor</gx:altitudeMode>
		</LookAt>
		<styleUrl>#m_ylw-pushpin11</styleUrl>
		<Point>
			<gx:drawOrder>1</gx:drawOrder>
			<coordinates>13.08801599379642,43.07596561751511,0</coordinates>
		</Point>
	</Placemark>
	<Placemark>
		<name>10</name>
		<description>Svolta a destra;Turn right</description>
		<LookAt>
			<longitude>13.08539742485342</longitude>
			<latitude>43.07670323259561</latitude>
			<altitude>0</altitude>
			<heading>-4.26247128258532</heading>
			<tilt>29.99998967779422</tilt>
			<range>120.518374172108</range>
			<gx:altitudeMode>relativeToSeaFloor</gx:altitudeMode>
		</LookAt>
		<styleUrl>#m_ylw-pushpin11</styleUrl>
		<Point>
			<gx:drawOrder>1</gx:drawOrder>
			<coordinates>13.08529870474083,43.0762633404881,0</coordinates>
		</Point>
	</Placemark>
	<Placemark>
		<name>(t)3</name>
		<description>Tappa 3 - Castello di Beldiletto;Stage 3 - Castello di Beldiletto</description>
		<LookAt>
			<longitude>13.08651305331559</longitude>
			<latitude>43.07719700566754</latitude>
			<altitude>0</altitude>
			<heading>4.771720289798625</heading>
			<tilt>21.71851356729874</tilt>
			<range>286.0843517625761</range>
			<gx:altitudeMode>relativeToSeaFloor</gx:altitudeMode>
		</LookAt>
		<styleUrl>#msn_grn-pushpin0</styleUrl>
		<Point>
			<gx:drawOrder>1</gx:drawOrder>
			<coordinates>13.08576944444444,43.07798055555556,0</coordinates>
		</Point>
	</Placemark>
	<Placemark>
		<name>11</name>
		<description>Svolta tutto a sinistra;Turn hard left</description>
		<LookAt>
			<longitude>13.08564256771237</longitude>
			<latitude>43.07816641774149</latitude>
			<altitude>0</altitude>
			<heading>-4.262303856222656</heading>
			<tilt>29.99998967779572</tilt>
			<range>120.5183742277986</range>
			<gx:altitudeMode>relativeToSeaFloor</gx:altitudeMode>
		</LookAt>
		<styleUrl>#m_ylw-pushpin11</styleUrl>
		<Point>
			<gx:drawOrder>1</gx:drawOrder>
			<coordinates>13.08596562831362,43.07834771127693,0</coordinates>
		</Point>
	</Placemark>
	<Placemark>
		<name>12</name>
		<description>Svolta a destra;Turn right</description>
		<LookAt>
			<longitude>13.08104179236719</longitude>
			<latitude>43.07797928934031</latitude>
			<altitude>0</altitude>
			<heading>-4.265547462681139</heading>
			<tilt>28.64430691030081</tilt>
			<range>100.2183507195265</range>
			<gx:altitudeMode>relativeToSeaFloor</gx:altitudeMode>
		</LookAt>
		<styleUrl>#m_ylw-pushpin11</styleUrl>
		<Point>
			<gx:drawOrder>1</gx:drawOrder>
			<coordinates>13.08124166666667,43.07770833333333,0</coordinates>
		</Point>
	</Placemark>
	<Placemark>
		<name>13</name>
		<description>Svolta a sinistra;Turn left</description>
		<LookAt>
			<longitude>13.08060020544047</longitude>
			<latitude>43.07800011874865</latitude>
			<altitude>0</altitude>
			<heading>-4.266176778498142</heading>
			<tilt>24.89777442543945</tilt>
			<range>82.37245684183696</range>
			<gx:altitudeMode>relativeToSeaFloor</gx:altitudeMode>
		</LookAt>
		<styleUrl>#m_ylw-pushpin11</styleUrl>
		<Point>
			<gx:drawOrder>1</gx:drawOrder>
			<coordinates>13.08083736779033,43.07828861736736,0</coordinates>
		</Point>
	</Placemark>
	<Placemark>
		<name>(t)4</name>
		<description>Tappa 4 - Chiesa e convento di San Francesco;Stage 4 - Chiesa e convento di San Francesco</description>
		<LookAt>
			<longitude>13.07866030438683</longitude>
			<latitude>43.07630291488881</latitude>
			<altitude>0</altitude>
			<heading>4.766134013321984</heading>
			<tilt>23.12425259483141</tilt>
			<range>153.8806743520727</range>
			<gx:altitudeMode>relativeToSeaFloor</gx:altitudeMode>
		</LookAt>
		<styleUrl>#msn_grn-pushpin0</styleUrl>
		<Point>
			<gx:drawOrder>1</gx:drawOrder>
			<coordinates>13.07878055555556,43.0765,0</coordinates>
		</Point>
	</Placemark>
	<Placemark>
		<name>14</name>
		<description>Svolta a destra;Turn right</description>
		<LookAt>
			<longitude>13.07854482081407</longitude>
			<latitude>43.07610797278606</latitude>
			<altitude>0</altitude>
			<heading>-4.2675805809473</heading>
			<tilt>24.89777442544248</tilt>
			<range>82.37245689807501</range>
			<gx:altitudeMode>relativeToSeaFloor</gx:altitudeMode>
		</LookAt>
		<styleUrl>#m_ylw-pushpin11</styleUrl>
		<Point>
			<gx:drawOrder>1</gx:drawOrder>
			<coordinates>13.07869491427409,43.07640783033013,0</coordinates>
		</Point>
	</Placemark>
	<Placemark>
		<name>15</name>
		<description>Svolta a sinistra;Turn left</description>
		<LookAt>
			<longitude>13.07631959428829</longitude>
			<latitude>43.07572497849077</latitude>
			<altitude>0</altitude>
			<heading>-4.269100341106498</heading>
			<tilt>24.89777442544247</tilt>
			<range>82.37245689899441</range>
			<gx:altitudeMode>relativeToSeaFloor</gx:altitudeMode>
		</LookAt>
		<styleUrl>#m_ylw-pushpin11</styleUrl>
		<Point>
			<gx:drawOrder>1</gx:drawOrder>
			<coordinates>13.07608055366831,43.07596599268066,0</coordinates>
		</Point>
	</Placemark>
	<Placemark>
		<name>16</name>
		<description>Segui il sentiero a sinistra;Follow the path on the left</description>
		<LookAt>
			<longitude>13.07166127402586</longitude>
			<latitude>43.06974282742785</latitude>
			<altitude>0</altitude>
			<heading>-4.272281653709499</heading>
			<tilt>24.89777442544242</tilt>
			<range>82.3724568975678</range>
			<gx:altitudeMode>relativeToSeaFloor</gx:altitudeMode>
		</LookAt>
		<styleUrl>#m_ylw-pushpin11</styleUrl>
		<Point>
			<gx:drawOrder>1</gx:drawOrder>
			<coordinates>13.07140277777778,43.069575,0</coordinates>
		</Point>
	</Placemark>
	<Placemark>
		<name>17</name>
		<description>Svolta a sinistra e prendi Via Campi;Turn left and take Via Campi</description>
		<LookAt>
			<longitude>13.07346301666498</longitude>
			<latitude>43.06892848758266</latitude>
			<altitude>0</altitude>
			<heading>-4.271401074281364</heading>
			<tilt>21.44542266804799</tilt>
			<range>127.4634418937412</range>
			<gx:altitudeMode>relativeToSeaFloor</gx:altitudeMode>
		</LookAt>
		<styleUrl>#m_ylw-pushpin11</styleUrl>
		<Point>
			<gx:drawOrder>1</gx:drawOrder>
			<coordinates>13.07376204571966,43.06889881308156,0</coordinates>
		</Point>
	</Placemark>
	<Placemark>
		<name>18</name>
		<description>Continua dritto;continue straight</description>
		<LookAt>
			<longitude>13.0767217762816</longitude>
			<latitude>43.06991862826468</latitude>
			<altitude>0</altitude>
			<heading>-4.269175739704314</heading>
			<tilt>21.44542266804796</tilt>
			<range>127.4634418945685</range>
			<gx:altitudeMode>relativeToSeaFloor</gx:altitudeMode>
		</LookAt>
		<styleUrl>#m_ylw-pushpin11</styleUrl>
		<Point>
			<gx:drawOrder>1</gx:drawOrder>
			<coordinates>13.07640065634777,43.0700369217578,0</coordinates>
		</Point>
	</Placemark>
	<Placemark>
		<name>19</name>
		<description>Svolta a destra;Turn right</description>
		<LookAt>
			<longitude>13.07788234971273</longitude>
			<latitude>43.07005483077664</latitude>
			<altitude>0</altitude>
			<heading>-4.268383194078137</heading>
			<tilt>21.44542266804794</tilt>
			<range>127.4634418914698</range>
			<gx:altitudeMode>relativeToSeaFloor</gx:altitudeMode>
		</LookAt>
		<styleUrl>#m_ylw-pushpin11</styleUrl>
		<Point>
			<gx:drawOrder>1</gx:drawOrder>
			<coordinates>13.07758333333333,43.070525,0</coordinates>
		</Point>
	</Placemark>
	<Placemark>
		<name>20</name>
		<description>Tieni la sinistra;Keep left</description>
		<LookAt>
			<longitude>13.07890404733836</longitude>
			<latitude>43.06869817798441</latitude>
			<altitude>0</altitude>
			<heading>-4.267685488691003</heading>
			<tilt>21.44542266804794</tilt>
			<range>127.4634418884169</range>
			<gx:altitudeMode>relativeToSeaFloor</gx:altitudeMode>
		</LookAt>
		<styleUrl>#m_ylw-pushpin11</styleUrl>
		<Point>
			<gx:drawOrder>1</gx:drawOrder>
			<coordinates>13.07862222222222,43.06844444444445,0</coordinates>
		</Point>
	</Placemark>
	<Placemark>
		<name>21</name>
		<description>Svolta a sinistra e riprendi Via Campi;Turn left and take Via Campi again</description>
		<LookAt>
			<longitude>13.07922134628827</longitude>
			<latitude>43.06853814208969</latitude>
			<altitude>0</altitude>
			<heading>-4.267468813754771</heading>
			<tilt>21.44542266804796</tilt>
			<range>127.4634418919493</range>
			<gx:altitudeMode>relativeToSeaFloor</gx:altitudeMode>
		</LookAt>
		<styleUrl>#m_ylw-pushpin11</styleUrl>
		<Point>
			<gx:drawOrder>1</gx:drawOrder>
			<coordinates>13.07893055555556,43.06831944444445,0</coordinates>
		</Point>
	</Placemark>
	<Placemark>
		<name>(t)5</name>
		<description>Tappa 5 - Palazzo Fani;Stage 5 - Palazzo Fani</description>
		<LookAt>
			<longitude>13.08216852350462</longitude>
			<latitude>43.06737198782724</latitude>
			<altitude>0</altitude>
			<heading>4.768197799956853</heading>
			<tilt>22.74706205740238</tilt>
			<range>288.3653292339723</range>
			<gx:altitudeMode>relativeToSeaFloor</gx:altitudeMode>
		</LookAt>
		<styleUrl>#msn_grn-pushpin0</styleUrl>
		<Point>
			<gx:drawOrder>1</gx:drawOrder>
			<coordinates>13.08132354392348,43.06780604927116,0</coordinates>
		</Point>
	</Placemark>
	<Placemark>
		<name>22</name>
		<description>Svolta a destra e prendi SP99;Turn right and take SP99</description>
		<LookAt>
			<longitude>13.08195928824896</longitude>
			<latitude>43.06741926579339</latitude>
			<altitude>0</altitude>
			<heading>-4.265599163883184</heading>
			<tilt>21.44542266804794</tilt>
			<range>127.4634418920047</range>
			<gx:altitudeMode>relativeToSeaFloor</gx:altitudeMode>
		</LookAt>
		<styleUrl>#m_ylw-pushpin11</styleUrl>
		<Point>
			<gx:drawOrder>1</gx:drawOrder>
			<coordinates>13.08201666666667,43.06729166666667,0</coordinates>
		</Point>
	</Placemark>
	<Placemark>
		<name>23</name>
		<description>Svolta a destra su Via Fornace;Turn right onto Via Fornace</description>
		<LookAt>
			<longitude>13.08410130088155</longitude>
			<latitude>43.05976102984734</latitude>
			<altitude>0</altitude>
			<heading>-4.264136603612541</heading>
			<tilt>21.445422668048</tilt>
			<range>127.4634418906532</range>
			<gx:altitudeMode>relativeToSeaFloor</gx:altitudeMode>
		</LookAt>
		<styleUrl>#m_ylw-pushpin11</styleUrl>
		<Point>
			<gx:drawOrder>1</gx:drawOrder>
			<coordinates>13.08422690930045,43.06004105537793,0</coordinates>
		</Point>
	</Placemark>
	<Placemark>
		<name>24</name>
		<description>Svolta a sinistra;Turn left</description>
		<LookAt>
			<longitude>13.08366168959362</longitude>
			<latitude>43.05849882677747</latitude>
			<altitude>0</altitude>
			<heading>-4.264504225301465</heading>
			<tilt>20.8800652900265</tilt>
			<range>115.6804286657217</range>
			<gx:altitudeMode>relativeToSeaFloor</gx:altitudeMode>
		</LookAt>
		<styleUrl>#m_ylw-pushpin11</styleUrl>
		<Point>
			<gx:drawOrder>1</gx:drawOrder>
			<coordinates>13.08365555555556,43.05864166666667,0</coordinates>
		</Point>
	</Placemark>
	<Placemark>
		<name>25</name>
		<description>Svolta a sinistra e prendi SP99;Turn left and take SP99</description>
		<LookAt>
			<longitude>13.08597986330489</longitude>
			<latitude>43.05802408084856</latitude>
			<altitude>0</altitude>
			<heading>-4.262921538072533</heading>
			<tilt>20.88018455700346</tilt>
			<range>152.9398023920135</range>
			<gx:altitudeMode>relativeToSeaFloor</gx:altitudeMode>
		</LookAt>
		<styleUrl>#m_ylw-pushpin11</styleUrl>
		<Point>
			<gx:drawOrder>1</gx:drawOrder>
			<coordinates>13.08675277777778,43.05756944444444,0</coordinates>
		</Point>
	</Placemark>
	<Placemark>
		<name>26</name>
		<description>Svolta a destra;Turn right</description>
		<LookAt>
			<longitude>13.08505899184186</longitude>
			<latitude>43.05917839073518</latitude>
			<altitude>0</altitude>
			<heading>-4.263360076788876</heading>
			<tilt>22.58160337316292</tilt>
			<range>84.7854375126294</range>
			<gx:altitudeMode>relativeToSeaFloor</gx:altitudeMode>
		</LookAt>
		<styleUrl>#m_ylw-pushpin11</styleUrl>
		<Point>
			<gx:drawOrder>1</gx:drawOrder>
			<coordinates>13.08482996861402,43.05905745460473,0</coordinates>
		</Point>
	</Placemark>
	<Placemark>
		<name>27</name>
		<description>Gira a destra;Turn right</description>
		<LookAt>
			<longitude>13.0853137194381</longitude>
			<latitude>43.05916819267362</latitude>
			<altitude>0</altitude>
			<heading>-4.263186161055705</heading>
			<tilt>22.58160337316294</tilt>
			<range>84.78543751234503</range>
			<gx:altitudeMode>relativeToSeaFloor</gx:altitudeMode>
		</LookAt>
		<styleUrl>#m_ylw-pushpin11</styleUrl>
		<Point>
			<gx:drawOrder>1</gx:drawOrder>
			<coordinates>13.08528806161647,43.0593034856938,0</coordinates>
		</Point>
	</Placemark>
	<Placemark>
		<name>28</name>
		<description>Svolta a sinistra;Turn left</description>
		<LookAt>
			<longitude>13.08604939185049</longitude>
			<latitude>43.05901584801401</latitude>
			<altitude>0</altitude>
			<heading>23.66931946290265</heading>
			<tilt>41.66866322019862</tilt>
			<range>177.3326559809256</range>
			<gx:altitudeMode>relativeToSeaFloor</gx:altitudeMode>
		</LookAt>
		<styleUrl>#msn_red-pushpin0</styleUrl>
		<Point>
			<gx:drawOrder>1</gx:drawOrder>
			<coordinates>13.08552474129371,43.05899938881955,0</coordinates>
		</Point>
	</Placemark>
	<Placemark>
		<name>(t)6</name>
		<description>Tappa 6 - Gualchiera Tintoria Cianni;Stage 6 - Gualchiera Tintoria Cianni</description>
		<LookAt>
			<longitude>13.08604939185049</longitude>
			<latitude>43.05901584801401</latitude>
			<altitude>0</altitude>
			<heading>23.66931946290265</heading>
			<tilt>41.66866322019862</tilt>
			<range>177.3326559809256</range>
			<gx:altitudeMode>relativeToSeaFloor</gx:altitudeMode>
		</LookAt>
		<styleUrl>#msn_grn-pushpin</styleUrl>
		<Point>
			<gx:drawOrder>1</gx:drawOrder>
			<coordinates>13.08558810582477,43.05897461101518,0</coordinates>
		</Point>
	</Placemark>
	<Placemark>
		<name>29</name>
		<open>1</open>
		<description>Svolta a sinistra;Turn left</description>
		<LookAt>
			<longitude>13.08540112401749</longitude>
			<latitude>43.05913573977217</latitude>
			<altitude>0</altitude>
			<heading>-4.263126485105429</heading>
			<tilt>22.58160337316292</tilt>
			<range>84.78543751196439</range>
			<gx:altitudeMode>relativeToSeaFloor</gx:altitudeMode>
		</LookAt>
		<styleUrl>#m_ylw-pushpin11</styleUrl>
		<Point>
			<gx:drawOrder>1</gx:drawOrder>
			<coordinates>13.08569225375477,43.05900938621131,0</coordinates>
		</Point>
	</Placemark>
</Document>
</kml>
