<?xml version="1.0" encoding="UTF-8"?>
<kml xmlns="http://www.opengis.net/kml/2.2" xmlns:gx="http://www.google.com/kml/ext/2.2" xmlns:kml="http://www.opengis.net/kml/2.2" xmlns:atom="http://www.w3.org/2005/Atom">
<Document>
	<name>Camerino_IOT_indicazioni.kml</name>
	<StyleMap id="__managed_style_008B894BC237D4D5CD030">
		<Pair>
			<key>normal</key>
			<styleUrl>#failed101</styleUrl>
		</Pair>
		<Pair>
			<key>highlight</key>
			<styleUrl>#failed001</styleUrl>
		</Pair>
	</StyleMap>
	<Style id="failed001">
		<LineStyle>
			<color>ff0affff</color>
			<width>2</width>
		</LineStyle>
	</Style>
	<Style id="failed101">
		<LineStyle>
			<color>ff0affff</color>
			<width>2</width>
		</LineStyle>
	</Style>
	<StyleMap id="m_ylw-pushpin">
		<Pair>
			<key>normal</key>
			<styleUrl>#s_ylw-pushpin</styleUrl>
		</Pair>
		<Pair>
			<key>highlight</key>
			<styleUrl>#s_ylw-pushpin_hl</styleUrl>
		</Pair>
	</StyleMap>
	<Style id="s_ylw-pushpin">
		<IconStyle>
			<scale>1.1</scale>
			<Icon>
				<href>http://maps.google.com/mapfiles/kml/pushpin/red-pushpin.png</href>
			</Icon>
			<hotSpot x="20" y="2" xunits="pixels" yunits="pixels"/>
		</IconStyle>
		<ListStyle>
		</ListStyle>
	</Style>
	<Style id="s_ylw-pushpin_hl">
		<IconStyle>
			<scale>1.3</scale>
			<Icon>
				<href>http://maps.google.com/mapfiles/kml/pushpin/red-pushpin.png</href>
			</Icon>
			<hotSpot x="20" y="2" xunits="pixels" yunits="pixels"/>
		</IconStyle>
		<ListStyle>
		</ListStyle>
	</Style>
	<Folder>
		<name>IOT</name>
		<open>1</open>
		<Placemark id="54AF143283000002">
			<name>IOT</name>
			<styleUrl>#__managed_style_008B894BC237D4D5CD030</styleUrl>
			<LineString>
				<coordinates>
					13.03258629552433,43.14015226291436,417.5943214328927 13.03203165439391,43.14031080041825,417.5943214328927 13.0315040289219,43.1404032065503,417.5943214328927 13.03060949581691,43.14050052606939,417.5939897991202 13.02950792870112,43.14067079898226,418.6399999999999 13.0290682511939,43.14063312396527,418.95 13.02775,43.14021,419.98 13.02725,43.14001,420.72 13.02680424817044,43.14000726008863,421.4499999999999 13.02641,43.13989,421.84 13.0255,43.13946,423.26 13.02531,43.13941,423.5099999999999 13.02507,43.13943,423.83 13.02429,43.13958,424.8899999999999 13.02389259783073,43.13977121255532,425.0699999999999 13.0236687497837,43.13987464681541,426.0899999999999 13.02261589431007,43.13999099082489,433.5699999999999 13.0222,43.14005,436.6399999999999 13.02185,43.14017,439.28 13.02159044236833,43.14022782449653,441.1899999999998 13.02099388262936,43.14032937186106,445.54 13.02030710606081,43.1403882791469,451.14 13.01847,43.14032,470.37 13.01811,43.14039,474.9499999999999 13.01745,43.1404,483.32 13.0171,43.14044,487.7699999999999 13.01689,43.14062,491.8299999999999 13.01667,43.14088,496.76 13.01656657263017,43.14098134473807,496.6999999999999 13.01643115710596,43.1409414484494,497.49 13.01631941413372,43.14093343249866,498.33 13.01611179865625,43.14102899944546,499.3000000000001 13.01564505184217,43.14132033432363,496.9999999999999 13.01524451009668,43.14149469904733,495.4 13.01504692909013,43.14153423455406,494.6999999999999 13.01469484950504,43.14154760263401,493.7 13.01426076544916,43.14149672216651,494.79 13.01384789164044,43.14140690543934,496.21 13.01354258832371,43.14138977321912,497.11 13.01342206940722,43.14141794292784,497.2099999999999 13.01312001645258,43.14146914494721,498.06 13.01298245274445,43.14144814198428,499.6199999999999 13.01147675666945,43.14097769055368,519.36 13.01126741590515,43.14087578011033,519.22 13.01088129320046,43.14061491129429,518.84 13.01085,43.1407,523.2 13.01137,43.1416,537.17 13.01147,43.14188,540.38 13.01136,43.14205,546.65 13.01118,43.14208,551.97 13.01114,43.14229,555.9400000000001 13.01112,43.14263,559.99 13.01101,43.14289,564.9 13.01067,43.14297,569.72 13.01051,43.14306,572.59 13.01025,43.1435,573.98 13.00912,43.14377,591.8 13.00812,43.14408,614.16 13.00811,43.1441,615.765 13.00804,43.14421,617.37 13.00782057420105,43.14454254200631,620.58 13.00771,43.14473,622.66 13.00723791284814,43.14425727243354,627.35 13.00679531480003,43.14387009500736,631.27 13.0068,43.1438,630.38 13.00697,43.14339,625.49 13.00705,43.14334,624.63 13.00712,43.14326,623.78 13.00718,43.1433,623.54 13.00738,43.14336,622.97 13.0074,43.14339,622.84 13.0074,43.14342,622.7 13.00737,43.14346,622.7 13.00749034913298,43.14375381183743,622.7050170898438 13.0074145171353,43.14394122565668,629.3095092773438 13.00745704261104,43.14398566462059,629.3095092773438 13.00753739871015,43.14401670934888,629.3095092773438 13.00806724110477,43.14406591525948,617.37451171875 13.00811768260301,43.14406254815992,614.16 13.00910096250899,43.14376207576703,591.8 13.01023372924162,43.14348146744786,573.98 13.01049067170956,43.14304105939447,572.59 13.01067395580095,43.14294394169797,569.72 13.01099645892929,43.14286794507525,564.9 13.01109734850165,43.14262464649914,559.99 13.0111188933125,43.14232058103234,555.9400000000001 13.01115195877941,43.14206778809879,551.97 13.01134940804508,43.14203933463422,546.65 13.01144915533401,43.14187341107768,540.38 13.01134248111086,43.14160186108467,537.17 13.01083453649847,43.14069973972056,523.2 13.01085247561244,43.14057021862847,518.84 13.0106,43.14031,520.39 13.01044,43.14022,521.09 13.00969804878837,43.13984902218851,524.09 13.00919,43.13957,529.74 13.0083,43.1391,546.14 13.00815,43.13905,548.53 13.00783,43.13904,553.36 13.00746018213442,43.13908271641715,558.97 13.00724,43.13912,560.1 13.00701,43.13919,562.17 13.00674,43.13921,564.51 13.00568,43.13896,573.8200000000001 13.00493,43.13872,580.85 13.00479,43.13863,583.12 13.0047,43.13851,585.3200000000001 13.00453,43.13839,588.0700000000001 13.00434,43.13827,591.01 13.00398,43.13816,595.54 13.00389,43.13814,596.16 13.00388,43.13814,602.41 13.00336,43.13791,608.65 13.00313,43.13778,614.58 13.00277,43.13754,627.96 13.00264,43.1375,632.92 13.00239,43.13752,641.59 13.00226,43.13756,643.96 13.00216,43.13753,647.22 13.0021,43.13751,650.47 13.00204825396511,43.13738722663581,651.04 13.00219807406602,43.13715111103046,651.04 13.00236,43.13699,653.79 13.00242972600758,43.13651830116305,656.39 13.00244,43.1357,658.52 13.00246,43.13562,656.51 13.0024986904789,43.13556579341899,654.88 13.00250856352464,43.13555151102375,654.88 13.00243787411803,43.13531337274699,658.61 13.00229778910784,43.13490669955225,664.67 13.00225261825075,43.13468203650521,667.63 13.00226691142371,43.13442657880392,666.42 13.00234,43.13429,665.52 13.00245,43.1341,664.54 13.00244,43.13393,665.72 13.00231480872148,43.13363611290742,668.26 13.0023677699522,43.13347921582704,668.75 13.00243,43.13346,668.51 13.00246,43.13347,668.28 13.00258626887132,43.13354841810953,665.98 13.00276400564306,43.13375104410335,665.98 13.00293711584829,43.13387238679947,656.22 13.00303474314038,43.13400705055681,655.1900000000001 13.00312976783157,43.13456943496382,651.62 13.00328070152418,43.1349653824044,649.67 13.0034695733746,43.13512440022744,648.29 13.00369482411987,43.13522715531822,650.39 13.0037552605426,43.13530943963993,652.79 13.0039,43.13534,654.22 13.00393,43.13531,654.16 13.00404,43.13522,654.12 13.00418,43.13501,658.0700000000001 13.00424,43.1347,664.49 13.00438,43.1345,669.23 13.00469,43.13414,677.79 13.00526039135243,43.13397028934737,661.55 13.00534942540074,43.13396654701509,661.55 13.00544270128224,43.13400423433461,657.2999999999998 13.00550835492017,43.13412694479965,657.2999999999998 13.00556,43.1343,648.67 13.00539,43.13475,646.97 13.00539,43.13476,646.03 13.00539,43.13475,646.97 13.00545,43.13501,641.08 13.00563,43.13536,632.79 13.00619,43.13519,621.5 13.00663,43.13501,615.49 13.00667,43.13511,613.34 13.00722,43.13481,607.47 13.00731,43.13476,606.6900000000001 13.00748,43.13455,604.33 13.00762,43.13428,601.6 13.00748614409098,43.13351836975815,604.36 13.00749687240354,43.13335022933932,604.36 13.00753,43.13326,605.34 13.00762083020524,43.13307021225511,601.27 13.00809299522874,43.13260683328631,589.62 13.00836,43.13213,586.42 13.00835671803478,43.131986163685,591.12 13.00832213619892,43.13182623842346,591.12 13.00825328821411,43.13174243989807,596.39 13.00808127234204,43.13158052994427,601.33 13.00805564962254,43.13147724731017,601.33 13.00808,43.13138,605.91 13.00833,43.13121,611.58 13.00947806122826,43.13109804140044,603.17 13.00985,43.13091,599.51 13.01057213326796,43.13026819416456,589.04 13.01097173841274,43.12993265904473,575.96 13.01175322761511,43.12904192420488,575.96 13.01193940070801,43.12892158229707,575.96 13.01222262632812,43.12881381358502,576.66 13.01289250166505,43.12868009417304,576.66 13.01308,43.12862,571.28 13.01353906096828,43.12826469171737,567.3200000000001 13.01423070038704,43.12772982781239,560.75 13.01434482946223,43.12748440226446,560.75 13.01437273175371,43.12697446779127,560.75 13.01443,43.12686,559.11 13.01533,43.12584,556.61 13.01642164733397,43.12461176761234,559.8 13.01659816049801,43.12439231602529,563.01 13.01669524724965,43.12429074393924,562.52 13.01679547668642,43.12424274608924,562.15 13.01808,43.12431,551.61 13.0196,43.12446,540.24 13.01989591473482,43.12444819840123,538.7 13.02043,43.12434,534 13.02061,43.12433,532.7 13.02176,43.12447,524.03 13.02194554248992,43.12446899215021,522.66 13.02212,43.12442,521.75 13.02224,43.12434,520.29 13.02339441647504,43.12323009404791,503.72 13.02345450161447,43.12305997189986,503.72 13.02346,43.12292,500.3199999999998 13.02339964739966,43.12258490433101,496.4300000000001 13.02333828948141,43.12241450594434,496.4300000000001 13.02320821467806,43.12227344329143,493.0400000000001 13.02285942938394,43.12206861951455,496.06 13.02285569712867,43.1219329091077,496.7699999999999 13.02297858219911,43.12186273261807,495.86 13.02342227419156,43.12180044258575,491.54 13.02367646883287,43.12177122896928,491.54 13.02381,43.12177,487.5 13.02402925736146,43.12183204956128,485.2599999999999 13.02511108222452,43.12217640869666,485.2599999999999 13.02753,43.12288,461.43 13.02768,43.12293,461.0099999999999 13.02774,43.12295,460.7799999999999 13.02861,43.12327,462.35 13.02916696342935,43.12353616589537,463.5199999999999 13.02935823454651,43.12358459205355,463.86 13.02956513906873,43.12360903299449,464.2099999999999 13.02975158012224,43.12358945827827,464.48 13.02994052116481,43.12355285014541,464.3799999999999 13.03035,43.1234,464.3899999999999 13.03098475436446,43.12311181959051,464.4 13.03288399649137,43.1221579863974,464.4399999999999 13.03319724253014,43.12205000149385,464.4399999999999 13.03349938508851,43.12202821257357,464.4399999999999 13.03374293098632,43.12198137926507,466.99 13.03418115046269,43.12194567329513,468.5 13.0344743105679,43.12199923514637,469.49 13.0373219044942,43.1231484744464,479.18 13.03729225812296,43.12320962274457,478.16 13.03683731951218,43.1237345959247,478.83 13.03635336990121,43.12429152379028,479.81 13.03616807868122,43.12463117684366,480.4399999999999 13.03614204732371,43.12490931537442,480.4399999999999 13.03618,43.12514,481.2099999999999 13.03624,43.12544,481.67 13.03644,43.12593,482.4599999999999 13.03652,43.12664,479.2099999999999 13.03648,43.12685,478.17 13.03646119910154,43.12709877185994,477.12 13.03648,43.12796,479.4299999999999 13.03646,43.128,479.55 13.0363,43.12815,479.33 13.03596,43.12866,478.37 13.03583,43.12956,476.8399999999999 13.03583391341201,43.13002863631139,476.05 13.03566266149308,43.1301837762274,476.05 13.03540723996301,43.13025173753203,471.3099999999999 13.03466827776668,43.13034724641992,463.6299999999999 13.03395,43.13047,459.22 13.03341,43.13071,454.98 13.03311,43.13101,451.5599999999999 13.03314,43.13126,456.01 13.03335,43.13179,465.89 13.03336,43.13233,465.48 13.03333,43.13246,465.38 13.03329,43.13262,462.9599999999999 13.03309,43.13312,454.97 13.03314,43.13331,457.5599999999999 13.0333,43.1335,460.91 13.03368,43.13377,466.7699999999999 13.03379,43.13387,468.79 13.03388,43.13404,466.71 13.03377175016596,43.13480371346497,456.7599999999999 13.03378148325909,43.1349110104387,456.7599999999999 13.03383,43.13503,457.8999999999999 13.03408,43.13537,460.05 13.03462,43.1363,453.14 13.03527,43.13828,436.1299999999999 13.03504,43.13836,432.74 13.03446,43.13863,423.61 13.03430640764385,43.13872437602607,422.4478795221187 13.03355008345899,43.13919404363657,422.4478795221187 13.03321762779318,43.13939411668653,422.4478795221187 13.03288564825642,43.13960321331058,422.4478795221187 13.03265072872157,43.14007741746144,422.4478795221187 
				</coordinates>
			</LineString>
		</Placemark>
		<Placemark>
			<name>1</name>
			<description>Procedi in direzione nord-ovest;Proceed in a northwest direction</description>
			<LookAt>
				<longitude>13.03228596060802</longitude>
				<latitude>43.14021238162303</latitude>
				<altitude>0</altitude>
				<heading>0.005261011414221206</heading>
				<tilt>27.6263715012878</tilt>
				<range>93.54184398539356</range>
				<gx:altitudeMode>relativeToSeaFloor</gx:altitudeMode>
			</LookAt>
			<styleUrl>#m_ylw-pushpin</styleUrl>
			<Point>
				<gx:drawOrder>1</gx:drawOrder>
				<coordinates>13.03259602604111,43.14016480132579,0</coordinates>
			</Point>
		</Placemark>
		<Placemark>
			<name>2</name>
			<description>Svolta a sinistra;Turn left</description>
			<LookAt>
				<longitude>13.01578675557312</longitude>
				<latitude>43.14022878932908</latitude>
				<altitude>0</altitude>
				<heading>-0.006020988671609737</heading>
				<tilt>27.62737242630637</tilt>
				<range>333.7663885308113</range>
				<gx:altitudeMode>relativeToSeaFloor</gx:altitudeMode>
			</LookAt>
			<styleUrl>#m_ylw-pushpin</styleUrl>
			<Point>
				<gx:drawOrder>1</gx:drawOrder>
				<coordinates>13.01662777777778,43.14097222222222,0</coordinates>
			</Point>
		</Placemark>
		<Placemark>
			<name>3</name>
			<description>Gira a destra;Turn right</description>
			<LookAt>
				<longitude>13.01192597865978</longitude>
				<latitude>43.14109165772778</latitude>
				<altitude>0</altitude>
				<heading>-0.008660994569039992</heading>
				<tilt>27.62737242630637</tilt>
				<range>333.7663885292434</range>
				<gx:altitudeMode>relativeToSeaFloor</gx:altitudeMode>
			</LookAt>
			<styleUrl>#m_ylw-pushpin</styleUrl>
			<Point>
				<gx:drawOrder>1</gx:drawOrder>
				<coordinates>13.01094241852528,43.14061484202101,0</coordinates>
			</Point>
		</Placemark>
		<Placemark>
			<name>4</name>
			<description>Tieni la destra;Keep right</description>
			<LookAt>
				<longitude>13.00894133900365</longitude>
				<latitude>43.14421528657758</latitude>
				<altitude>0</altitude>
				<heading>-0.01049395408861719</heading>
				<tilt>28.34496176329166</tilt>
				<range>271.5167483840423</range>
				<gx:altitudeMode>relativeToSeaFloor</gx:altitudeMode>
			</LookAt>
			<styleUrl>#m_ylw-pushpin</styleUrl>
			<Point>
				<gx:drawOrder>1</gx:drawOrder>
				<coordinates>13.00817116689015,43.14409736785429,0</coordinates>
			</Point>
		</Placemark>
		<Placemark>
			<name>5</name>
			<description>Gira a sinistra;Turn left</description>
			<LookAt>
				<longitude>13.00894133900365</longitude>
				<latitude>43.14421528657758</latitude>
				<altitude>0</altitude>
				<heading>-0.01049395408861719</heading>
				<tilt>28.34496176329166</tilt>
				<range>271.5167483840423</range>
				<gx:altitudeMode>relativeToSeaFloor</gx:altitudeMode>
			</LookAt>
			<styleUrl>#m_ylw-pushpin</styleUrl>
			<Point>
				<gx:drawOrder>1</gx:drawOrder>
				<coordinates>13.00776246176053,43.14470819606348,0</coordinates>
			</Point>
		</Placemark>
		<Placemark>
			<name>6</name>
			<open>1</open>
			<description>Gira a sinistra;Turn left</description>
			<LookAt>
				<longitude>13.0072329067603</longitude>
				<latitude>43.14373029838627</latitude>
				<altitude>0</altitude>
				<heading>-0.01130749956885475</heading>
				<tilt>29.62741942836787</tilt>
				<range>133.2712803014604</range>
				<gx:altitudeMode>relativeToSeaFloor</gx:altitudeMode>
			</LookAt>
			<styleUrl>#m_ylw-pushpin</styleUrl>
			<Point>
				<gx:drawOrder>1</gx:drawOrder>
				<coordinates>13.00678326670379,43.14387645546899,0</coordinates>
			</Point>
		</Placemark>
		<Placemark>
			<name>7</name>
			<open>1</open>
			<description>Gira a sinistra;Turn left</description>
			<LookAt>
				<longitude>13.0072329067603</longitude>
				<latitude>43.14373029838627</latitude>
				<altitude>0</altitude>
				<heading>-0.01130749956885475</heading>
				<tilt>29.62741942836787</tilt>
				<range>133.2712803014604</range>
				<gx:altitudeMode>relativeToSeaFloor</gx:altitudeMode>
			</LookAt>
			<styleUrl>#m_ylw-pushpin</styleUrl>
			<Point>
				<gx:drawOrder>1</gx:drawOrder>
				<coordinates>13.0070977619128,43.14325817620515,0</coordinates>
			</Point>
		</Placemark>
		<Placemark>
			<name>8</name>
			<open>1</open>
			<description>Gira a destra;Turn right</description>
			<LookAt>
				<longitude>13.0072329067603</longitude>
				<latitude>43.14373029838627</latitude>
				<altitude>0</altitude>
				<heading>-0.01130749956885475</heading>
				<tilt>29.62741942836787</tilt>
				<range>133.2712803014604</range>
				<gx:altitudeMode>relativeToSeaFloor</gx:altitudeMode>
			</LookAt>
			<styleUrl>#m_ylw-pushpin</styleUrl>
			<Point>
				<gx:drawOrder>1</gx:drawOrder>
				<coordinates>13.00735824743064,43.14347465476462,0</coordinates>
			</Point>
		</Placemark>
		<Placemark>
			<name>9</name>
			<open>1</open>
			<description>Gira a destra;Turn right</description>
			<LookAt>
				<longitude>13.0072329067603</longitude>
				<latitude>43.14373029838627</latitude>
				<altitude>0</altitude>
				<heading>-0.01130749956885475</heading>
				<tilt>29.62741942836787</tilt>
				<range>133.2712803014604</range>
				<gx:altitudeMode>relativeToSeaFloor</gx:altitudeMode>
			</LookAt>
			<styleUrl>#m_ylw-pushpin</styleUrl>
			<Point>
				<gx:drawOrder>1</gx:drawOrder>
				<coordinates>13.00740344771232,43.14391198268338,0</coordinates>
			</Point>
		</Placemark>
		<Placemark>
			<name>10</name>
			<open>1</open>
			<description>Gira a destra;Turn right</description>
			<LookAt>
				<longitude>13.0072329067603</longitude>
				<latitude>43.14373029838627</latitude>
				<altitude>0</altitude>
				<heading>-0.01130749956885475</heading>
				<tilt>29.62741942836787</tilt>
				<range>133.2712803014604</range>
				<gx:altitudeMode>relativeToSeaFloor</gx:altitudeMode>
			</LookAt>
			<styleUrl>#m_ylw-pushpin</styleUrl>
			<Point>
				<gx:drawOrder>1</gx:drawOrder>
				<coordinates>13.00804996797231,43.14404639869979,0</coordinates>
			</Point>
		</Placemark>
		<Placemark>
			<name>11</name>
			<open>1</open>
			<description>Gira a destra;Turn right</description>
			<LookAt>
				<longitude>13.01028206173886</longitude>
				<latitude>43.14070165006149</latitude>
				<altitude>0</altitude>
				<heading>-0.00922208595370512</heading>
				<tilt>29.62802981407535</tilt>
				<range>270.6876596286381</range>
				<gx:altitudeMode>relativeToSeaFloor</gx:altitudeMode>
			</LookAt>
			<styleUrl>#m_ylw-pushpin</styleUrl>
			<Point>
				<gx:drawOrder>1</gx:drawOrder>
				<coordinates>13.01081217051588,43.14057077097166,0</coordinates>
			</Point>
		</Placemark>
		<Placemark>
			<name>12</name>
			<open>1</open>
			<description>Gira a sinistra e prendi la strada principale;Turn left and take the main road</description>
			<LookAt>
				<longitude>13.0067131012277</longitude>
				<latitude>43.14079927620458</latitude>
				<altitude>0</altitude>
				<heading>-0.01164789261915363</heading>
				<tilt>29.43146354692712</tilt>
				<range>1018.585649056899</range>
				<gx:altitudeMode>relativeToSeaFloor</gx:altitudeMode>
			</LookAt>
			<styleUrl>#m_ylw-pushpin</styleUrl>
			<Point>
				<gx:drawOrder>1</gx:drawOrder>
				<coordinates>13.00231175487738,43.13757166173527,0</coordinates>
			</Point>
		</Placemark>
		<Placemark>
			<name>13</name>
			<description>Gira a destra e prendi il sentiero;Turn right and take the path</description>
			<LookAt>
				<longitude>13.00229817483533</longitude>
				<latitude>43.1348628634852</latitude>
				<altitude>0</altitude>
				<heading>-0.01393368436720823</heading>
				<tilt>20.76474514983905</tilt>
				<range>526.5508863299207</range>
				<gx:altitudeMode>relativeToSeaFloor</gx:altitudeMode>
			</LookAt>
			<styleUrl>#m_ylw-pushpin</styleUrl>
			<Point>
				<gx:drawOrder>1</gx:drawOrder>
				<coordinates>13.00245609646492,43.13556445494415,0</coordinates>
			</Point>
		</Placemark>
		<Placemark>
			<name>14</name>
			<description>Ricongiungiti alla strada principale;Rejoin the main road</description>
			<LookAt>
				<longitude>13.00625001830038</longitude>
				<latitude>43.1354068172303</latitude>
				<altitude>0</altitude>
				<heading>176.2782885628187</heading>
				<tilt>45.00081659040244</tilt>
				<range>135.8580700243162</range>
				<gx:altitudeMode>relativeToSeaFloor</gx:altitudeMode>
			</LookAt>
			<styleUrl>#m_ylw-pushpin</styleUrl>
			<Point>
				<gx:drawOrder>1</gx:drawOrder>
				<coordinates>13.00667176247936,43.13505486948087,0</coordinates>
			</Point>
		</Placemark>
		<Placemark>
			<name>15</name>
			<description>Tieni la sinistra;Keep left</description>
			<LookAt>
				<longitude>13.01748162465444</longitude>
				<latitude>43.12405749761905</latitude>
				<altitude>0</altitude>
				<heading>-6.195882138816338</heading>
				<tilt>35.05908009633903</tilt>
				<range>258.5308709061196</range>
				<gx:altitudeMode>relativeToSeaFloor</gx:altitudeMode>
			</LookAt>
			<styleUrl>#m_ylw-pushpin</styleUrl>
			<Point>
				<gx:drawOrder>1</gx:drawOrder>
				<coordinates>13.01662548877979,43.12432318199166,0</coordinates>
			</Point>
		</Placemark>
		<Placemark>
			<name>16</name>
			<description>Continua dritto;Continue straight</description>
			<LookAt>
				<longitude>13.03015498902746</longitude>
				<latitude>43.12299733792221</latitude>
				<altitude>0</altitude>
				<heading>-6.1872188965527</heading>
				<tilt>35.05908009633901</tilt>
				<range>258.5308708994874</range>
				<gx:altitudeMode>relativeToSeaFloor</gx:altitudeMode>
			</LookAt>
			<styleUrl>#m_ylw-pushpin</styleUrl>
			<Point>
				<gx:drawOrder>1</gx:drawOrder>
				<coordinates>13.02955701273826,43.12364323925661,0</coordinates>
			</Point>
		</Placemark>
		<Placemark>
			<name>17</name>
			<description>All&apos;incrocio, gira a sinistra;At the crossroads, turn left</description>
			<LookAt>
				<longitude>13.036996449848</longitude>
				<latitude>43.12363854180528</latitude>
				<altitude>0</altitude>
				<heading>-6.182673469670831</heading>
				<tilt>30.09798278319094</tilt>
				<range>246.4441408840729</range>
				<gx:altitudeMode>relativeToSeaFloor</gx:altitudeMode>
			</LookAt>
			<styleUrl>#m_ylw-pushpin</styleUrl>
			<Point>
				<gx:drawOrder>1</gx:drawOrder>
				<coordinates>13.03728180956,43.12314299774575,0</coordinates>
			</Point>
		</Placemark>
		<Placemark>
			<name>18</name>
			<description>Tieni la sinistra;Keep left</description>
			<LookAt>
				<longitude>13.03637001691308</longitude>
				<latitude>43.12714214766716</latitude>
				<altitude>0</altitude>
				<heading>-6.183101706089374</heading>
				<tilt>30.09798278319094</tilt>
				<range>246.4441408817306</range>
				<gx:altitudeMode>relativeToSeaFloor</gx:altitudeMode>
			</LookAt>
			<styleUrl>#m_ylw-pushpin</styleUrl>
			<Point>
				<gx:drawOrder>1</gx:drawOrder>
				<coordinates>13.03651399680057,43.12793585105116,0</coordinates>
			</Point>
		</Placemark>
		<Placemark>
			<name>19</name>
			<open>1</open>
			<description>Tieni la sinistra;Keep left</description>
			<LookAt>
				<longitude>13.03595748038774</longitude>
				<latitude>43.1285636038499</latitude>
				<altitude>0</altitude>
				<heading>-6.183383718534092</heading>
				<tilt>30.09798278319094</tilt>
				<range>246.4441408765772</range>
				<gx:altitudeMode>relativeToSeaFloor</gx:altitudeMode>
			</LookAt>
			<styleUrl>#m_ylw-pushpin</styleUrl>
			<Point>
				<gx:drawOrder>1</gx:drawOrder>
				<coordinates>13.03569939940551,43.13022198787202,0</coordinates>
			</Point>
		</Placemark>
		<Placemark>
			<name>20</name>
			<description>Gira a sinistra;Turn left</description>
			<LookAt>
				<longitude>13.03426204329604</longitude>
				<latitude>43.13822248504662</latitude>
				<altitude>0</altitude>
				<heading>-6.184542854313998</heading>
				<tilt>30.09798278319097</tilt>
				<range>246.4441408763032</range>
				<gx:altitudeMode>relativeToSeaFloor</gx:altitudeMode>
			</LookAt>
			<styleUrl>#m_ylw-pushpin</styleUrl>
			<Point>
				<gx:drawOrder>1</gx:drawOrder>
				<coordinates>13.03529415039127,43.13822827289356,0</coordinates>
			</Point>
		</Placemark>
		<Placemark>
			<name>21</name>
			<description>Tieni la destra;Keep right</description>
			<LookAt>
				<longitude>13.03303941836043</longitude>
				<latitude>43.13978964846806</latitude>
				<altitude>0</altitude>
				<heading>-6.185397106235603</heading>
				<tilt>25.62896022370653</tilt>
				<range>183.7777632795899</range>
				<gx:altitudeMode>relativeToSeaFloor</gx:altitudeMode>
			</LookAt>
			<styleUrl>#m_ylw-pushpin</styleUrl>
			<Point>
				<gx:drawOrder>1</gx:drawOrder>
				<coordinates>13.03292949132895,43.13959748984367,0</coordinates>
			</Point>
		</Placemark>
		<atom:link rel="app" href="https://www.google.com/earth/about/versions/#earth-pro" title="Google Earth Pro 7.3.6.10441"></atom:link>
	</Folder>
</Document>
</kml>
