<?xml version="1.0" encoding="UTF-8"?>
<kml xmlns="http://www.opengis.net/kml/2.2" xmlns:gx="http://www.google.com/kml/ext/2.2" xmlns:kml="http://www.opengis.net/kml/2.2" xmlns:atom="http://www.w3.org/2005/Atom">
<Document>
	<name>Fiuminata_IOT_indicazioni.kml</name>
	<StyleMap id="__managed_style_06BDA219883894245394">
		<Pair>
			<key>normal</key>
			<styleUrl>#failed0001</styleUrl>
		</Pair>
		<Pair>
			<key>highlight</key>
			<styleUrl>#failed102</styleUrl>
		</Pair>
	</StyleMap>
	<Style id="failed0001">
		<LineStyle>
			<color>ff0affff</color>
			<width>2</width>
		</LineStyle>
	</Style>
	<Style id="failed102">
		<LineStyle>
			<color>ff0affff</color>
			<width>2</width>
		</LineStyle>
	</Style>
	<StyleMap id="m_ylw-pushpin">
		<Pair>
			<key>normal</key>
			<styleUrl>#s_ylw-pushpin</styleUrl>
		</Pair>
		<Pair>
			<key>highlight</key>
			<styleUrl>#s_ylw-pushpin_hl</styleUrl>
		</Pair>
	</StyleMap>
	<Style id="s_ylw-pushpin">
		<IconStyle>
			<scale>1.1</scale>
			<Icon>
				<href>http://maps.google.com/mapfiles/kml/pushpin/red-pushpin.png</href>
			</Icon>
			<hotSpot x="20" y="2" xunits="pixels" yunits="pixels"/>
		</IconStyle>
		<ListStyle>
		</ListStyle>
	</Style>
	<Style id="s_ylw-pushpin_hl">
		<IconStyle>
			<scale>1.3</scale>
			<Icon>
				<href>http://maps.google.com/mapfiles/kml/pushpin/red-pushpin.png</href>
			</Icon>
			<hotSpot x="20" y="2" xunits="pixels" yunits="pixels"/>
		</IconStyle>
		<ListStyle>
		</ListStyle>
	</Style>
	<Folder>
		<name>IOT</name>
		<open>1</open>
		<Placemark id="55581391C6000001">
			<name>IOT</name>
			<styleUrl>#__managed_style_06BDA219883894245394</styleUrl>
			<LineString>
				<coordinates>
					12.93145484949573,43.18741561736938,677.27 12.93164,43.1873,452.1899999999999 12.93176,43.18726,451.7699999999999 12.93198,43.18724,451.2599999999999 12.93213,43.18721,451.1 12.93222,43.18715,451.07 12.93273201782942,43.1868979643391,450.8899999999999 12.93285,43.18675,450.92 12.93301,43.18627,450.76 12.93318390042718,43.18574468020724,449.3 12.93341,43.1852,449.28 12.93344,43.18504,449.68 12.93343431926069,43.18496707747932,449.86 12.93346284769353,43.18490645233405,449.86 12.93349267152149,43.1848367616909,450.26 12.93365608644297,43.1848385401202,450.41 12.93375731945932,43.18475703821458,450.97 12.93379,43.18462,450.97 12.9337823369764,43.18428548312842,450.9999999999999 12.93344239887013,43.18435928865092,450.9999999999999 12.93296375511152,43.18431024132318,450.0364990234374 12.93253179070112,43.18412309157156,450.0364990234374 12.93191121206105,43.18372985112614,472.4179992675781 12.93155887564918,43.18361426250689,472.4179992675781 12.93115053350596,43.18353884857564,466.0849914550781 12.93008481597263,43.18374293095667,451.6105041503906 12.92898680396769,43.18375862957285,451.6105041503906 12.92771655478671,43.18369583508323,451.6105041503906 12.92584347548495,43.18356239657746,451.6105041503906 12.92472589487157,43.18347807136576,453.5005035400391 12.92439063481785,43.1833380977648,453.5005035400391 12.92427376991405,43.18335604927827,453.7194976806639 12.9242942004217,43.183516052477,453.79 12.92393247979167,43.18367434394754,453.96 12.9234784950106,43.18374577273789,454.19 12.92305,43.18382,454.42 12.92262,43.18388,454.6399999999999 12.92133748440626,43.18428271698735,455.3399999999999 12.92067660276297,43.18447689994235,455.69 12.91994835836152,43.18466214067863,456.09 12.91959,43.18477,456.29 12.91919,43.18489,456.51 12.91843,43.18506,456.91 12.91796,43.18522,457.19 12.91743,43.18541,457.47 12.91725,43.18549,457.5799999999999 12.9169,43.18571,457.8099999999999 12.91649,43.18601,458.1 12.91608,43.18639,458.4299999999999 12.91572,43.18677,458.75 12.9154,43.18716,459.0599999999999 12.91519,43.1875,459.3199999999999 12.91503,43.1879,459.33 12.91497936610958,43.18803374340924,459.34 12.91465051946646,43.1879770551644,460.61 12.91450325508953,43.18796423653314,461.32 12.91440101375693,43.18797227121296,461.8699999999999 12.9142841389243,43.18800303006159,462.49 12.91405144127061,43.18810070193702,463.61 12.91393128027346,43.18812205546126,464.15 12.91381580825981,43.18812015727463,464.6800000000001 12.91358225902302,43.18807492069135,468.0799999999999 12.91309719941814,43.18796649204546,475.41 12.91302578643731,43.18797087067944,477.0699999999999 12.91290793606165,43.18802510057922,478.74 12.91279321545767,43.18812219482552,481.54 12.91274,43.18816,482.77 12.91266,43.18818,484.4399999999999 12.91253,43.1883,491.49 12.9123,43.18876,514.04 12.91229,43.18892,515.62 12.91226,43.18911,516.17 12.91218,43.1893,518.51 12.91207,43.18935,520.74 12.912,43.18933,523.41 12.91189,43.18927,529.13 12.91179039743429,43.18926643732714,536.91 12.91165,43.18939,540.21 12.91112,43.18975,553.2 12.91098,43.18995,552.08 12.91073,43.19049,539.27 12.91064,43.19074,532.92 12.91058,43.19106,523.16 12.91053,43.19119,519.91 12.9105,43.19124,518.98 12.9103988009794,43.19138503687595,519.6 12.91034,43.19145,518.05 12.9103488861214,43.19149692034117,516.48 12.91042,43.19149,513.61 12.91065,43.19135,509.0099999999999 12.91079,43.19123,506.5199999999999 12.91087,43.19122,504.62 12.9109,43.19127,502.91 12.91088,43.19132,502.86 12.91065,43.19156,500.6499999999999 12.91066,43.19158,500.46 12.91065660937118,43.19164184890236,500.26 12.91070891383586,43.19169492882687,500.02 12.91043,43.19185,501.23 12.91024,43.19203,502.1799999999999 12.90994785033911,43.19227125841802,503.4299999999999 12.90922639750824,43.19283911929588,504.06 12.90880587622254,43.1930734698798,502.3899999999999 12.908574581738,43.19317953023759,502.3899999999999 12.90829,43.19335,499.14 12.90813,43.19341,498.3999999999999 12.90777,43.19347,498.66 12.90754,43.19349,498.8399999999999 12.90710772876719,43.19351615527538,499.08 12.90666,43.19345,499.48 12.90631407300862,43.19342487608031,496.61 12.9057415913271,43.19345628024797,491.96 12.90505,43.19359,488.72 12.90385,43.19387,498.49 12.90359,43.19394,499.05 12.90285,43.19418,500.6399999999998 12.90276,43.19416,500.79 12.90199,43.19433,490.6299999999998 12.90172,43.1943,488.0699999999998 12.90156,43.19428,485.5 12.90146,43.19453,476.61 12.90141,43.19458,474.8999999999999 12.90128853187851,43.19465061872233,472.9599999999999 12.90074234934595,43.19441048890647,472.8199999999999 12.90054045424362,43.19432107268162,472.6899999999999 12.90047332556754,43.19427510937192,472.1 12.89981540387543,43.19386828696278,473.5199999999999 12.89923369911787,43.19359588573147,475.41 12.89840699149391,43.19320978955789,476.6399999999999 12.89835517575407,43.19325943039086,476.82 12.89888,43.19378,478.4999999999999 12.89906,43.19393,478.94 12.8997,43.1943,476.61 12.9001,43.19453,474.2799999999999 12.90034,43.19464,473.29 12.90078,43.19479,471.6000000000001 12.90096,43.19487,470.8999999999999 12.90105885543483,43.19491990070922,470.9400000000001 12.90096183387409,43.1950515068665,471.1899999999998 12.90092632858907,43.19509491213642,471.44 12.90084401794313,43.19519334291708,471.9499999999999 12.90072697268591,43.19530115016869,472.67 12.90054160068728,43.19546678212232,474.37 12.90040360337616,43.19559740078851,477.04 12.90012061760396,43.19582934438534,481.94 12.90004121873109,43.1959008509593,482.81 12.89998380163321,43.19591764029241,483.4399999999999 12.89989658223219,43.19586095007745,485.2599999999999 12.89985676774974,43.19585730974509,485.81 12.89921711756234,43.19610460224305,495.98 12.898708678355,43.19642004409869,498.9499999999999 12.89846959841928,43.1963044579957,509.18 12.89818778368613,43.1961991327433,516.96 12.89814889328107,43.19618815765561,524.73 12.89795254984388,43.19609717898582,533.34 12.89775001302874,43.1960654982588,545.16 12.89755458151911,43.19609499199778,556.58 12.89735947305588,43.19613580145126,565.83 12.89728803078792,43.1960853287217,565.83 12.89727974640154,43.19597935450699,573.13 12.89736850924642,43.19573646411275,577.47 12.89757,43.19555,572.96 12.89768427290913,43.19542545157991,568.4400000000001 12.89792360758545,43.19527225825872,557.25 12.89819544777769,43.19490989038045,557.25 12.89819838336512,43.1948644534275,557.25 12.89816727888107,43.19481754149517,537.23 12.89809855619147,43.19476312951295,537.91 12.89765240431395,43.19448068734395,539.63 12.89702552494404,43.19419811708306,548.49 12.89697082573344,43.1942056740176,548.49 12.8969568458862,43.19424745754889,552.66 12.8971403934269,43.1944260641301,557.2 12.89723026678973,43.19459505966192,562.29 12.89730383848991,43.19481962438255,562.29 12.8972670584355,43.19489000453032,567.91 12.89710047670773,43.19500179150387,581.41 12.89679578931398,43.19515548775215,596.99 12.89650558047218,43.19541199305311,614.42 12.89635631532294,43.1955719828706,631.86 12.89592065879946,43.19601164958831,640.29 12.89579926650003,43.19618505861079,643.22 12.89556973830814,43.19628359546168,649.99 12.8955226335039,43.19632720314448,649.99 12.89551793306082,43.19637622813705,649.99 12.89556165202088,43.19648880739776,649.99 12.89554799079263,43.19652884645767,646.87 12.89530367220627,43.19667304059277,654.87 12.89533350620849,43.19700105307472,648.12 12.8952569742058,43.19717009345943,655.28 12.89492862380463,43.1974550115949,666.02 12.89461536096878,43.19765414523197,673.54 12.89458082385641,43.19773284935165,675.4 12.89456182641913,43.19778144866888,677.27 12.89461394384374,43.19786938354837,677.27 12.8948389513663,43.197942371133,677.27 12.89512543788754,43.19800094320394,677.27 12.89538329062534,43.19799350720378,677.27 12.89558342539538,43.19794374555434,677.27 12.89583614234437,43.19783396635403,677.27 12.89593378509014,43.19781462671286,677.27 12.89599135126572,43.19779879236645,677.27 12.89602725247677,43.19781957656974,677.27 12.89602784404372,43.19783928161749,677.27 12.89563220892404,43.19814255101068,677.27 12.89520489014823,43.19845038197014,677.27 12.89518109008288,43.19845174581831,677.27 12.89518464398671,43.19842756106056,677.27 12.89560833005146,43.19812626331062,677.27 12.89598261801898,43.19783068764064,677.27 12.89591039354749,43.19783845204439,677.27 12.89583074105393,43.19785936961311,677.27 12.89558054220633,43.19796860070563,677.27 12.89537269352735,43.19802048104381,677.27 12.89511689233869,43.19802856902056,677.27 12.89481963055744,43.19796313338842,677.27 12.89459370839137,43.1978927061976,677.27 12.89452476877777,43.19778158072555,677.27 12.89459317031968,43.19764519351029,677.27 12.89488614383275,43.19745559575279,677.27 12.8952366509485,43.19714980312347,677.27 12.89530974382092,43.19699915222766,677.27 12.89527843355474,43.19666256935439,677.27 12.89550516446051,43.19651467414732,677.27 12.89552032291182,43.19647491172157,677.27 12.89547198558602,43.19638474401001,677.27 12.89548473578166,43.19630937765148,677.27 12.89555266246522,43.19626058856845,677.27 12.89577195917297,43.19616758378064,677.27 12.89588451593023,43.1959938278854,677.27 12.89632896064841,43.19554976102269,677.27 12.89676792730861,43.19513386018333,677.27 12.89707709289183,43.19498230788611,677.27 12.89723820984904,43.194874918348,677.27 12.89727289886668,43.19480953576578,677.27 12.89720449780347,43.19459857278186,677.27 12.8971149372421,43.19442955256982,677.27 12.89692241720699,43.19425527305513,677.27 12.89694361991344,43.19418306772354,677.27 12.89703151032003,43.19416822276713,677.27 12.89766833822992,43.19445731610354,677.27 12.8981862404359,43.19480334300111,677.27 12.89823737694974,43.1948721103368,677.27 12.8982229870376,43.19492425763147,677.27 12.89795903592843,43.19529313261337,677.27 12.89771159854834,43.19544609134377,677.27 12.89739721908702,43.19573889162578,677.27 12.89730411790736,43.19598145169821,677.27 12.89732352811014,43.19607323400356,677.27 12.89736604730369,43.19610332769031,677.27 12.89754764211857,43.19606233233349,677.27 12.89778417814921,43.19603294930008,677.27 12.89792814474126,43.196055447699,677.27 12.89801403934543,43.19608788296195,677.27 12.89809435319596,43.19611966791412,677.27 12.89816171815006,43.19615724582196,677.27 12.8985304391863,43.19630596617711,677.27 12.89867617047164,43.1963642039656,677.27 12.89901583271167,43.19615390456678,677.27 12.89918852219501,43.19606606183964,677.27 12.89982796987223,43.19581462713624,677.27 12.89988897012626,43.19581460462453,677.27 12.89997989237112,43.19588285730766,677.27 12.90001719496743,43.19587182682858,677.27 12.90009928713111,43.19579932021825,677.27 12.90037729277386,43.1955691100591,677.27 12.90050212613851,43.19544993966137,677.27 12.90070204490769,43.19528097398565,677.27 12.90080456978893,43.19518068519918,677.27 12.90089930671615,43.19507083794944,677.27 12.90100427562142,43.19493333249832,677.27 12.90108998733313,43.19492140086086,677.27 12.90146546320952,43.19506010532366,677.27 12.9017679598464,43.1951126778123,677.27 12.90230373528897,43.19510425010321,677.27 12.90291070251513,43.19505004473052,677.27 12.90364488520384,43.19499194101192,677.27 12.90414596407849,43.19490219161214,677.27 12.90435556323062,43.19483696791883,677.27 12.90443166913064,43.19474630037425,677.27 12.90444817736079,43.19462239413173,677.27 12.90441698317629,43.1944846643941,677.27 12.90441875557566,43.19440815467615,677.27 12.90510515956844,43.19433485976666,677.27 12.9054482028319,43.19432837065077,677.27 12.90565195674728,43.19436817340625,677.27 12.90589101635157,43.19445724922206,677.27 12.90635463222624,43.19472206586389,677.27 12.90716221317563,43.19518542573321,677.27 12.90806726230839,43.19579723201268,677.27 12.90825606905351,43.19589712444701,677.27 12.90852564778599,43.19595670273978,677.27 12.90854611205805,43.1960221161018,677.27 12.90855390882266,43.19608300141854,677.27 12.90921497707448,43.19682449873209,677.27 12.90943514094275,43.19719823532687,677.27 12.90948035990877,43.19722629538286,677.27 12.909715129292,43.19721022766597,677.27 12.90985416735179,43.1971901882382,677.27 12.90998235692956,43.19703822035913,677.27 12.91005060105601,43.19678208894098,677.27 12.91007695838497,43.1965147852178,677.27 12.91033175398249,43.19618593960271,677.27 12.91065960806661,43.19602312917149,677.27 12.91161917038651,43.19567094978076,677.27 12.91233133349518,43.19504029253039,677.27 12.91263589709985,43.19506403223276,677.27 12.91264178792456,43.19507821265755,677.27 12.91249887374125,43.19514633859133,677.27 12.91249966718848,43.19518500933088,677.27 12.91251753619937,43.19525528032442,677.27 12.91263099340051,43.19536207152568,677.27 12.91270293905354,43.19550759625591,677.27 12.91278241836977,43.19561520096668,677.27 12.91276799839494,43.19568049027357,677.27 12.91278912130869,43.19570521390593,677.27 12.91305045522904,43.195776965201,677.27 12.91333949180625,43.19575504851492,677.27 12.91368089186989,43.19575176477941,677.27 12.91404118403963,43.19572902487908,677.27 12.91422531181755,43.19568684918904,677.27 12.91458945627694,43.19556878889123,677.27 12.91469328301864,43.19554900754355,677.27 12.91478397858084,43.19557770536084,677.27 12.91481894099015,43.19562336236837,677.27 12.91483852373134,43.19567375004329,677.27 12.91496908571976,43.19556318271101,677.27 12.91526569046453,43.19539836758237,677.27 12.91549605803892,43.19498144841615,677.27 12.91539754238421,43.19472601871723,677.27 12.91552100037468,43.19449383976175,677.27 12.91566801645185,43.19382635350183,677.27 12.91599241558327,43.1934688140051,677.27 12.9164894005076,43.19336366498177,677.27 12.91690898428588,43.19319041812811,677.27 12.91723346189213,43.19269966720179,677.27 12.91727343808982,43.19248043041022,677.27 12.91729487704795,43.1924804176036,677.27 12.91747765023174,43.19259712542528,677.27 12.91832443979649,43.19282933364825,677.27 12.91880874369363,43.1929382133602,677.27 12.9186470081181,43.19265024390801,677.27 12.9184568249817,43.19237024247979,677.27 12.9183958527216,43.1919370341716,677.27 12.91850499634814,43.19154559026723,677.27 12.91863756952351,43.19128705101613,677.27 12.91879714907503,43.19106568488355,677.27 12.9188753177264,43.19093680278935,677.27 12.91885327683169,43.19063534789159,677.27 12.91886764983272,43.19004803131926,677.27 12.91880828406663,43.18964479683513,677.27 12.91897844234468,43.18926248895639,677.27 12.9194293121882,43.18902415820757,677.27 12.91978988563228,43.18872056601851,677.27 12.92007133111011,43.18837338293372,677.27 12.92029328542296,43.18795016947914,677.27 12.92084342899723,43.18748165094868,677.27 12.92189126333633,43.18684916013323,677.27 12.92272299096226,43.1864592776112,677.27 12.92322692453169,43.18637786703416,677.27 12.92326147718096,43.18637943035344,677.27 12.92335937218142,43.18639321245585,677.27 12.92419948092767,43.18648759843389,677.27 12.92482805148014,43.18664167375482,677.27 12.92557478778557,43.18690415218307,677.27 12.92660428100372,43.18722049181709,677.27 12.92732140255616,43.18753678127389,677.27 12.92786173217897,43.18773093272028,677.27 12.92819961752511,43.18800907772734,677.27 12.92869591424445,43.18822244865706,677.27 12.92929864994884,43.18842109673034,677.27 12.92940249136882,43.1885181928582,677.27 12.92952441329132,43.18879735665011,677.27 12.92965962378622,43.18896984068964,677.27 12.92993359766768,43.18917198806049,677.27 12.93023815297873,43.18917174726067,677.27 12.93023853529875,43.1890911124961,677.27 12.93025922932672,43.18894248794802,677.27 12.93031287933536,43.18883911714121,677.27 12.93048252372911,43.18862753747887,677.27 12.93068894875988,43.18837707944269,677.27 12.93088583804799,43.18810806167331,677.27 12.9309987312973,43.18799078240993,677.27 12.93109842588105,43.18785869189893,677.27 12.93127202788892,43.18765768623724,677.27 
				</coordinates>
			</LineString>
		</Placemark>
		<Placemark>
			<name>1</name>
			<description>Procedi in direzione Sud-est;Proceed in a south-east direction</description>
			<LookAt>
				<longitude>12.93115662707143</longitude>
				<latitude>43.18674119123752</latitude>
				<altitude>0</altitude>
				<heading>0.02106919808592787</heading>
				<tilt>26.1049416558814</tilt>
				<range>250.8744071225417</range>
				<gx:altitudeMode>relativeToSeaFloor</gx:altitudeMode>
			</LookAt>
			<styleUrl>#m_ylw-pushpin</styleUrl>
			<Point>
				<gx:drawOrder>1</gx:drawOrder>
				<coordinates>12.93150415441776,43.18743415643983,0</coordinates>
			</Point>
		</Placemark>
		<Placemark>
			<name>2</name>
			<description>Alla rotonda prendi la prima uscita;At the roundabout take the first exit</description>
			<LookAt>
				<longitude>12.93211644489775</longitude>
				<latitude>43.18712158038427</latitude>
				<altitude>0</altitude>
				<heading>0.02494493087113843</heading>
				<tilt>22.9709508133597</tilt>
				<range>144.293047828924</range>
				<gx:altitudeMode>relativeToSeaFloor</gx:altitudeMode>
			</LookAt>
			<styleUrl>#m_ylw-pushpin</styleUrl>
			<Point>
				<gx:drawOrder>1</gx:drawOrder>
				<coordinates>12.93196295883106,43.1872609134709,0</coordinates>
			</Point>
		</Placemark>
		<Placemark>
			<name>3</name>
			<description>Tieni la destra;Keep right</description>
			<LookAt>
				<longitude>12.93276547923896</longitude>
				<latitude>43.18677948737184</latitude>
				<altitude>0</altitude>
				<heading>0.02538912043852517</heading>
				<tilt>22.97095081335969</tilt>
				<range>144.2930478271655</range>
				<gx:altitudeMode>relativeToSeaFloor</gx:altitudeMode>
			</LookAt>
			<styleUrl>#m_ylw-pushpin</styleUrl>
			<Point>
				<gx:drawOrder>1</gx:drawOrder>
				<coordinates>12.93272437714895,43.18691265979705,0</coordinates>
			</Point>
		</Placemark>
		<Placemark>
			<name>4</name>
			<description>Allo Stop, prendi a sinistra e po subito a destra sul ponte;At the stop sign, turn left and immediately right onto the bridge</description>
			<LookAt>
				<longitude>12.93352259193764</longitude>
				<latitude>43.18478182517489</latitude>
				<altitude>0</altitude>
				<heading>0.02590728186943404</heading>
				<tilt>22.97095081335964</tilt>
				<range>144.2930478255134</range>
				<gx:altitudeMode>relativeToSeaFloor</gx:altitudeMode>
			</LookAt>
			<styleUrl>#m_ylw-pushpin</styleUrl>
			<Point>
				<gx:drawOrder>1</gx:drawOrder>
				<coordinates>12.93346560017259,43.18497342649884,0</coordinates>
			</Point>
		</Placemark>
		<Placemark>
			<name>5</name>
			<description>Sali sul ponte;Get on the bridge</description>
			<LookAt>
				<longitude>12.93352259193762</longitude>
				<latitude>43.18478182517488</latitude>
				<altitude>0</altitude>
				<heading>0.02590728186941338</heading>
				<tilt>22.97095081335969</tilt>
				<range>144.2930478248286</range>
				<gx:altitudeMode>relativeToSeaFloor</gx:altitudeMode>
			</LookAt>
			<styleUrl>#m_ylw-pushpin</styleUrl>
			<Point>
				<gx:drawOrder>1</gx:drawOrder>
				<coordinates>12.93376578279221,43.18478278059646,0</coordinates>
			</Point>
		</Placemark>
		<Placemark>
			<name>6</name>
			<description>Scendi dal ponte e gira tutto a sinistra sul sentiero sterrato;Get off the bridge and turn left onto the dirt path</description>
			<LookAt>
				<longitude>12.93353374629613</longitude>
				<latitude>43.18443784263616</latitude>
				<altitude>0</altitude>
				<heading>0.02691691038472507</heading>
				<tilt>22.13535920936104</tilt>
				<range>125.2042454373691</range>
				<gx:altitudeMode>relativeToSeaFloor</gx:altitudeMode>
			</LookAt>
			<styleUrl>#m_ylw-pushpin</styleUrl>
			<Point>
				<gx:drawOrder>1</gx:drawOrder>
				<coordinates>12.93379781815917,43.18429381554594,0</coordinates>
			</Point>
		</Placemark>
		<Placemark>
			<name>7</name>
			<description>Prosegui costeggiando il fiume;Continue along the river</description>
			<LookAt>
				<longitude>12.93251930873092</longitude>
				<latitude>43.18332686952139</latitude>
				<altitude>0</altitude>
				<heading>0.03013802431267605</heading>
				<tilt>19.34464368369213</tilt>
				<range>296.595571060702</range>
				<gx:altitudeMode>relativeToSeaFloor</gx:altitudeMode>
			</LookAt>
			<styleUrl>#m_ylw-pushpin</styleUrl>
			<Point>
				<gx:drawOrder>1</gx:drawOrder>
				<coordinates>12.93351528862165,43.18439836259462,0</coordinates>
			</Point>
		</Placemark>
		<Placemark>
			<name>8</name>
			<description>Attraversa la strada e continua lungo il percorso sterrato costeggiando il fiume;Cross the road and continue along the dirt path alongside the river</description>
			<LookAt>
				<longitude>12.92477223288807</longitude>
				<latitude>43.18341199468281</latitude>
				<altitude>0</altitude>
				<heading>0.02302792044025415</heading>
				<tilt>20.56010572874898</tilt>
				<range>306.7464879206212</range>
				<gx:altitudeMode>relativeToSeaFloor</gx:altitudeMode>
			</LookAt>
			<styleUrl>#m_ylw-pushpin</styleUrl>
			<Point>
				<gx:drawOrder>1</gx:drawOrder>
				<coordinates>12.92474380954008,43.18352665558083,0</coordinates>
			</Point>
		</Placemark>
		<Placemark>
			<name>9</name>
			<description>Gira a sinistra;Turn left</description>
			<LookAt>
				<longitude>12.9152844879682</longitude>
				<latitude>43.18704413499168</latitude>
				<altitude>0</altitude>
				<heading>0.01601703364912168</heading>
				<tilt>20.93529869200002</tilt>
				<range>266.5665504562686</range>
				<gx:altitudeMode>relativeToSeaFloor</gx:altitudeMode>
			</LookAt>
			<styleUrl>#m_ylw-pushpin</styleUrl>
			<Point>
				<gx:drawOrder>1</gx:drawOrder>
				<coordinates>12.91504446769758,43.18798796038629,0</coordinates>
			</Point>
		</Placemark>
		<Placemark>
			<name>10</name>
			<description>Tieni la destra;Keep right</description>
			<LookAt>
				<longitude>12.91340406880784</longitude>
				<latitude>43.18769066646067</latitude>
				<altitude>0</altitude>
				<heading>0.01473010999143043</heading>
				<tilt>20.93529869199997</tilt>
				<range>266.5665504552219</range>
				<gx:altitudeMode>relativeToSeaFloor</gx:altitudeMode>
			</LookAt>
			<styleUrl>#m_ylw-pushpin</styleUrl>
			<Point>
				<gx:drawOrder>1</gx:drawOrder>
				<coordinates>12.91311944444444,43.18801111111111,0</coordinates>
			</Point>
		</Placemark>
		<Placemark>
			<name>11</name>
			<description>Prendi il sentiero sulla sinistra;Take the path on the left</description>
			<LookAt>
				<longitude>12.9132767038177</longitude>
				<latitude>43.18761104796735</latitude>
				<altitude>0</altitude>
				<heading>0.01464294137029732</heading>
				<tilt>20.935298692</tilt>
				<range>266.5665504549749</range>
				<gx:altitudeMode>relativeToSeaFloor</gx:altitudeMode>
			</LookAt>
			<styleUrl>#m_ylw-pushpin</styleUrl>
			<Point>
				<gx:drawOrder>1</gx:drawOrder>
				<coordinates>12.91279470228607,43.18817050847917,0</coordinates>
			</Point>
		</Placemark>
		<Placemark>
			<name>12</name>
			<description>Gira a sinistra;Turn left</description>
			<LookAt>
				<longitude>12.910697379009</longitude>
				<latitude>43.1915384342806</latitude>
				<altitude>0</altitude>
				<heading>55.96528980306802</heading>
				<tilt>29.47933180673245</tilt>
				<range>95.74918081675533</range>
				<gx:altitudeMode>relativeToSeaFloor</gx:altitudeMode>
			</LookAt>
			<styleUrl>#m_ylw-pushpin</styleUrl>
			<Point>
				<gx:drawOrder>1</gx:drawOrder>
				<coordinates>12.91069722222222,43.19165555555555,0</coordinates>
			</Point>
		</Placemark>
		<Placemark>
			<name>13</name>
			<description>Gira a destra e gira a sinistra per immetterti nella strada principale;Turn right and turn left to enter the main road</description>
			<LookAt>
				<longitude>12.90124826053777</longitude>
				<latitude>43.19436700687167</latitude>
				<altitude>0</altitude>
				<heading>55.95886672409792</heading>
				<tilt>28.01217974391633</tilt>
				<range>278.3818030566579</range>
				<gx:altitudeMode>relativeToSeaFloor</gx:altitudeMode>
			</LookAt>
			<styleUrl>#m_ylw-pushpin</styleUrl>
			<Point>
				<gx:drawOrder>1</gx:drawOrder>
				<coordinates>12.90160433272405,43.1942599062011,0</coordinates>
			</Point>
		</Placemark>
		<Placemark>
			<name>14</name>
			<description>Gira a sinistra in direzione Sud-ovest;Turn left towards Southwest</description>
			<LookAt>
				<longitude>12.9012486766651</longitude>
				<latitude>43.19436722366642</latitude>
				<altitude>0</altitude>
				<heading>-1.36942670829848</heading>
				<tilt>28.01217974391622</tilt>
				<range>278.3818030556569</range>
				<gx:altitudeMode>relativeToSeaFloor</gx:altitudeMode>
			</LookAt>
			<styleUrl>#m_ylw-pushpin</styleUrl>
			<Point>
				<gx:drawOrder>1</gx:drawOrder>
				<coordinates>12.90133895707541,43.19466499995341,0</coordinates>
			</Point>
		</Placemark>
		<Placemark>
			<name>15</name>
			<description>Gira tutto a destra;Turn all the way to the right</description>
			<LookAt>
				<longitude>12.8988175555568</longitude>
				<latitude>43.1935931692008</latitude>
				<altitude>0</altitude>
				<heading>-1.371090739293984</heading>
				<tilt>28.01217974391622</tilt>
				<range>278.3818030515658</range>
				<gx:altitudeMode>relativeToSeaFloor</gx:altitudeMode>
			</LookAt>
			<styleUrl>#m_ylw-pushpin</styleUrl>
			<Point>
				<gx:drawOrder>1</gx:drawOrder>
				<coordinates>12.89843494214926,43.1932285997835,0</coordinates>
			</Point>
		</Placemark>
		<Placemark>
			<name>16</name>
			<description>Gira a sinistra;Turn left</description>
			<LookAt>
				<longitude>12.90074372426979</longitude>
				<latitude>43.19492704484061</latitude>
				<altitude>0</altitude>
				<heading>-1.369762463923779</heading>
				<tilt>24.39786508605808</tilt>
				<range>137.7071288658275</range>
				<gx:altitudeMode>relativeToSeaFloor</gx:altitudeMode>
			</LookAt>
			<styleUrl>#m_ylw-pushpin</styleUrl>
			<Point>
				<gx:drawOrder>1</gx:drawOrder>
				<coordinates>12.90104440394762,43.1949005880011,0</coordinates>
			</Point>
		</Placemark>
		<Placemark>
			<name>17</name>
			<description>Gira a sinistra e prendi il sentiero sterrato;Turn left and take the dirt path</description>
			<LookAt>
				<longitude>12.89898880770942</longitude>
				<latitude>43.19589237018548</latitude>
				<altitude>0</altitude>
				<heading>-1.370949147625053</heading>
				<tilt>28.18832802615202</tilt>
				<range>121.2695419227182</range>
				<gx:altitudeMode>relativeToSeaFloor</gx:altitudeMode>
			</LookAt>
			<styleUrl>#m_ylw-pushpin</styleUrl>
			<Point>
				<gx:drawOrder>1</gx:drawOrder>
				<coordinates>12.89874166666667,43.1964361111111,0</coordinates>
			</Point>
		</Placemark>
		<Placemark>
			<name>18</name>
			<description>Gira a sinistra per andare alla Rocca di Spindoli;Turn left to go to Rocca di Spindoli</description>
			<LookAt>
				<longitude>12.89553407734517</longitude>
				<latitude>43.19777709016578</latitude>
				<altitude>0</altitude>
				<heading>-1.373637180792781</heading>
				<tilt>12.91927033815426</tilt>
				<range>118.2393188808673</range>
				<gx:altitudeMode>relativeToSeaFloor</gx:altitudeMode>
			</LookAt>
			<styleUrl>#m_ylw-pushpin</styleUrl>
			<Point>
				<gx:drawOrder>1</gx:drawOrder>
				<coordinates>12.89601055046288,43.19779350578757,0</coordinates>
			</Point>
		</Placemark>
		<Placemark>
			<name>19</name>
			<description>Tornare in dietro per lo stesso sentiero;Go back along the same path</description>
			<LookAt>
				<longitude>12.89553407734517</longitude>
				<latitude>43.19777709016578</latitude>
				<altitude>0</altitude>
				<heading>-1.373637180792781</heading>
				<tilt>12.91927033815426</tilt>
				<range>118.2393188808673</range>
				<gx:altitudeMode>relativeToSeaFloor</gx:altitudeMode>
			</LookAt>
			<styleUrl>#m_ylw-pushpin</styleUrl>
			<Point>
				<gx:drawOrder>1</gx:drawOrder>
				<coordinates>12.8951601729585,43.19843233254032,0</coordinates>
			</Point>
		</Placemark>
		<Placemark>
			<name>20</name>
			<description>Gira a destra;Turn right</description>
			<LookAt>
				<longitude>12.8955359195557</longitude>
				<latitude>43.19777712235219</latitude>
				<altitude>0</altitude>
				<heading>-1.373635919770707</heading>
				<tilt>12.91927033815426</tilt>
				<range>118.2393188840816</range>
				<gx:altitudeMode>relativeToSeaFloor</gx:altitudeMode>
			</LookAt>
			<styleUrl>#m_ylw-pushpin</styleUrl>
			<Point>
				<gx:drawOrder>1</gx:drawOrder>
				<coordinates>12.89595555555555,43.19784722222222,0</coordinates>
			</Point>
		</Placemark>
		<Placemark>
			<name>21</name>
			<open>1</open>
			<description>Gira a destra e prendi nuovamente la strada asfaltata;Turn right and take the asphalt road again</description>
			<LookAt>
				<longitude>12.89773107722781</longitude>
				<latitude>43.19715691237179</latitude>
				<altitude>0</altitude>
				<heading>-1.372135228485931</heading>
				<tilt>12.9194561145418</tilt>
				<range>210.8628785421699</range>
				<gx:altitudeMode>relativeToSeaFloor</gx:altitudeMode>
			</LookAt>
			<styleUrl>#m_ylw-pushpin</styleUrl>
			<Point>
				<gx:drawOrder>1</gx:drawOrder>
				<coordinates>12.89867822842808,43.19633873545791,0</coordinates>
			</Point>
		</Placemark>
		<Placemark>
			<name>22</name>
			<description>Gira a sinistra;Turn left</description>
			<LookAt>
				<longitude>12.90106390208001</longitude>
				<latitude>43.19440955956124</latitude>
				<altitude>0</altitude>
				<heading>-1.369853909337851</heading>
				<tilt>12.91945611454174</tilt>
				<range>210.862878540432</range>
				<gx:altitudeMode>relativeToSeaFloor</gx:altitudeMode>
			</LookAt>
			<styleUrl>#m_ylw-pushpin</styleUrl>
			<Point>
				<gx:drawOrder>1</gx:drawOrder>
				<coordinates>12.90097388535344,43.19494113345226,0</coordinates>
			</Point>
		</Placemark>
		<Placemark>
			<name>23</name>
			<description>Gira a sinistra sulla strada principale;Turn left onto the main road</description>
			<LookAt>
				<longitude>12.90457058333381</longitude>
				<latitude>43.19459199191125</latitude>
				<altitude>0</altitude>
				<heading>-1.367455243940626</heading>
				<tilt>12.82216250088175</tilt>
				<range>148.750979457301</range>
				<gx:altitudeMode>relativeToSeaFloor</gx:altitudeMode>
			</LookAt>
			<styleUrl>#m_ylw-pushpin</styleUrl>
			<Point>
				<gx:drawOrder>1</gx:drawOrder>
				<coordinates>12.90440483539875,43.19449367636869,0</coordinates>
			</Point>
		</Placemark>
		<Placemark>
			<name>24</name>
			<description>Gira a sinistra;Turn left</description>
			<LookAt>
				<longitude>12.90858403299648</longitude>
				<latitude>43.1960217108195</latitude>
				<altitude>0</altitude>
				<heading>-1.36470811772453</heading>
				<tilt>12.82216250088164</tilt>
				<range>148.7509794591002</range>
				<gx:altitudeMode>relativeToSeaFloor</gx:altitudeMode>
			</LookAt>
			<styleUrl>#m_ylw-pushpin</styleUrl>
			<Point>
				<gx:drawOrder>1</gx:drawOrder>
				<coordinates>12.90850474990528,43.19594644808636,0</coordinates>
			</Point>
		</Placemark>
		<Placemark>
			<name>25</name>
			<description>Gira a destra;Turn right</description>
			<LookAt>
				<longitude>12.90939994090357</longitude>
				<latitude>43.19683566348228</latitude>
				<altitude>0</altitude>
				<heading>-1.36414112429754</heading>
				<tilt>12.82221272780224</tilt>
				<range>172.4495960213615</range>
				<gx:altitudeMode>relativeToSeaFloor</gx:altitudeMode>
			</LookAt>
			<styleUrl>#m_ylw-pushpin</styleUrl>
			<Point>
				<gx:drawOrder>1</gx:drawOrder>
				<coordinates>12.90945130280966,43.19721994124389,0</coordinates>
			</Point>
		</Placemark>
		<Placemark>
			<name>26</name>
			<open>1</open>
			<description>Gira a destra e prendi il sentiero;Turn right and take the path</description>
			<LookAt>
				<longitude>12.90988956662086</longitude>
				<latitude>43.19655944734996</latitude>
				<altitude>0</altitude>
				<heading>-1.363805967619598</heading>
				<tilt>12.82221272780213</tilt>
				<range>172.4495960208396</range>
				<gx:altitudeMode>relativeToSeaFloor</gx:altitudeMode>
			</LookAt>
			<styleUrl>#m_ylw-pushpin</styleUrl>
			<Point>
				<gx:drawOrder>1</gx:drawOrder>
				<coordinates>12.90984542090684,43.19720429606145,0</coordinates>
			</Point>
		</Placemark>
		<Placemark>
			<name>27</name>
			<description>Attravesra la strada e prosegui dritto lungo il percorso;Cross the road and continue straight along the path</description>
			<LookAt>
				<longitude>12.91312453128677</longitude>
				<latitude>43.19543174230925</latitude>
				<altitude>0</altitude>
				<heading>-1.361565386315515</heading>
				<tilt>20.32994173132801</tilt>
				<range>151.2273576494576</range>
				<gx:altitudeMode>relativeToSeaFloor</gx:altitudeMode>
			</LookAt>
			<styleUrl>#m_ylw-pushpin</styleUrl>
			<Point>
				<gx:drawOrder>1</gx:drawOrder>
				<coordinates>12.91282454552444,43.19559454966553,0</coordinates>
			</Point>
		</Placemark>
		<Placemark>
			<name>28</name>
			<description>Gira a destra;Turn right</description>
			<LookAt>
				<longitude>12.91492104563073</longitude>
				<latitude>43.19518822484572</latitude>
				<altitude>0</altitude>
				<heading>-1.360310366048222</heading>
				<tilt>20.78885946205771</tilt>
				<range>116.3964931950182</range>
				<gx:altitudeMode>relativeToSeaFloor</gx:altitudeMode>
			</LookAt>
			<styleUrl>#m_ylw-pushpin</styleUrl>
			<Point>
				<gx:drawOrder>1</gx:drawOrder>
				<coordinates>12.91481666666667,43.19567499999999,0</coordinates>
			</Point>
		</Placemark>
		<Placemark>
			<name>29</name>
			<description>Gira a sinistra;Turn left</description>
			<LookAt>
				<longitude>12.91749244829193</longitude>
				<latitude>43.19247000131094</latitude>
				<altitude>0</altitude>
				<heading>-1.35855030910983</heading>
				<tilt>20.78896495407162</tilt>
				<range>149.4830238771751</range>
				<gx:altitudeMode>relativeToSeaFloor</gx:altitudeMode>
			</LookAt>
			<styleUrl>#m_ylw-pushpin</styleUrl>
			<Point>
				<gx:drawOrder>1</gx:drawOrder>
				<coordinates>12.9172489582568,43.19248232080218,0</coordinates>
			</Point>
		</Placemark>
		<Placemark>
			<name>30</name>
			<description>Gira a destra;Turn right</description>
			<LookAt>
				<longitude>12.91851419706219</longitude>
				<latitude>43.19229238737456</latitude>
				<altitude>0</altitude>
				<heading>-1.357850942436852</heading>
				<tilt>20.78896495407164</tilt>
				<range>149.4830238754056</range>
				<gx:altitudeMode>relativeToSeaFloor</gx:altitudeMode>
			</LookAt>
			<styleUrl>#m_ylw-pushpin</styleUrl>
			<Point>
				<gx:drawOrder>1</gx:drawOrder>
				<coordinates>12.91876773160199,43.19294396601765,0</coordinates>
			</Point>
		</Placemark>
		<Placemark>
			<name>31</name>
			<description>Gira a destra;Turn right</description>
			<LookAt>
				<longitude>12.93003150260038</longitude>
				<latitude>43.18857645346721</latitude>
				<altitude>0</altitude>
				<heading>-1.349913302529228</heading>
				<tilt>21.85811107889894</tilt>
				<range>331.2259263497356</range>
				<gx:altitudeMode>relativeToSeaFloor</gx:altitudeMode>
			</LookAt>
			<styleUrl>#m_ylw-pushpin</styleUrl>
			<Point>
				<gx:drawOrder>1</gx:drawOrder>
				<coordinates>12.93017395799488,43.18923080447381,0</coordinates>
			</Point>
		</Placemark>
		<atom:link rel="app" href="https://www.google.com/earth/about/versions/#earth-pro" title="Google Earth Pro 7.3.6.10441"></atom:link>
	</Folder>
</Document>
</kml>
