<?xml version="1.0" encoding="UTF-8"?>
<kml xmlns="http://www.opengis.net/kml/2.2" xmlns:gx="http://www.google.com/kml/ext/2.2" xmlns:kml="http://www.opengis.net/kml/2.2" xmlns:atom="http://www.w3.org/2005/Atom">
<Document>
	<name>Senza titolo</name>
	<gx:CascadingStyle kml:id="__managed_style_13674E45DC31D916634A">
		<Style>
			<IconStyle>
				<scale>1.2</scale>
				<Icon>
					<href>https://earth.google.com/earth/rpc/cc/icon?color=1976d2&amp;id=2000&amp;scale=4</href>
				</Icon>
				<hotSpot x="64" y="128" xunits="pixels" yunits="insetPixels"/>
			</IconStyle>
			<LabelStyle>
			</LabelStyle>
			<LineStyle>
				<color>ff2dc0fb</color>
				<width>3</width>
			</LineStyle>
			<PolyStyle>
				<color>40ffffff</color>
			</PolyStyle>
			<BalloonStyle>
				<displayMode>hide</displayMode>
			</BalloonStyle>
		</Style>
	</gx:CascadingStyle>
	<gx:CascadingStyle kml:id="__managed_style_0A125E382931D916634A">
		<Style>
			<IconStyle>
				<Icon>
					<href>https://earth.google.com/earth/rpc/cc/icon?color=1976d2&amp;id=2000&amp;scale=4</href>
				</Icon>
				<hotSpot x="64" y="128" xunits="pixels" yunits="insetPixels"/>
			</IconStyle>
			<LabelStyle>
			</LabelStyle>
			<LineStyle>
				<color>ff2dc0fb</color>
				<width>2</width>
			</LineStyle>
			<PolyStyle>
				<color>40ffffff</color>
			</PolyStyle>
			<BalloonStyle>
				<displayMode>hide</displayMode>
			</BalloonStyle>
		</Style>
	</gx:CascadingStyle>
	<StyleMap id="__managed_style_08F364843C31D9166349">
		<Pair>
			<key>normal</key>
			<styleUrl>#__managed_style_0A125E382931D916634A</styleUrl>
		</Pair>
		<Pair>
			<key>highlight</key>
			<styleUrl>#__managed_style_13674E45DC31D916634A</styleUrl>
		</Pair>
	</StyleMap>
	<Placemark id="00417DCE2A31D9166347">
		<name>da_piazza_a_lucien</name>
		<LookAt>
			<longitude>13.00848639735696</longitude>
			<latitude>43.25585216549985</latitude>
			<altitude>364.4043548650564</altitude>
			<heading>205.3360814628936</heading>
			<tilt>0</tilt>
			<gx:fovy>35</gx:fovy>
			<range>312.3041984580778</range>
			<altitudeMode>absolute</altitudeMode>
		</LookAt>
		<styleUrl>#__managed_style_08F364843C31D9166349</styleUrl>
		<LineString>
			<coordinates>
				13.00883984854422,43.25663615617266,0 13.00870183655628,43.25640799496934,0 13.00864025020148,43.25597906184016,0 13.00843073060593,43.25523570857192,0 13.00821029415428,43.25449770400328,0 13.00835284478106,43.25441331516313,0 13.00851345383464,43.25428039077637,0 13.00860003814907,43.25416159712425,0 13.00891623469578,43.2539377399881,0 13.00892918528636,43.25384705778152,0 13.00903157178544,43.25346561217692,0 13.00904079324551,43.25334030335415,0 13.00886295637618,43.25325360446027,0 13.00862278195104,43.25318118667462,0 13.00822286942404,43.25307077624421,0 13.00845358236262,43.25258759878204,0 13.00863858936228,43.2522089111429,0 13.00879654473042,43.25188766806332,0 
			</coordinates>
		</LineString>
	</Placemark>
</Document>
</kml>
