<?xml version="1.0" encoding="UTF-8"?>
<kml xmlns="http://www.opengis.net/kml/2.2" xmlns:gx="http://www.google.com/kml/ext/2.2" xmlns:kml="http://www.opengis.net/kml/2.2" xmlns:atom="http://www.w3.org/2005/Atom">
<Document>
	<name>Cessapalombo_AR.kml</name>
	<StyleMap id="__managed_style_094B4B060E35A3D8C8B80">
		<Pair>
			<key>normal</key>
			<styleUrl>#failed000</styleUrl>
		</Pair>
		<Pair>
			<key>highlight</key>
			<styleUrl>#failed3</styleUrl>
		</Pair>
	</StyleMap>
	<Style id="failed000">
		<LineStyle>
			<color>ffff0000</color>
			<width>2</width>
		</LineStyle>
	</Style>
	<Style id="failed3">
		<LineStyle>
			<color>ffff0000</color>
			<width>2</width>
		</LineStyle>
	</Style>
	<StyleMap id="m_ylw-pushpin">
		<Pair>
			<key>normal</key>
			<styleUrl>#s_ylw-pushpin</styleUrl>
		</Pair>
		<Pair>
			<key>highlight</key>
			<styleUrl>#s_ylw-pushpin_hl</styleUrl>
		</Pair>
	</StyleMap>
	<Style id="s_ylw-pushpin">
		<IconStyle>
			<color>ff0701fc</color>
			<scale>1.1</scale>
			<Icon>
				<href>http://maps.google.com/mapfiles/kml/pushpin/ylw-pushpin.png</href>
			</Icon>
			<hotSpot x="20" y="2" xunits="pixels" yunits="pixels"/>
		</IconStyle>
	</Style>
	<Style id="s_ylw-pushpin_hl">
		<IconStyle>
			<color>ff0701fc</color>
			<scale>1.3</scale>
			<Icon>
				<href>http://maps.google.com/mapfiles/kml/pushpin/ylw-pushpin.png</href>
			</Icon>
			<hotSpot x="20" y="2" xunits="pixels" yunits="pixels"/>
		</IconStyle>
	</Style>
	<Folder>
		<name>AR</name>
		<open>1</open>
		<Placemark id="0A220739B835992CA29A">
			<name>AR Cessapalombo</name>
			<LookAt>
				<longitude>13.258127119188</longitude>
				<latitude>43.10870512063332</latitude>
				<altitude>441.0496818628689</altitude>
				<heading>0</heading>
				<tilt>0</tilt>
				<range>191.9491018130248</range>
				<altitudeMode>absolute</altitudeMode>
				<gx:fovy>30</gx:fovy>
			</LookAt>
			<styleUrl>#__managed_style_094B4B060E35A3D8C8B80</styleUrl>
			<LineString>
				<coordinates>
					13.25836814760838,43.1091571493791,0 13.25858503623041,43.10896681216538,0 13.25823478297617,43.10879083066305,0 13.25791060795798,43.10863648157697,0 13.2572699647664,43.10852727607271,0 13.25728261690138,43.10845729461782,0 13.25733424278409,43.10839301465968,0 13.25857589427523,43.10861369372623,0 13.25859265522784,43.1085706419702,0 13.25761274598865,43.10825157822507,0 13.25633764547857,43.10802418993696,0 13.25549413136049,43.10745865282562,0 13.25553177074372,43.10744249013327,0 13.2563711080323,43.10800872374212,0 13.25753150741614,43.10821790096797,0 13.25709440040309,43.10847827963647,0 13.25682317251123,43.10858941333652,0 13.25654649439155,43.10862951541298,0 13.25610147425855,43.10855353417141,0 13.2550404147363,43.10803800945643,0 13.25416659582647,43.10789371094793,0 13.25317971481776,43.10726594688567,0 13.2522998541723,43.10636730695867,0 13.2521097308902,43.10629671820104,0 13.25100673819444,43.10668850444046,0 13.25048023044766,43.10673636492223,0 13.24889103328747,43.10661110802865,0 13.24794999131131,43.10618015069726,0 13.24751315087063,43.10615378299492,0 13.24606389623403,43.1063314591066,0 13.2457330579773,43.10631279516067,0 13.24526737671976,43.10618246065471,0 13.24460758573748,43.10589567331557,0 13.24439394736027,43.10585629344934,0 13.24361102701103,43.10602899942008,0 13.24329486936443,43.10623143697587,0 13.24252080554141,43.10619115440628,0 13.24244742134374,43.10641031984538,0 13.24339052283102,43.10675615492239,0 13.24415296063447,43.10752251337405,0 13.24415634386954,43.10772209478128,0 13.24362196999823,43.10841429332758,0 13.24375998072596,43.10864138956079,0 13.24400952906037,43.10869132139428,0 13.24387891025796,43.1088181186223,0 13.24360611846495,43.10876895606497,0 13.24341655380909,43.1086376915385,0 13.24329989175264,43.10848454708351,0 13.24328028576834,43.10828269986201,0 13.24331491639553,43.10798767521529,0 13.24325464019364,43.10789477187305,0 13.24310677114585,43.10783664956885,0 13.24233501087059,43.10768166111352,0 13.24209683802334,43.10767550549354,0 13.2413921362859,43.10805346072279,0 13.24050966708331,43.10839453682676,0 13.2402287331831,43.10838110282975,0 13.24007039036067,43.10826435641859,0 13.2398603924277,43.1078798796616,0 13.23954162740053,43.10777175288409,0 13.23923543189254,43.10772184930222,0 13.23884612639248,43.10777403253992,0 13.23780197766113,43.10821959988049,0 13.23758176074976,43.1082339203233,0 13.23734967196113,43.10811667246061,0 13.23719581840514,43.10783091392775,0 13.23728078650911,43.10733280764987,0 13.23687845226313,43.10665579278405,0 13.23610817420446,43.10636912856208,0 13.23579574950245,43.10639926087756,0 13.23558388595518,43.10650088983262,0 13.23467341728017,43.10754804808907,0 13.23378693372952,43.1088480492184,0 13.23322403318305,43.10935174316775,0 13.23261921647245,43.10953797743245,0 13.23212809757456,43.10944747850859,0 13.23144648738589,43.10903034967716,0 13.23127262617077,43.10862147981718,0 13.23133255343256,43.10749913493516,0 13.23121528368641,43.1072833313032,0 13.23065068246309,43.10710659602515,0 13.23025085800365,43.10664172210478,0 13.22997336953143,43.1065152624033,0 13.22868233637263,43.1063284489889,0 13.22769090100543,43.10633777255206,0 13.22744375406322,43.10615387351402,0 13.22715827934577,43.10551113124793,0 13.22708323671139,43.10480968509091,0 13.22689611689506,43.10448319831541,0 13.22609155433147,43.1037094629282,0 13.22438687302094,43.10308576523129,0 13.22416487205665,43.10277828153476,0 13.22432430867644,43.10239263221388,0 13.22466676945421,43.10194131619375,0 13.22515129224058,43.10161688496154,0 13.22546014355781,43.10100188307741,0 13.22548097688207,43.10061327891968,0 13.22518642415726,43.10055176901628,0 13.22457898834099,43.10083890935768,0 13.22416300405238,43.10155616059228,0 13.22381036862336,43.1017623641288,0 13.22318746016505,43.10201890205021,0 13.22312636007464,43.10221004514604,0 13.22321543975153,43.10265681325269,0 13.22304491211093,43.10297811314674,0 13.22243371294753,43.10361373258384,0 13.22247303260711,43.10377935948872,0 13.22268147424053,43.10394350201684,0 13.22290419615862,43.10403808642612,0 13.2231746285989,43.10409065389896,0 13.22332781572051,43.10418676218242,0 13.22389348416519,43.10443435670117,0 13.22431576664781,43.10454683529649,0 13.22486086194697,43.10475908547262,0 13.22525498189792,43.10498229311891,0 13.22533152021039,43.1051367119809,0 13.22528352980003,43.10520761051548,0 13.22505344490649,43.1050998107076,0 13.22482004370832,43.10503984923817,0 13.22456213019651,43.10504685638735,0 13.2248109063862,43.1050220010954,0 13.22505050359701,43.10508129238929,0 13.22528526748343,43.10517529140608,0 13.22530264233208,43.10512744135846,0 13.22520334673078,43.10498887913821,0 13.22484524963285,43.10478197162917,0 13.22431795162597,43.10457481564446,0 13.22388263450266,43.10446413440906,0 13.22329555430109,43.10421342340033,0 13.22315453951348,43.10411493070274,0 13.22288952622157,43.10405572996297,0 13.22265705565615,43.10396497131782,0 13.22242375225761,43.10377911295077,0 13.22239318724475,43.10359959348661,0 13.22299140162043,43.10296312262054,0 13.22318270106681,43.10264938132575,0 13.22308773874902,43.10221748747517,0 13.22312770700469,43.10200131356664,0 13.22380900357209,43.10173078161909,0 13.22412585091407,43.1015309077668,0 13.22454496373804,43.1008162609014,0 13.22516712654419,43.10051426453887,0 13.22551848891791,43.10057361194264,0 13.22613891189978,43.09977111281559,0 13.22617645779138,43.09954725946032,0 13.2260790575755,43.09857335365187,0 13.22613115799522,43.09843827360299,0 13.22634985214261,43.09823062858661,0 13.22649327248351,43.09798788691578,0 13.22681462595423,43.09690347995975,0 13.22706469603259,43.09638435617808,0 13.22734337680291,43.09629582545812,0 13.22772460900208,43.09633369289542,0 13.22789247295032,43.0962112997323,0 13.22755782837637,43.09578753425863,0 13.2273300100886,43.09556280522229,0 13.22687453270255,43.09531920772635,0 13.22649016212508,43.09475863640859,0 13.2260297370979,43.09455007604151,0 13.22661092347446,43.09408410117581,0 13.22708875381202,43.09398048411246,0 13.22736108964958,43.09381483983855,0 13.22799483895744,43.09303877381753,0 13.22921886076591,43.09194737676998,0 13.22988664742322,43.09120084593157,0 13.23075864678869,43.0895611640308,0 13.23087834799718,43.08861390967397,0 13.23148219490255,43.08790150069353,0 13.23150438146256,43.08756607967033,0 13.23193619291356,43.08698992633561,0 13.23242074547983,43.08599867510432,0 13.23317565856018,43.08516287121982,0 13.2332095937256,43.08433760656113,0 13.23291897772481,43.08361160122794,0 13.23267267063876,43.08314683018375,0 13.23287702211501,43.08258476945562,0 13.23284735604095,43.08238617540706,0 13.2325445633296,43.08211200892102,0 13.23303015322438,43.08143634571434,0 13.2332614660188,43.08068293828326,0 13.23322619554294,43.08050040547524,0 13.23359640709377,43.08008378008463,0 13.23365652890129,43.07982103023715,0 13.23342995448889,43.07918823573755,0 13.23351073206546,43.07882440655469,0 13.23363505928924,43.07857767777275,0 13.2343168802091,43.07791329426276,0 13.23430424602976,43.07737229736345,0 13.2346547751812,43.07695879662101,0 13.23495929146431,43.07678836382352,0 13.2350534819479,43.07664233741173,0 13.23502812591147,43.07626484576782,0 13.23515725138449,43.07558285152968,0 13.23495714954073,43.07542807200286,0 13.23462040041937,43.07541771425002,0 13.23417750837305,43.07556417351728,0 13.2333934976643,43.07601927811565,0 13.23319376913348,43.07592302552836,0 13.23347764202289,43.07536564570437,0 13.23352018631562,43.07499331718224,0 13.23369268930162,43.07478021154522,0 13.23396116791676,43.07406741364817,0 13.23426336962766,43.07387254225122,0 13.2344692854047,43.07360857284306,0 13.23457767771575,43.073277846506,0 13.23476126785328,43.07313450812247,0 13.23512684787944,43.07309805578094,0 13.23565059951148,43.07308445429277,0 13.23627131398928,43.07300752679759,0 13.23672154879,43.07314241006774,0 13.23699237188133,43.07325889922463,0 13.23727457467073,43.07327563021757,0 13.23750453150798,43.07318608717483,0 13.23766394615818,43.07303067795495,0 13.23773817639412,43.07288915389945,0 13.23772395104686,43.07269672995147,0 13.237647249403,43.07265028444866,0 13.2372199130432,43.07268952303335,0 13.23719799867696,43.07260143638155,0 13.23734920991707,43.07255499093588,0 13.23746417178643,43.07245274785905,0 13.23752443703862,43.07236386052431,0 13.2376208610999,43.07226376211185,0 13.23768331748462,43.07222372268579,0 13.23774796518578,43.0721468469373,0 13.23771402675211,43.07205595676657,0 13.23728794068544,43.07206634361257,0 13.23665153335233,43.07203277829626,0 13.23633953254406,43.07198633537627,0 13.23623982189922,43.07196471396644,0 13.23617747496343,43.07192426123954,0 13.23623872657197,43.07185020135421,0 13.23651594361351,43.07178213463803,0 13.23852401206845,43.0711028173252,0 13.23865921118118,43.07106365612225,0 13.23871303584542,43.07105866958607,0 13.23874942418382,43.07101545385003,0 13.23865486766921,43.07100602583214,0 13.23810828183629,43.07104591867991,0 13.23673941480259,43.07101534569543,0 13.2361174959379,43.07095003616011,0 13.23509319457421,43.07057265334663,0 13.23481702882125,43.07042304069951,0 13.23466172855316,43.07027117307761,0 13.23457416785001,43.0700844197961,0 13.23455667042261,43.06978068428434,0 13.23458345198178,43.06966983908318,0 13.2344157489909,43.06920432454152,0 13.2343723849802,43.0691455696284,0 13.23408520184507,43.06914829518361,0 13.2338582435347,43.06910288092738,0 13.23327546154547,43.06860512478917,0 13.2331236541313,43.06856766374827,0 13.23292533448979,43.06862018013647,0 13.23283266404933,43.06873132014304,0 13.23285374460447,43.06885454816756,0 13.23285374476834,43.0689336732683,0 13.23278476375511,43.06898969109775,0 13.23269566315058,43.0689553802131,0 13.2325656400481,43.06837287903357,0 13.23260870604231,43.06808246604855,0 13.23270236481278,43.06796381421193,0 13.23291016127025,43.06788304034674,0 13.23346428921352,43.06778987955494,0 13.2342338620484,43.06738731170078,0 13.23463743404577,43.06727290025712,0 13.23476757822131,43.06712090169299,0 13.23477409206552,43.06718155042508,0 13.23464707298986,43.06729479455691,0 13.23424613780585,43.06740188841462,0 13.23347486761765,43.06780084522572,0 13.23292232505714,43.0678931092659,0 13.23272129182626,43.06797220081896,0 13.23263069471922,43.06808766207051,0 13.23259361022483,43.06836633443522,0 13.23271315373704,43.06894891247608,0 13.23278219401459,43.06897637381645,0 13.23283546500915,43.06892580324285,0 13.23283510264495,43.06885657935245,0 13.23281441564092,43.06872745433294,0 13.23291087628825,43.06861080948202,0 13.23312862647929,43.06855046274082,0 13.2332914615716,43.06858717607168,0 13.23390360724501,43.06908826120814,0 13.2340901600948,43.06912999666634,0 13.23438474192924,43.06913091380221,0 13.23443801449664,43.06919752231804,0 13.23460378447808,43.06966629418066,0 13.23458218416019,43.06977990663832,0 13.23459741448625,43.0700828032225,0 13.23468303957173,43.07026255016639,0 13.23483658430336,43.07040926628537,0 13.23510374463622,43.07055466430062,0 13.23612726049894,43.07092589493905,0 13.23673070739249,43.070984977148,0 13.23809278070679,43.0710226178028,0 13.2386680843706,43.07097914683091,0 13.2387758043269,43.0709929955981,0 13.2387921672862,43.07102960304985,0 13.23874250573869,43.07108331967731,0 13.23867035428981,43.07108256301615,0 13.23853043563973,43.07112085443668,0 13.23652011239921,43.07180102307635,0 13.23625735556278,43.07188548258104,0 13.23623466920325,43.07191657630943,0 13.2362600747901,43.07193712613854,0 13.23634938904384,43.0719663254364,0 13.23665489405792,43.07201104315902,0 13.23728027706788,43.07204252300458,0 13.23772635541628,43.07203290525309,0 13.23778043966316,43.07209034579222,0 13.23777594858182,43.07214905107715,0 13.23770591665382,43.07223686046282,0 13.23764430083719,43.07227523486829,0 13.23755863932712,43.0723691833786,0 13.23749699523072,43.07245894419476,0 13.2373758814141,43.07257011726806,0 13.23723707272514,43.07260868757107,0 13.23724877135772,43.07266916293007,0 13.23765658555311,43.07262953597414,0 13.23775744915996,43.07268726900694,0 13.23777991976927,43.07289198410466,0 13.23768495819765,43.073043539525,0 13.23753268661423,43.07322079850235,0 13.23727584610249,43.07331055235708,0 13.23698856036439,43.07328576888145,0 13.23670231288163,43.07316047885511,0 13.23626534613568,43.07303211662744,0 13.23565487044868,43.07310849987316,0 13.23513002193905,43.07311790286629,0 13.23480269678679,43.07316548974733,0 13.2346195050577,43.0733149365165,0 13.23451625816021,43.07363132878373,0 13.23430274016411,43.07390042746848,0 13.23403281766577,43.07408365927139,0 13.23373700054358,43.07479587263566,0 13.23356683943501,43.07501276166445,0 13.23352371368368,43.0753751573216,0 13.23325525988029,43.07591201996547,0 13.23342609768997,43.07595739966323,0 13.23414454208117,43.07553933573089,0 13.23460548331575,43.07537928065735,0 13.23497162741489,43.07539560720616,0 13.23520999486581,43.0755802684732,0 13.23507375717948,43.07626952493648,0 13.23508901367175,43.07664226333759,0 13.23497391383119,43.07680689297646,0 13.23469834275241,43.07699294231595,0 13.23434013487929,43.0773792286427,0 13.23434815656698,43.07792105361786,0 13.23366122667799,43.07859107707843,0 13.23354529721317,43.07883291381146,0 13.23347196369261,43.07921566252795,0 13.23368921603355,43.07981665103163,0 13.23361879378244,43.08009146188414,0 13.23325734723594,43.08050175433962,0 13.23329220881547,43.08067693155833,0 13.23306257374765,43.08143792480417,0 13.23259097790111,43.08210560096177,0 13.23287127272744,43.08236129295522,0 13.23291542883605,43.08258594238392,0 13.2327077321011,43.08316653921537,0 13.23293340099185,43.08355665878568,0 13.23325031074353,43.08434937980099,0 13.23321318671061,43.08516748999763,0 13.23245758150658,43.08599848476068,0 13.23196997393698,43.08700055908889,0 13.23155608181472,43.08757288079867,0 13.23153473608402,43.08791439350693,0 13.23091114495501,43.08863510922557,0 13.23080558978732,43.08956898545281,0 13.22992228576747,43.09122008989964,0 13.22926800553416,43.09196868761433,0 13.22801831154243,43.09308389294588,0 13.22740496622881,43.09385999046805,0 13.2270856728952,43.09402012366592,0 13.22664076848537,43.09412135426187,0 13.22611130648121,43.09453224824649,0 13.22649510324258,43.09473421961488,0 13.22691173581094,43.09531064447517,0 13.22737237006247,43.09555961217243,0 13.22758691269209,43.09578339186933,0 13.22793209257347,43.09622240724976,0 13.22771650395983,43.09637307913355,0 13.2273466558106,43.09633016320798,0 13.22710696728557,43.09641467452288,0 13.22686803266043,43.09690383383587,0 13.2265252984669,43.09803378566275,0 13.22636859940949,43.09825546687912,0 13.22615422861326,43.0984502576357,0 13.22611455433815,43.09857259095693,0 13.2262227329698,43.09957604160179,0 13.22618452244896,43.09977785642724,0 13.22555621532709,43.10062867760416,0 13.22549947390542,43.1010425147324,0 13.22530641894702,43.10166688909355,0 13.22571183512246,43.10203859271444,0 13.22590778435268,43.10265376094886,0 13.22711667599899,43.10296496749159,0 13.22730175461522,43.10306316950128,0 13.22766958575956,43.10357112084289,0 13.22779745132158,43.10349267437173,0 13.22794391604323,43.10315459049389,0 13.22842977766514,43.10273657541001,0 13.22949564002046,43.10241957323431,0 13.2295897562655,43.1025762778233,0 13.22978386587405,43.10268379392037,0 13.22979516613097,43.1027937791,0 13.22984111516971,43.10301444253994,0 13.22982200079305,43.10332211090928,0 13.22985619336598,43.10342774030428,0 13.2301576821281,43.10360904421589,0 13.23050642640833,43.10369426532863,0 13.23065666088589,43.10365788500891,0 13.23114268177089,43.10349564954765,0 13.23139706498894,43.10325254852764,0 13.23279049479927,43.10234901105294,0 13.23321778339408,43.10238580360672,0 13.2334669580057,43.10231721585072,0 13.2337887938205,43.10211032449812,0 13.23447889193398,43.10200724937258,0 13.23616498431715,43.10159240946388,0 13.23640981833719,43.1012056528678,0 13.2368307458709,43.10113676730508,0 13.23704753917267,43.10107061154459,0 13.23718954258869,43.10096843474647,0 13.23731855264689,43.10093285723764,0 13.23742853296126,43.10099172241037,0 13.23737227522575,43.10114080851444,0 13.23714452580024,43.10142393710927,0 13.23717947708554,43.10188808245056,0 13.23694900793314,43.10253223067414,0 13.23669419665238,43.1031318616506,0 13.23677608674053,43.10319330052027,0 13.23706218935563,43.1031387137046,0 13.23753069077203,43.10323531133917,0 13.23835201586661,43.10321760033783,0 13.23944946042971,43.10367358259316,0 13.23982335428136,43.10439177318354,0 13.24038336711514,43.10467877529585,0 13.24093605824466,43.1050617813799,0 13.24127526513502,43.10520480377673,0 13.24221610717506,43.10528470119933,0 13.24266706277076,43.10538002329286,0 13.24347318984559,43.10582778099734,0 13.24369318473424,43.10588689742468,0 13.2443976549713,43.10577021081881,0 13.24457322313493,43.10579067437056,0 13.24463918858845,43.10586522915459,0 13.2452958027489,43.10614935537465,0 13.24574108233454,43.10627617513113,0 13.24606360300065,43.10629538720997,0 13.24751607397501,43.10611542823294,0 13.24796401967882,43.10614738818598,0 13.24892274895399,43.10659640457042,0 13.25047608885633,43.10671473469827,0 13.25098388471178,43.10666882316647,0 13.25210488453822,43.10627460535004,0 13.25232142094139,43.10633984258185,0 13.25322287058296,43.10724684090732,0 13.25417788717231,43.10786443778119,0 13.25509195369754,43.10802053355739,0 13.25609704761386,43.10852443909548,0 13.25655092368429,43.10860042052982,0 13.25692665071138,43.10853393799118,0 13.25751822406666,43.10818557302007,0 13.2586599329677,43.10857866398165,0 13.25873815070518,43.10865463892077,0 13.25874848219854,43.10877609374932,0 13.25869818416309,43.1088900884798,0 13.25839862424941,43.10917063705737,0 
				</coordinates>
			</LineString>
		</Placemark>
		<Placemark>
			<name>1</name>
			<description>Gira a destra su via Giuseppe Garibaldi;Turn right onto Via Giuseppe Garibaldi</description>
			<LookAt>
				<gx:TimeStamp><when>2022-04-30</when>
</gx:TimeStamp>
				<gx:ViewerOptions>
					<gx:option name="historicalimagery"></gx:option>
					<gx:option enabled="0" name="sunlight"></gx:option>
					<gx:option enabled="0" name="streetview"></gx:option>
				</gx:ViewerOptions>
				<longitude>13.25811226488505</longitude>
				<latitude>43.10869392966818</latitude>
				<altitude>0</altitude>
				<heading>2.862830759977482</heading>
				<tilt>20.6229165457224</tilt>
				<range>168.741584306959</range>
				<gx:altitudeMode>relativeToSeaFloor</gx:altitudeMode>
			</LookAt>
			<styleUrl>#m_ylw-pushpin</styleUrl>
			<Point>
				<gx:drawOrder>1</gx:drawOrder>
				<coordinates>13.25854288631459,43.1089699603591,0</coordinates>
			</Point>
		</Placemark>
		<Placemark>
			<name>2</name>
			<description>Gira a sinistra;Turn left</description>
			<LookAt>
				<gx:TimeStamp><when>2022-04-30</when>
</gx:TimeStamp>
				<gx:ViewerOptions>
					<gx:option name="historicalimagery"></gx:option>
					<gx:option enabled="0" name="sunlight"></gx:option>
					<gx:option enabled="0" name="streetview"></gx:option>
				</gx:ViewerOptions>
				<longitude>13.25811226488505</longitude>
				<latitude>43.10869392966818</latitude>
				<altitude>0</altitude>
				<heading>2.862830759977482</heading>
				<tilt>20.6229165457224</tilt>
				<range>168.741584306959</range>
				<gx:altitudeMode>relativeToSeaFloor</gx:altitudeMode>
			</LookAt>
			<styleUrl>#m_ylw-pushpin</styleUrl>
			<Point>
				<gx:drawOrder>1</gx:drawOrder>
				<coordinates>13.25725392770952,43.10853172230477,0</coordinates>
			</Point>
		</Placemark>
		<Placemark>
			<name>3</name>
			<description>Gira a sinistra;Turn left</description>
			<LookAt>
				<gx:TimeStamp><when>2022-04-30</when>
</gx:TimeStamp>
				<gx:ViewerOptions>
					<gx:option name="historicalimagery"></gx:option>
					<gx:option enabled="0" name="sunlight"></gx:option>
					<gx:option enabled="0" name="streetview"></gx:option>
				</gx:ViewerOptions>
				<longitude>13.25811226488505</longitude>
				<latitude>43.10869392966818</latitude>
				<altitude>0</altitude>
				<heading>2.862830759977482</heading>
				<tilt>20.6229165457224</tilt>
				<range>168.741584306959</range>
				<gx:altitudeMode>relativeToSeaFloor</gx:altitudeMode>
			</LookAt>
			<styleUrl>#m_ylw-pushpin</styleUrl>
			<Point>
				<gx:drawOrder>1</gx:drawOrder>
				<coordinates>13.25733990138997,43.10840125789542,0</coordinates>
			</Point>
		</Placemark>
		<Placemark>
			<name>4</name>
			<description>Gira a destra;Turn right</description>
			<LookAt>
				<gx:TimeStamp><when>2022-04-30</when>
</gx:TimeStamp>
				<gx:ViewerOptions>
					<gx:option name="historicalimagery"></gx:option>
					<gx:option enabled="0" name="sunlight"></gx:option>
					<gx:option enabled="0" name="streetview"></gx:option>
				</gx:ViewerOptions>
				<longitude>13.25811226488505</longitude>
				<latitude>43.10869392966818</latitude>
				<altitude>0</altitude>
				<heading>2.862830759977482</heading>
				<tilt>20.6229165457224</tilt>
				<range>168.741584306959</range>
				<gx:altitudeMode>relativeToSeaFloor</gx:altitudeMode>
			</LookAt>
			<styleUrl>#m_ylw-pushpin</styleUrl>
			<Point>
				<gx:drawOrder>1</gx:drawOrder>
				<coordinates>13.25855645075772,43.10862539973288,0</coordinates>
			</Point>
		</Placemark>
		<Placemark>
			<name>5</name>
			<description>Gira a destra;Turn right</description>
			<LookAt>
				<gx:TimeStamp><when>2022-04-30</when>
</gx:TimeStamp>
				<gx:ViewerOptions>
					<gx:option name="historicalimagery"></gx:option>
					<gx:option enabled="0" name="sunlight"></gx:option>
					<gx:option enabled="0" name="streetview"></gx:option>
				</gx:ViewerOptions>
				<longitude>13.25811226488505</longitude>
				<latitude>43.10869392966818</latitude>
				<altitude>0</altitude>
				<heading>2.862830759977482</heading>
				<tilt>20.6229165457224</tilt>
				<range>168.741584306959</range>
				<gx:altitudeMode>relativeToSeaFloor</gx:altitudeMode>
			</LookAt>
			<styleUrl>#m_ylw-pushpin</styleUrl>
			<Point>
				<gx:drawOrder>1</gx:drawOrder>
				<coordinates>13.25855804776235,43.10857361108482,0</coordinates>
			</Point>
		</Placemark>
		<Placemark>
			<name>6</name>
			<description>All&apos;incrocio prosegui dritto su via della Repubblica;At the crossroads continue straight on Via della Repubblica</description>
			<LookAt>
				<gx:TimeStamp><when>2022-04-30</when>
</gx:TimeStamp>
				<gx:ViewerOptions>
					<gx:option name="historicalimagery"></gx:option>
					<gx:option enabled="0" name="sunlight"></gx:option>
					<gx:option enabled="0" name="streetview"></gx:option>
				</gx:ViewerOptions>
				<longitude>13.25751109710462</longitude>
				<latitude>43.10835680326655</latitude>
				<altitude>0</altitude>
				<heading>2.862419934173573</heading>
				<tilt>20.62291654572234</tilt>
				<range>168.7415843041493</range>
				<gx:altitudeMode>relativeToSeaFloor</gx:altitudeMode>
			</LookAt>
			<styleUrl>#m_ylw-pushpin</styleUrl>
			<Point>
				<gx:drawOrder>1</gx:drawOrder>
				<coordinates>13.25759647452591,43.10825907822662,0</coordinates>
			</Point>
		</Placemark>
		<Placemark>
			<name>7</name>
			<description>Torna indietro;Go back</description>
			<LookAt>
				<gx:TimeStamp><when>2022-04-30</when>
</gx:TimeStamp>
				<gx:ViewerOptions>
					<gx:option name="historicalimagery"></gx:option>
					<gx:option enabled="0" name="sunlight"></gx:option>
					<gx:option enabled="0" name="streetview"></gx:option>
				</gx:ViewerOptions>
				<longitude>13.25626388528428</longitude>
				<latitude>43.10781119656419</latitude>
				<altitude>0</altitude>
				<heading>2.861567618975433</heading>
				<tilt>20.6229165457224</tilt>
				<range>168.7415843078389</range>
				<gx:altitudeMode>relativeToSeaFloor</gx:altitudeMode>
			</LookAt>
			<styleUrl>#m_ylw-pushpin</styleUrl>
			<Point>
				<gx:drawOrder>1</gx:drawOrder>
				<coordinates>13.25548987876596,43.1074636936978,0</coordinates>
			</Point>
		</Placemark>
		<Placemark>
			<name>8</name>
			<description>Gira a sinistra su strada provinciale 88;Turn left onto provincial road 88</description>
			<LookAt>
				<gx:TimeStamp><when>2022-04-30</when>
</gx:TimeStamp>
				<gx:ViewerOptions>
					<gx:option name="historicalimagery"></gx:option>
					<gx:option enabled="0" name="sunlight"></gx:option>
					<gx:option enabled="0" name="streetview"></gx:option>
				</gx:ViewerOptions>
				<longitude>13.25699715265746</longitude>
				<latitude>43.10811807532318</latitude>
				<altitude>0</altitude>
				<heading>2.862068715741458</heading>
				<tilt>20.62291654572234</tilt>
				<range>168.7415843077434</range>
				<gx:altitudeMode>relativeToSeaFloor</gx:altitudeMode>
			</LookAt>
			<styleUrl>#m_ylw-pushpin</styleUrl>
			<Point>
				<gx:drawOrder>1</gx:drawOrder>
				<coordinates>13.25751070761939,43.10822205555937,0</coordinates>
			</Point>
		</Placemark>
		<Placemark>
			<name>9</name>
			<description>Continua su strada provinciale 88;Continue on provincial road 88</description>
			<LookAt>
				<gx:TimeStamp><when>2022-04-30</when>
</gx:TimeStamp>
				<gx:ViewerOptions>
					<gx:option name="historicalimagery"></gx:option>
					<gx:option enabled="0" name="sunlight"></gx:option>
					<gx:option enabled="0" name="streetview"></gx:option>
				</gx:ViewerOptions>
				<longitude>13.25660318561879</longitude>
				<latitude>43.10822209562596</latitude>
				<altitude>0</altitude>
				<heading>2.861799486555067</heading>
				<tilt>20.62291654572234</tilt>
				<range>168.7415843063549</range>
				<gx:altitudeMode>relativeToSeaFloor</gx:altitudeMode>
			</LookAt>
			<styleUrl>#m_ylw-pushpin</styleUrl>
			<Point>
				<gx:drawOrder>1</gx:drawOrder>
				<coordinates>13.25710706454219,43.10849545790642,0</coordinates>
			</Point>
		</Placemark>
		<Placemark>
			<name>10</name>
			<description>Gira tutto a sinistra;Turn all the way to the left</description>
			<LookAt>
				<gx:TimeStamp><when>2022-04-30</when>
</gx:TimeStamp>
				<gx:ViewerOptions>
					<gx:option name="historicalimagery"></gx:option>
					<gx:option enabled="0" name="sunlight"></gx:option>
					<gx:option enabled="0" name="streetview"></gx:option>
				</gx:ViewerOptions>
				<longitude>13.24389202982042</longitude>
				<latitude>43.10832281483656</latitude>
				<altitude>0</altitude>
				<heading>2.853113161124544</heading>
				<tilt>20.62291654572234</tilt>
				<range>168.7415843031632</range>
				<gx:altitudeMode>relativeToSeaFloor</gx:altitudeMode>
			</LookAt>
			<styleUrl>#m_ylw-pushpin</styleUrl>
			<Point>
				<gx:drawOrder>1</gx:drawOrder>
				<coordinates>13.2440279844406,43.10869822362423,0</coordinates>
			</Point>
		</Placemark>
		<Placemark>
			<name>11</name>
			<description>Continua su questa strada;Continue on this path</description>
			<LookAt>
				<gx:TimeStamp><when>2022-04-30</when>
</gx:TimeStamp>
				<gx:ViewerOptions>
					<gx:option name="historicalimagery"></gx:option>
					<gx:option enabled="0" name="sunlight"></gx:option>
					<gx:option enabled="0" name="streetview"></gx:option>
				</gx:ViewerOptions>
				<longitude>13.24389202982042</longitude>
				<latitude>43.10832281483656</latitude>
				<altitude>0</altitude>
				<heading>2.853113161124544</heading>
				<tilt>20.62291654572234</tilt>
				<range>168.7415843031632</range>
				<gx:altitudeMode>relativeToSeaFloor</gx:altitudeMode>
			</LookAt>
			<styleUrl>#m_ylw-pushpin</styleUrl>
			<Point>
				<gx:drawOrder>1</gx:drawOrder>
				<coordinates>13.24391078171232,43.10883490287907,0</coordinates>
			</Point>
		</Placemark>
		<Placemark>
			<name>12</name>
			<description>All&apos;incrocio gira a sinistra;At the crossroads turn left</description>
			<LookAt>
				<gx:TimeStamp><when>2022-04-30</when>
</gx:TimeStamp>
				<gx:ViewerOptions>
					<gx:option name="historicalimagery"></gx:option>
					<gx:option enabled="0" name="sunlight"></gx:option>
					<gx:option enabled="0" name="streetview"></gx:option>
				</gx:ViewerOptions>
				<longitude>13.22521282229304</longitude>
				<latitude>43.10081524286606</latitude>
				<altitude>0</altitude>
				<heading>2.840348495716583</heading>
				<tilt>20.62291654572236</tilt>
				<range>168.7415843080907</range>
				<gx:altitudeMode>relativeToSeaFloor</gx:altitudeMode>
			</LookAt>
			<styleUrl>#m_ylw-pushpin</styleUrl>
			<Point>
				<gx:drawOrder>1</gx:drawOrder>
				<coordinates>13.22544781115281,43.10065220183217,0</coordinates>
			</Point>
		</Placemark>
		<Placemark>
			<name>13</name>
			<description>Gira a destra;Turn right</description>
			<LookAt>
				<gx:TimeStamp><when>2022-04-30</when>
</gx:TimeStamp>
				<gx:ViewerOptions>
					<gx:option name="historicalimagery"></gx:option>
					<gx:option enabled="0" name="sunlight"></gx:option>
					<gx:option enabled="0" name="streetview"></gx:option>
				</gx:ViewerOptions>
				<longitude>13.22281806780692</longitude>
				<latitude>43.10365907296134</latitude>
				<altitude>0</altitude>
				<heading>24.80997686805557</heading>
				<tilt>31.94913608519228</tilt>
				<range>137.9584580575242</range>
				<gx:altitudeMode>relativeToSeaFloor</gx:altitudeMode>
			</LookAt>
			<styleUrl>#m_ylw-pushpin</styleUrl>
			<Point>
				<gx:drawOrder>1</gx:drawOrder>
				<coordinates>13.22246790283145,43.10361139549556,0</coordinates>
			</Point>
		</Placemark>
		<Placemark>
			<name>14</name>
			<description>Gira a sisnistra;Turn left</description>
			<LookAt>
				<gx:TimeStamp><when>2022-04-30</when>
</gx:TimeStamp>
				<gx:ViewerOptions>
					<gx:option name="historicalimagery"></gx:option>
					<gx:option enabled="0" name="sunlight"></gx:option>
					<gx:option enabled="0" name="streetview"></gx:option>
				</gx:ViewerOptions>
				<longitude>13.22490667760268</longitude>
				<latitude>43.10473783853273</latitude>
				<altitude>0</altitude>
				<heading>24.81140414105393</heading>
				<tilt>31.94933450817276</tilt>
				<range>179.7245811864753</range>
				<gx:altitudeMode>relativeToSeaFloor</gx:altitudeMode>
			</LookAt>
			<styleUrl>#m_ylw-pushpin</styleUrl>
			<Point>
				<gx:drawOrder>1</gx:drawOrder>
				<coordinates>13.22537085649344,43.10514249521517,0</coordinates>
			</Point>
		</Placemark>
		<Placemark>
			<name>15</name>
			<description>Gira a sisnistra;Turn left</description>
			<LookAt>
				<gx:TimeStamp><when>2022-04-30</when>
</gx:TimeStamp>
				<gx:ViewerOptions>
					<gx:option name="historicalimagery"></gx:option>
					<gx:option enabled="0" name="sunlight"></gx:option>
					<gx:option enabled="0" name="streetview"></gx:option>
				</gx:ViewerOptions>
				<longitude>13.22500656579266</longitude>
				<latitude>43.10487454966882</latitude>
				<altitude>0</altitude>
				<heading>24.81169915441225</heading>
				<tilt>28.27812045777175</tilt>
				<range>160.9688468159193</range>
				<gx:altitudeMode>relativeToSeaFloor</gx:altitudeMode>
			</LookAt>
			<styleUrl>#m_ylw-pushpin</styleUrl>
			<Point>
				<gx:drawOrder>1</gx:drawOrder>
				<coordinates>13.22524796899417,43.10523206186362,0</coordinates>
			</Point>
		</Placemark>
		<Placemark>
			<name>16</name>
			<description>Torna indietro;Go back</description>
			<LookAt>
				<gx:TimeStamp><when>2022-04-30</when>
</gx:TimeStamp>
				<gx:ViewerOptions>
					<gx:option name="historicalimagery"></gx:option>
					<gx:option enabled="0" name="sunlight"></gx:option>
					<gx:option enabled="0" name="streetview"></gx:option>
				</gx:ViewerOptions>
				<longitude>13.22500656579266</longitude>
				<latitude>43.10487454966882</latitude>
				<altitude>0</altitude>
				<heading>24.81169915441225</heading>
				<tilt>28.27812045777175</tilt>
				<range>160.9688468159193</range>
				<gx:altitudeMode>relativeToSeaFloor</gx:altitudeMode>
			</LookAt>
			<styleUrl>#m_ylw-pushpin</styleUrl>
			<Point>
				<gx:drawOrder>1</gx:drawOrder>
				<coordinates>13.22456139368618,43.10505579618135,0</coordinates>
			</Point>
		</Placemark>
		<Placemark>
			<name>17</name>
			<description>Gira a destra;Turn right</description>
			<LookAt>
				<gx:TimeStamp><when>2022-04-30</when>
</gx:TimeStamp>
				<gx:ViewerOptions>
					<gx:option name="historicalimagery"></gx:option>
					<gx:option enabled="0" name="sunlight"></gx:option>
					<gx:option enabled="0" name="streetview"></gx:option>
				</gx:ViewerOptions>
				<longitude>13.22500656579266</longitude>
				<latitude>43.10487454966882</latitude>
				<altitude>0</altitude>
				<heading>24.81169915441225</heading>
				<tilt>28.27812045777175</tilt>
				<range>160.9688468159193</range>
				<gx:altitudeMode>relativeToSeaFloor</gx:altitudeMode>
			</LookAt>
			<styleUrl>#m_ylw-pushpin</styleUrl>
			<Point>
				<gx:drawOrder>1</gx:drawOrder>
				<coordinates>13.22525891300193,43.10515336935321,0</coordinates>
			</Point>
		</Placemark>
		<Placemark>
			<name>18</name>
			<description>Continua dritto;Continue straight</description>
			<LookAt>
				<gx:TimeStamp><when>2022-04-30</when>
</gx:TimeStamp>
				<gx:ViewerOptions>
					<gx:option name="historicalimagery"></gx:option>
					<gx:option enabled="0" name="sunlight"></gx:option>
					<gx:option enabled="0" name="streetview"></gx:option>
				</gx:ViewerOptions>
				<longitude>13.22228698686057</longitude>
				<latitude>43.10386703368646</latitude>
				<altitude>0</altitude>
				<heading>24.80984079443725</heading>
				<tilt>28.27812045777168</tilt>
				<range>160.9688468162362</range>
				<gx:altitudeMode>relativeToSeaFloor</gx:altitudeMode>
			</LookAt>
			<styleUrl>#m_ylw-pushpin</styleUrl>
			<Point>
				<gx:drawOrder>1</gx:drawOrder>
				<coordinates>13.22239685468293,43.10376129020825,0</coordinates>
			</Point>
		</Placemark>
		<Placemark>
			<name>19</name>
			<description>Gira a sisnistra;Turn left</description>
			<LookAt>
				<gx:TimeStamp><when>2022-04-30</when>
</gx:TimeStamp>
				<gx:ViewerOptions>
					<gx:option name="historicalimagery"></gx:option>
					<gx:option enabled="0" name="sunlight"></gx:option>
					<gx:option enabled="0" name="streetview"></gx:option>
				</gx:ViewerOptions>
				<longitude>13.22228698686057</longitude>
				<latitude>43.10386703368646</latitude>
				<altitude>0</altitude>
				<heading>24.80984079443725</heading>
				<tilt>28.27812045777168</tilt>
				<range>160.9688468162362</range>
				<gx:altitudeMode>relativeToSeaFloor</gx:altitudeMode>
			</LookAt>
			<styleUrl>#m_ylw-pushpin</styleUrl>
			<Point>
				<gx:drawOrder>1</gx:drawOrder>
				<coordinates>13.22236362676537,43.10358841427905,0</coordinates>
			</Point>
		</Placemark>
		<Placemark>
			<name>20</name>
			<description>Gira a destra;Turn right</description>
			<LookAt>
				<gx:TimeStamp><when>2022-04-30</when>
</gx:TimeStamp>
				<gx:ViewerOptions>
					<gx:option name="historicalimagery"></gx:option>
					<gx:option enabled="0" name="sunlight"></gx:option>
					<gx:option enabled="0" name="streetview"></gx:option>
				</gx:ViewerOptions>
				<longitude>13.22483559329388</longitude>
				<latitude>43.10052842458566</latitude>
				<altitude>0</altitude>
				<heading>24.81158225113463</heading>
				<tilt>28.27812045800726</tilt>
				<range>160.968847022778</range>
				<gx:altitudeMode>relativeToSeaFloor</gx:altitudeMode>
			</LookAt>
			<styleUrl>#m_ylw-pushpin</styleUrl>
			<Point>
				<gx:drawOrder>1</gx:drawOrder>
				<coordinates>13.2254952206908,43.10054993136776,0</coordinates>
			</Point>
		</Placemark>
		<Placemark>
			<name>21</name>
			<description>Tinei la destra;Keep right</description>
			<LookAt>
				<gx:TimeStamp><when>2022-04-30</when>
</gx:TimeStamp>
				<gx:ViewerOptions>
					<gx:option name="historicalimagery"></gx:option>
					<gx:option enabled="0" name="sunlight"></gx:option>
					<gx:option enabled="0" name="streetview"></gx:option>
				</gx:ViewerOptions>
				<longitude>13.22758890874212</longitude>
				<latitude>43.09624033496079</latitude>
				<altitude>0</altitude>
				<heading>24.813463470152</heading>
				<tilt>28.27812045802403</tilt>
				<range>160.9688470291717</range>
				<gx:altitudeMode>relativeToSeaFloor</gx:altitudeMode>
			</LookAt>
			<styleUrl>#m_ylw-pushpin</styleUrl>
			<Point>
				<gx:drawOrder>1</gx:drawOrder>
				<coordinates>13.22768572329041,43.09630073672878,0</coordinates>
			</Point>
		</Placemark>
		<Placemark>
			<name>22</name>
			<description>Gira a destra;Turn right</description>
			<LookAt>
				<gx:TimeStamp><when>2022-04-30</when>
</gx:TimeStamp>
				<gx:ViewerOptions>
					<gx:option name="historicalimagery"></gx:option>
					<gx:option enabled="0" name="sunlight"></gx:option>
					<gx:option enabled="0" name="streetview"></gx:option>
				</gx:ViewerOptions>
				<longitude>13.22758890874212</longitude>
				<latitude>43.09624033496079</latitude>
				<altitude>0</altitude>
				<heading>24.813463470152</heading>
				<tilt>28.27812045802403</tilt>
				<range>160.9688470291717</range>
				<gx:altitudeMode>relativeToSeaFloor</gx:altitudeMode>
			</LookAt>
			<styleUrl>#m_ylw-pushpin</styleUrl>
			<Point>
				<gx:drawOrder>1</gx:drawOrder>
				<coordinates>13.22784522175725,43.09620093025533,0</coordinates>
			</Point>
		</Placemark>
		<Placemark>
			<name>23</name>
			<description>Gira a sinistra;Turn left</description>
			<LookAt>
				<gx:TimeStamp><when>2022-04-30</when>
</gx:TimeStamp>
				<gx:ViewerOptions>
					<gx:option name="historicalimagery"></gx:option>
					<gx:option enabled="0" name="sunlight"></gx:option>
					<gx:option enabled="0" name="streetview"></gx:option>
				</gx:ViewerOptions>
				<longitude>13.2257647095837</longitude>
				<latitude>43.09450046680185</latitude>
				<altitude>0</altitude>
				<heading>24.81221716336789</heading>
				<tilt>28.27812045802349</tilt>
				<range>160.9688470306739</range>
				<gx:altitudeMode>relativeToSeaFloor</gx:altitudeMode>
			</LookAt>
			<styleUrl>#m_ylw-pushpin</styleUrl>
			<Point>
				<gx:drawOrder>1</gx:drawOrder>
				<coordinates>13.22598803739903,43.09454836927727,0</coordinates>
			</Point>
		</Placemark>
		<Placemark>
			<name>24</name>
			<description>Tinei la destra;Keep right</description>
			<LookAt>
				<gx:TimeStamp><when>2022-04-30</when>
</gx:TimeStamp>
				<gx:ViewerOptions>
					<gx:option name="historicalimagery"></gx:option>
					<gx:option enabled="0" name="sunlight"></gx:option>
					<gx:option enabled="0" name="streetview"></gx:option>
				</gx:ViewerOptions>
				<longitude>13.23514819435944</longitude>
				<latitude>43.07604075964039</latitude>
				<altitude>0</altitude>
				<heading>24.81862722616333</heading>
				<tilt>28.27812045802329</tilt>
				<range>160.9688470312501</range>
				<gx:altitudeMode>relativeToSeaFloor</gx:altitudeMode>
			</LookAt>
			<styleUrl>#m_ylw-pushpin</styleUrl>
			<Point>
				<gx:drawOrder>1</gx:drawOrder>
				<coordinates>13.23493313291061,43.07676951387509,0</coordinates>
			</Point>
		</Placemark>
		<Placemark>
			<name>25</name>
			<description>Continua su questa strada;Continue on this path</description>
			<LookAt>
				<gx:TimeStamp><when>2022-04-30</when>
</gx:TimeStamp>
				<gx:ViewerOptions>
					<gx:option name="historicalimagery"></gx:option>
					<gx:option enabled="0" name="sunlight"></gx:option>
					<gx:option enabled="0" name="streetview"></gx:option>
				</gx:ViewerOptions>
				<longitude>13.23301712697546</longitude>
				<latitude>43.06849990300651</latitude>
				<altitude>0</altitude>
				<heading>24.81717198083186</heading>
				<tilt>28.27812045802379</tilt>
				<range>160.9688470287681</range>
				<gx:altitudeMode>relativeToSeaFloor</gx:altitudeMode>
			</LookAt>
			<styleUrl>#m_ylw-pushpin</styleUrl>
			<Point>
				<gx:drawOrder>1</gx:drawOrder>
				<coordinates>13.23267942739184,43.06895872763264,0</coordinates>
			</Point>
		</Placemark>
		<Placemark>
			<name>26</name>
			<description>Torna indietro;Go back</description>
			<LookAt>
				<gx:TimeStamp><when>2022-04-30</when>
</gx:TimeStamp>
				<gx:ViewerOptions>
					<gx:option name="historicalimagery"></gx:option>
					<gx:option enabled="0" name="sunlight"></gx:option>
					<gx:option enabled="0" name="streetview"></gx:option>
				</gx:ViewerOptions>
				<longitude>13.23460849840853</longitude>
				<latitude>43.06685298500888</latitude>
				<altitude>0</altitude>
				<heading>24.81825865521695</heading>
				<tilt>28.27812045802352</tilt>
				<range>160.968847032798</range>
				<gx:altitudeMode>relativeToSeaFloor</gx:altitudeMode>
			</LookAt>
			<styleUrl>#m_ylw-pushpin</styleUrl>
			<Point>
				<gx:drawOrder>1</gx:drawOrder>
				<coordinates>13.23476581786141,43.06709174627444,0</coordinates>
			</Point>
		</Placemark>
		<Placemark>
			<name>27</name>
			<description>Tieni la destra;Keep right</description>
			<LookAt>
				<gx:TimeStamp><when>2022-04-30</when>
</gx:TimeStamp>
				<gx:ViewerOptions>
					<gx:option name="historicalimagery"></gx:option>
					<gx:option enabled="0" name="sunlight"></gx:option>
					<gx:option enabled="0" name="streetview"></gx:option>
				</gx:ViewerOptions>
				<longitude>13.23337507609946</longitude>
				<latitude>43.06849250896904</latitude>
				<altitude>0</altitude>
				<heading>24.81741641125413</heading>
				<tilt>28.27812045802364</tilt>
				<range>160.9688470296487</range>
				<gx:altitudeMode>relativeToSeaFloor</gx:altitudeMode>
			</LookAt>
			<styleUrl>#m_ylw-pushpin</styleUrl>
			<Point>
				<gx:drawOrder>1</gx:drawOrder>
				<coordinates>13.23275387225218,43.06893026530667,0</coordinates>
			</Point>
		</Placemark>
		<Placemark>
			<name>28</name>
			<description>Tinei la sinistra:Keep left</description>
			<LookAt>
				<gx:TimeStamp><when>2022-04-30</when>
</gx:TimeStamp>
				<gx:ViewerOptions>
					<gx:option name="historicalimagery"></gx:option>
					<gx:option enabled="0" name="sunlight"></gx:option>
					<gx:option enabled="0" name="streetview"></gx:option>
				</gx:ViewerOptions>
				<longitude>13.23490554952823</longitude>
				<latitude>43.07725339005275</latitude>
				<altitude>0</altitude>
				<heading>24.81846147340066</heading>
				<tilt>28.27812045802372</tilt>
				<range>160.9688470315665</range>
				<gx:altitudeMode>relativeToSeaFloor</gx:altitudeMode>
			</LookAt>
			<styleUrl>#m_ylw-pushpin</styleUrl>
			<Point>
				<gx:drawOrder>1</gx:drawOrder>
				<coordinates>13.234998821744,43.0768020850159,0</coordinates>
			</Point>
		</Placemark>
		<Placemark>
			<name>29</name>
			<description>Gira a destra;Turn right</description>
			<LookAt>
				<gx:TimeStamp><when>2022-04-30</when>
</gx:TimeStamp>
				<gx:ViewerOptions>
					<gx:option name="historicalimagery"></gx:option>
					<gx:option enabled="0" name="sunlight"></gx:option>
					<gx:option enabled="0" name="streetview"></gx:option>
				</gx:ViewerOptions>
				<longitude>13.22634789706573</longitude>
				<latitude>43.09467630623811</latitude>
				<altitude>0</altitude>
				<heading>24.81261548348575</heading>
				<tilt>28.27812045802426</tilt>
				<range>160.9688470269359</range>
				<gx:altitudeMode>relativeToSeaFloor</gx:altitudeMode>
			</LookAt>
			<styleUrl>#m_ylw-pushpin</styleUrl>
			<Point>
				<gx:drawOrder>1</gx:drawOrder>
				<coordinates>13.22614893744827,43.09452476182347,0</coordinates>
			</Point>
		</Placemark>
		<Placemark>
			<name>30</name>
			<description>Gira a sinistra;Turn left</description>
			<LookAt>
				<gx:TimeStamp><when>2022-04-30</when>
</gx:TimeStamp>
				<gx:ViewerOptions>
					<gx:option name="historicalimagery"></gx:option>
					<gx:option enabled="0" name="sunlight"></gx:option>
					<gx:option enabled="0" name="streetview"></gx:option>
				</gx:ViewerOptions>
				<longitude>13.22791235764999</longitude>
				<latitude>43.09608880411052</latitude>
				<altitude>0</altitude>
				<heading>24.81370849890483</heading>
				<tilt>27.93583182153556</tilt>
				<range>141.0454728301391</range>
				<gx:altitudeMode>relativeToSeaFloor</gx:altitudeMode>
			</LookAt>
			<styleUrl>#m_ylw-pushpin</styleUrl>
			<Point>
				<gx:drawOrder>1</gx:drawOrder>
				<coordinates>13.22796089936372,43.09622348704824,0</coordinates>
			</Point>
		</Placemark>
		<Placemark>
			<name>31</name>
			<description>Tinei la sinistra;Keep left</description>
			<LookAt>
				<gx:TimeStamp><when>2022-04-30</when>
</gx:TimeStamp>
				<gx:ViewerOptions>
					<gx:option name="historicalimagery"></gx:option>
					<gx:option enabled="0" name="sunlight"></gx:option>
					<gx:option enabled="0" name="streetview"></gx:option>
				</gx:ViewerOptions>
				<longitude>13.22803591745492</longitude>
				<latitude>43.09609193078681</latitude>
				<altitude>0</altitude>
				<heading>24.81383512880182</heading>
				<tilt>27.37636267377669</tilt>
				<range>105.1030946712872</range>
				<gx:altitudeMode>relativeToSeaFloor</gx:altitudeMode>
			</LookAt>
			<styleUrl>#m_ylw-pushpin</styleUrl>
			<Point>
				<gx:drawOrder>1</gx:drawOrder>
				<coordinates>13.22772308751421,43.09639434470625,0</coordinates>
			</Point>
		</Placemark>
		<Placemark>
			<name>32</name>
			<description>Tieni la destra;Keep right</description>
			<LookAt>
				<gx:TimeStamp><when>2022-04-30</when>
</gx:TimeStamp>
				<gx:ViewerOptions>
					<gx:option name="historicalimagery"></gx:option>
					<gx:option enabled="0" name="sunlight"></gx:option>
					<gx:option enabled="0" name="streetview"></gx:option>
				</gx:ViewerOptions>
				<longitude>13.22583815779146</longitude>
				<latitude>43.10041567309226</latitude>
				<altitude>0</altitude>
				<heading>24.81233356773584</heading>
				<tilt>27.37749198006344</tilt>
				<range>378.5308122041167</range>
				<gx:altitudeMode>relativeToSeaFloor</gx:altitudeMode>
			</LookAt>
			<styleUrl>#m_ylw-pushpin</styleUrl>
			<Point>
				<gx:drawOrder>1</gx:drawOrder>
				<coordinates>13.22564356512002,43.10061009979449,0</coordinates>
			</Point>
		</Placemark>
		<Placemark>
			<name>33</name>
			<description>Gira a destra;Turn right</description>
			<LookAt>
				<gx:TimeStamp><when>2022-04-30</when>
</gx:TimeStamp>
				<gx:ViewerOptions>
					<gx:option name="historicalimagery"></gx:option>
					<gx:option enabled="0" name="sunlight"></gx:option>
					<gx:option enabled="0" name="streetview"></gx:option>
				</gx:ViewerOptions>
				<longitude>13.22626125526146</longitude>
				<latitude>43.10105996080195</latitude>
				<altitude>0</altitude>
				<heading>24.81262266424018</heading>
				<tilt>27.37749198006296</tilt>
				<range>378.5308122027694</range>
				<gx:altitudeMode>relativeToSeaFloor</gx:altitudeMode>
			</LookAt>
			<styleUrl>#m_ylw-pushpin</styleUrl>
			<Point>
				<gx:drawOrder>1</gx:drawOrder>
				<coordinates>13.22538498754209,43.101631075044,0</coordinates>
			</Point>
		</Placemark>
		<Placemark>
			<name>34</name>
			<description>Segui il percorso;Follow the path</description>
			<LookAt>
				<gx:TimeStamp><when>2022-04-30</when>
</gx:TimeStamp>
				<gx:ViewerOptions>
					<gx:option name="historicalimagery"></gx:option>
					<gx:option enabled="0" name="sunlight"></gx:option>
					<gx:option enabled="0" name="streetview"></gx:option>
				</gx:ViewerOptions>
				<longitude>13.22949911551218</longitude>
				<latitude>43.10234228076504</latitude>
				<altitude>0</altitude>
				<heading>24.81483509094155</heading>
				<tilt>27.37749198006317</tilt>
				<range>378.5308122022555</range>
				<gx:altitudeMode>relativeToSeaFloor</gx:altitudeMode>
			</LookAt>
			<styleUrl>#m_ylw-pushpin</styleUrl>
			<Point>
				<gx:drawOrder>1</gx:drawOrder>
				<coordinates>13.22949911551218,43.10234228076503,0</coordinates>
			</Point>
		</Placemark>
		<Placemark>
			<name>35</name>
			<description>Gira a destra;Turn right</description>
			<LookAt>
				<gx:TimeStamp><when>2022-04-30</when>
</gx:TimeStamp>
				<gx:ViewerOptions>
					<gx:option name="historicalimagery"></gx:option>
					<gx:option enabled="0" name="sunlight"></gx:option>
					<gx:option enabled="0" name="streetview"></gx:option>
				</gx:ViewerOptions>
				<longitude>13.23649685724912</longitude>
				<latitude>43.10231049755379</latitude>
				<altitude>0</altitude>
				<heading>24.81961663729798</heading>
				<tilt>27.37749198006287</tilt>
				<range>378.5308122046214</range>
				<gx:altitudeMode>relativeToSeaFloor</gx:altitudeMode>
			</LookAt>
			<styleUrl>#m_ylw-pushpin</styleUrl>
			<Point>
				<gx:drawOrder>1</gx:drawOrder>
				<coordinates>13.23668936577109,43.10317230551084,0</coordinates>
			</Point>
		</Placemark>
		<Placemark>
			<name>36</name>
			<description>Continua dritto e immettiti sulla Strada provinciale 88;Continue straight and enter the Provincial Road 88</description>
			<LookAt>
				<gx:TimeStamp><when>2022-04-30</when>
</gx:TimeStamp>
				<gx:ViewerOptions>
					<gx:option name="historicalimagery"></gx:option>
					<gx:option enabled="0" name="sunlight"></gx:option>
					<gx:option enabled="0" name="streetview"></gx:option>
				</gx:ViewerOptions>
				<longitude>13.24534961621664</longitude>
				<latitude>43.10629129275809</latitude>
				<altitude>0</altitude>
				<heading>24.82566590759767</heading>
				<tilt>27.37749198006351</tilt>
				<range>378.5308122012361</range>
				<gx:altitudeMode>relativeToSeaFloor</gx:altitudeMode>
			</LookAt>
			<styleUrl>#m_ylw-pushpin</styleUrl>
			<Point>
				<gx:drawOrder>1</gx:drawOrder>
				<coordinates>13.24466135000943,43.1058450716362,0</coordinates>
			</Point>
		</Placemark>
		<Placemark>
			<name>37</name>
			<description>Gira a sinistra;Turn left</description>
			<LookAt>
				<gx:TimeStamp><when>2022-04-30</when>
</gx:TimeStamp>
				<gx:ViewerOptions>
					<gx:option name="historicalimagery"></gx:option>
					<gx:option enabled="0" name="sunlight"></gx:option>
					<gx:option enabled="0" name="streetview"></gx:option>
				</gx:ViewerOptions>
				<longitude>13.25791927059315</longitude>
				<latitude>43.10820937318429</latitude>
				<altitude>0</altitude>
				<heading>24.83417436821508</heading>
				<tilt>28.74056273475642</tilt>
				<range>164.9754472154289</range>
				<gx:altitudeMode>relativeToSeaFloor</gx:altitudeMode>
			</LookAt>
			<styleUrl>#m_ylw-pushpin</styleUrl>
			<Point>
				<gx:drawOrder>1</gx:drawOrder>
				<coordinates>13.25752921539848,43.10816507740418,0</coordinates>
			</Point>
		</Placemark>
		<Placemark>
			<name>38</name>
			<description>Arrivo;End</description>
			<LookAt>
				<gx:TimeStamp><when>2022-04-30</when>
</gx:TimeStamp>
				<gx:ViewerOptions>
					<gx:option name="historicalimagery"></gx:option>
					<gx:option enabled="0" name="sunlight"></gx:option>
					<gx:option enabled="0" name="streetview"></gx:option>
				</gx:ViewerOptions>
				<longitude>13.25837349779236</longitude>
				<latitude>43.10858398687528</latitude>
				<altitude>0</altitude>
				<heading>24.83448468998346</heading>
				<tilt>28.74089515794714</tilt>
				<range>242.0152675393842</range>
				<gx:altitudeMode>relativeToSeaFloor</gx:altitudeMode>
			</LookAt>
			<styleUrl>#m_ylw-pushpin</styleUrl>
			<Point>
				<gx:drawOrder>1</gx:drawOrder>
				<coordinates>13.25843441549734,43.1091706506685,0</coordinates>
			</Point>
		</Placemark>
		<atom:link rel="app" href="https://www.google.com/earth/about/versions/#earth-pro" title="Google Earth Pro 7.3.6.10201"></atom:link>
	</Folder>
</Document>
</kml>
