<?xml version="1.0" encoding="UTF-8"?>
<kml xmlns="http://www.opengis.net/kml/2.2" xmlns:gx="http://www.google.com/kml/ext/2.2" xmlns:kml="http://www.opengis.net/kml/2.2" xmlns:atom="http://www.w3.org/2005/Atom">
<Document id="18z5FnMZhBcZ8FGBpTAUE8qMw2LS3wI7y">
	<name>Cessapalombo</name>
	<gx:CascadingStyle kml:id="__managed_style_07CA43807235A3D8C8BA">
		<Style>
			<IconStyle>
				<scale>1.2</scale>
				<Icon>
					<href>https://earth.google.com/earth/document/icon?color=fbc02d&amp;id=2000&amp;scale=4</href>
				</Icon>
				<hotSpot x="64" y="128" xunits="pixels" yunits="insetPixels"/>
			</IconStyle>
			<LabelStyle>
			</LabelStyle>
			<LineStyle>
				<color>ff2dc0fb</color>
				<width>6</width>
			</LineStyle>
			<PolyStyle>
				<color>40ffffff</color>
			</PolyStyle>
			<BalloonStyle>
				<gx:displayMode>card</gx:displayMode>
			</BalloonStyle>
		</Style>
	</gx:CascadingStyle>
	<StyleMap id="__managed_style_0937B7230535A3D8C8B9">
		<Pair>
			<key>normal</key>
			<styleUrl>#__managed_style_1CCAF3080B35A3D8C8B9</styleUrl>
		</Pair>
		<Pair>
			<key>highlight</key>
			<styleUrl>#__managed_style_07CA43807235A3D8C8BA</styleUrl>
		</Pair>
	</StyleMap>
	<gx:CascadingStyle kml:id="__managed_style_2D114DBE7035A3D8C8B8">
		<Style>
			<IconStyle>
				<scale>1.2</scale>
				<Icon>
					<href>https://earth.google.com/earth/document/icon?color=1976d2&amp;id=2000&amp;scale=4</href>
				</Icon>
				<hotSpot x="64" y="128" xunits="pixels" yunits="insetPixels"/>
			</IconStyle>
			<LabelStyle>
			</LabelStyle>
			<LineStyle>
				<color>ff2dc0fb</color>
				<width>6</width>
			</LineStyle>
			<PolyStyle>
				<color>40ffffff</color>
			</PolyStyle>
			<BalloonStyle>
			</BalloonStyle>
		</Style>
	</gx:CascadingStyle>
	<gx:CascadingStyle kml:id="__managed_style_1FE934883F35A3D8C8B8">
		<Style>
			<IconStyle>
				<Icon>
					<href>https://earth.google.com/earth/document/icon?color=1976d2&amp;id=2000&amp;scale=4</href>
				</Icon>
				<hotSpot x="64" y="128" xunits="pixels" yunits="insetPixels"/>
			</IconStyle>
			<LabelStyle>
			</LabelStyle>
			<LineStyle>
				<color>ff2dc0fb</color>
				<width>4</width>
			</LineStyle>
			<PolyStyle>
				<color>40ffffff</color>
			</PolyStyle>
			<BalloonStyle>
			</BalloonStyle>
		</Style>
	</gx:CascadingStyle>
	<gx:CascadingStyle kml:id="__managed_style_1CCAF3080B35A3D8C8B9">
		<Style>
			<IconStyle>
				<Icon>
					<href>https://earth.google.com/earth/document/icon?color=fbc02d&amp;id=2000&amp;scale=4</href>
				</Icon>
				<hotSpot x="64" y="128" xunits="pixels" yunits="insetPixels"/>
			</IconStyle>
			<LabelStyle>
			</LabelStyle>
			<LineStyle>
				<color>ff2dc0fb</color>
				<width>4</width>
			</LineStyle>
			<PolyStyle>
				<color>40ffffff</color>
			</PolyStyle>
			<BalloonStyle>
				<gx:displayMode>card</gx:displayMode>
			</BalloonStyle>
		</Style>
	</gx:CascadingStyle>
	<StyleMap id="__managed_style_094B4B060E35A3D8C8B8">
		<Pair>
			<key>normal</key>
			<styleUrl>#__managed_style_1FE934883F35A3D8C8B8</styleUrl>
		</Pair>
		<Pair>
			<key>highlight</key>
			<styleUrl>#__managed_style_2D114DBE7035A3D8C8B8</styleUrl>
		</Pair>
	</StyleMap>
	<Folder id="02DFB8BAFF35992B3B98">
		<name>CessapalomboAR</name>
		<open>1</open>
		<styleUrl>#__managed_style_094B4B060E35A3D8C8B8</styleUrl>
		<Placemark id="0A220739B835992CA29A">
			<name>CessapalomboAR</name>
			<LookAt>
				<longitude>13.258127119188</longitude>
				<latitude>43.10870512063332</latitude>
				<altitude>441.0496818628689</altitude>
				<heading>0</heading>
				<tilt>0</tilt>
				<gx:fovy>30</gx:fovy>
				<range>191.9491018130248</range>
				<altitudeMode>absolute</altitudeMode>
			</LookAt>
			<styleUrl>#__managed_style_094B4B060E35A3D8C8B8</styleUrl>
			<LineString>
				<coordinates>
					13.25836814760838,43.1091571493791,0 13.25857171196376,43.10896103601831,0 13.25848065827105,43.10892073153048,0 13.25842002256659,43.10887221229298,0 13.25827349412933,43.10882342805279,0 13.25820566799642,43.10886415126635,0 13.25817894153833,43.10874902877589,0 13.25791060795798,43.10863648157697,0 13.25757738721818,43.10859761127137,0 13.25729522092383,43.10853465644492,0 13.25727446825608,43.10845729443708,0 13.25732376400187,43.10837794418821,0 13.25761051145021,43.10840647217648,0 13.25848909179397,43.10859296954375,0 13.25863029726588,43.10858946946792,0 13.25851822053549,43.10855121109037,0 13.25761274598865,43.10825157822507,0 13.25626003476325,43.10801728316291,0 13.25546257390393,43.10747362825437,0 13.25548505183514,43.10745286796104,0 13.2563711080323,43.10800872374212,0 13.25750745951481,43.10820867227434,0 13.25694729230977,43.10855877693926,0 13.25654892843596,43.1086342787364,0 13.25613996808178,43.10859898811916,0 13.25495073938014,43.10801126672327,0 13.25439120130471,43.10795561795319,0 13.25418974555357,43.10789279478306,0 13.25365484687558,43.10759539553776,0 13.25317971481776,43.10726594688567,0 13.25231542415071,43.1063838703801,0 13.25211727678451,43.10633009473218,0 13.25192928683686,43.10634869167558,0 13.25101568006638,43.10669124089545,0 13.25048023044766,43.10673636492223,0 13.24887813759588,43.10663148159651,0 13.24861695889795,43.1065435667734,0 13.24794999131131,43.10618015069726,0 13.24751315087063,43.10615378299492,0 13.24655336565656,43.10627889460071,0 13.24606389623403,43.1063314591066,0 13.2457330579773,43.10631279516067,0 13.24526737671976,43.10618246065471,0 13.24460758573748,43.10589567331557,0 13.24443225922844,43.10587408093499,0 13.24407469415947,43.10593115694697,0 13.24366649821253,43.10604582189247,0 13.24338974728987,43.10619970195072,0 13.24319873054147,43.10624501863387,0 13.24256822461978,43.10619190361422,0 13.24246025110481,43.10626249939119,0 13.24245833999999,43.10634597838364,0 13.24249315273247,43.1064353466959,0 13.2433540424036,43.10672919186194,0 13.2436108213795,43.10691562810372,0 13.24415296063447,43.10752251337405,0 13.24416412453308,43.10769590929046,0 13.24412988247715,43.10777932471223,0 13.24366453734985,43.1083706515688,0 13.24366755546943,43.10852861425957,0 13.24379049909389,43.10863844109016,0 13.24400952906037,43.10869132139428,0 13.24387891025796,43.1088181186223,0 13.24360611846495,43.10876895606497,0 13.24341655380909,43.1086376915385,0 13.24329989175264,43.10848454708351,0 13.24328028576834,43.10828269986201,0 13.24331491639553,43.10798767521529,0 13.24325464019364,43.10789477187305,0 13.24310677114585,43.10783664956885,0 13.24233501087059,43.10768166111352,0 13.24209683802334,43.10767550549354,0 13.24182275381121,43.10780698511729,0 13.2413921362859,43.10805346072279,0 13.2404547006695,43.10839510119256,0 13.24033520770522,43.10840365506767,0 13.24022393242825,43.1083688771381,0 13.24012775085998,43.1083182311764,0 13.23988597449265,43.10791982882569,0 13.23978905110949,43.10785013107732,0 13.23954162740053,43.10777175288409,0 13.23920979930213,43.1077298095244,0 13.23898687408407,43.10774375079162,0 13.23881257323719,43.10779338131803,0 13.23780197766113,43.10821959988049,0 13.23758176074976,43.1082339203233,0 13.23743839158696,43.10817609008507,0 13.23726312883709,43.10797253905956,0 13.23720263674075,43.10781654875304,0 13.23726474629701,43.10741696842959,0 13.23724498897801,43.1072725339076,0 13.23705719031437,43.10691173030057,0 13.23685236455816,43.10665866500332,0 13.2364987478702,43.10651677137723,0 13.2361082770361,43.10638100518918,0 13.23593503716885,43.10638093640281,0 13.23579400723969,43.10641066958364,0 13.23559936227451,43.10649832190762,0 13.23544342893908,43.10664033534859,0 13.23531680967917,43.10688352369312,0 13.23498091972753,43.10718625746019,0 13.23454507405078,43.10768715009967,0 13.23416505117356,43.10820538767176,0 13.23378693372952,43.1088480492184,0 13.23344725854534,43.10920407296823,0 13.2330364447706,43.10943499606279,0 13.23261921647245,43.10953797743245,0 13.23230686982702,43.1095082539103,0 13.23201809383253,43.10939770641824,0 13.23151472886362,43.10908654745738,0 13.23134291295448,43.10883788246954,0 13.23127262617077,43.10862147981718,0 13.23126371034005,43.10810818460372,0 13.23131491622972,43.10759581520739,0 13.23131316154526,43.10744533328221,0 13.23122863555054,43.10733600583639,0 13.23107851002921,43.1072443315004,0 13.23085012497484,43.10717051593758,0 13.23065068246309,43.10710659602515,0 13.23053571141263,43.10700280008881,0 13.23019096552525,43.10660546797958,0 13.22991551199839,43.1065417725892,0 13.22961348566734,43.10650845640941,0 13.22906355674776,43.1064051762018,0 13.22868364390645,43.10633735258256,0 13.22837643415414,43.10634987930569,0 13.22809357439626,43.10639909417479,0 13.22782387801198,43.10638973444453,0 13.22757205090655,43.10629919787027,0 13.22743682931452,43.10616348689226,0 13.22715827934577,43.10551113124793,0 13.22705797358951,43.10535509118869,0 13.22702384024334,43.10519171168111,0 13.22705188958743,43.1050204821203,0 13.22706393879116,43.10482309306181,0 13.22692854194081,43.10453103635661,0 13.22654969483944,43.10414615231495,0 13.22612255943921,43.10378582421098,0 13.22577822257321,43.10360116803012,0 13.22534646583949,43.10346514191886,0 13.22459442279849,43.10323575140773,0 13.22426576776708,43.10300486404541,0 13.22419066684889,43.10283807294469,0 13.22417182129687,43.10269430421266,0 13.22428821902405,43.10240288915655,0 13.22448571545338,43.10213393849619,0 13.22510355697197,43.10156366084824,0 13.22548930917431,43.10096761296133,0 13.22547676977181,43.10069952055854,0 13.22530639763983,43.1005823832046,0 13.22510903182454,43.10061140061089,0 13.22492375266174,43.10069088606905,0 13.22461043153716,43.10085441199227,0 13.22438546257502,43.10109048741641,0 13.22426198739038,43.10136391661465,0 13.2240926862158,43.10162270346697,0 13.22385369868132,43.1017551328611,0 13.22329291312881,43.10198553432852,0 13.22319210761026,43.10205847685253,0 13.22313574171255,43.1022135622937,0 13.22319949126235,43.10243297946509,0 13.22321543975153,43.10265681325269,0 13.22304491211093,43.10297811314674,0 13.22272639491884,43.10329782516037,0 13.22243371294753,43.10361373258384,0 13.22245379134113,43.10368843623323,0 13.22247303260711,43.10377935948872,0 13.22268147424053,43.10394350201684,0 13.22289919069519,43.10403631932278,0 13.2231746285989,43.10409065389896,0 13.22332781572051,43.10418676218242,0 13.22356341671328,43.1042898879714,0 13.22389348416519,43.10443435670117,0 13.22409946561323,43.10449210570878,0 13.22431576664781,43.10454683529649,0 13.22486086194697,43.10475908547262,0 13.22525498189792,43.10498229311891,0 13.22530611720078,43.10508756482326,0 13.22533152021039,43.1051367119809,0 13.22530911969595,43.10520274340795,0 13.22520246467186,43.10517243523315,0 13.22505344490649,43.1050998107076,0 13.22482004370832,43.10503984923817,0 13.22490833422578,43.10513103615941,0 13.22481872946459,43.1051566824212,0 13.22456213019651,43.10504685638735,0 13.2248109063862,43.1050220010954,0 13.22505050359701,43.10508129238929,0 13.22528526748343,43.10517529140608,0 13.22527357961487,43.10509285783994,0 13.22520334673078,43.10498887913821,0 13.22484524963285,43.10478197162917,0 13.22431795162597,43.10457481564446,0 13.22407680567163,43.1045190567664,0 13.22388263450266,43.10446413440906,0 13.2235423891066,43.10431711260436,0 13.22329555430109,43.10421342340033,0 13.22315453951348,43.10411493070274,0 13.22288952622157,43.10405572996297,0 13.22265705565615,43.10396497131782,0 13.22242375225761,43.10377911295077,0 13.22239318724475,43.10359959348661,0 13.22299140162043,43.10296312262054,0 13.22316475266293,43.10265354755726,0 13.22314844538124,43.10243337811728,0 13.22307231341773,43.10222033538125,0 13.22314326520526,43.10204894353063,0 13.223251054376,43.1019550184608,0 13.22380900357209,43.10173078161909,0 13.22404397274079,43.10158943815119,0 13.224195801067,43.10136229702565,0 13.2243399317412,43.10107949900446,0 13.224556951782,43.10082699739174,0 13.22483510631282,43.10066549281992,0 13.22508160992045,43.10056758485145,0 13.22531005398508,43.1005388889138,0 13.22553488120596,43.10062578241043,0 13.2259013657623,43.10009641700422,0 13.22612252178955,43.09976952333177,0 13.2261531226988,43.09958782599356,0 13.22605942564094,43.09880608642852,0 13.22606582705348,43.09856595791274,0 13.22613115799522,43.09843827360299,0 13.22634985214261,43.09823062858661,0 13.22649327248351,43.09798788691578,0 13.22665655958559,43.09746363226769,0 13.22681462595423,43.09690347995975,0 13.22706469603259,43.09638435617808,0 13.22734337680291,43.09629582545812,0 13.22764777723136,43.09631625232536,0 13.22769070477174,43.09632668636063,0 13.22775798152892,43.09631112692626,0 13.22789247295032,43.0962112997323,0 13.22775938826963,43.09603906134099,0 13.22755782837637,43.09578753425863,0 13.2273351306226,43.09555096897184,0 13.22687453270255,43.09531920772635,0 13.22640027253889,43.09472456535569,0 13.2260297370979,43.09455007604151,0 13.22661092347446,43.09408410117581,0 13.22708829213592,43.09399020571343,0 13.22736108964958,43.09381483983855,0 13.22799483895744,43.09303877381753,0 13.22864611803301,43.09249304622067,0 13.22921886076591,43.09194737676998,0 13.22988664742322,43.09120084593157,0 13.23075864678869,43.0895611640308,0 13.23084814958896,43.08872012770166,0 13.230947711446,43.08851492200753,0 13.23123042086955,43.08822475815439,0 13.23148219490255,43.08790150069353,0 13.23148489237486,43.08769074667271,0 13.23150438146256,43.08756607967033,0 13.23186327736896,43.08706675749051,0 13.23240077062686,43.0859977879655,0 13.23301120700471,43.0853508358167,0 13.23313524016545,43.08520853663005,0 13.23318911071643,43.08503539670667,0 13.23320594453848,43.08456561866075,0 13.23319131304077,43.08433075279064,0 13.23312741241904,43.08408584960095,0 13.23294391219822,43.08360780843439,0 13.23278818897378,43.08339666829329,0 13.23271860100683,43.0832484644026,0 13.23269457265489,43.08308828855902,0 13.23287702211501,43.08258476945562,0 13.2328594767308,43.08242384028659,0 13.23279116255483,43.08231376661119,0 13.23255124864241,43.08212133228676,0 13.2326259526643,43.0819911969348,0 13.2329239425261,43.08161103153395,0 13.23303015322438,43.08143634571434,0 13.23324386341037,43.08077674033122,0 13.2332614660188,43.08068293828326,0 13.23322679218277,43.08056951722058,0 13.23322619554294,43.08050040547524,0 13.23333310413891,43.08039262772918,0 13.23359640709377,43.08008378008463,0 13.23365715608765,43.07993097187058,0 13.23365652890129,43.07982103023715,0 13.23363081406672,43.0797020264792,0 13.23344507347342,43.07922519935686,0 13.23342832432885,43.07903482025363,0 13.23351073206546,43.07882440655469,0 13.23363505928924,43.07857767777275,0 13.23397956843852,43.0782598124084,0 13.2343168802091,43.07791329426276,0 13.23433945274256,43.07772394491327,0 13.23428255170104,43.07754470181634,0 13.23430424602976,43.07737229736345,0 13.23440917750355,43.07722539536851,0 13.2346547751812,43.07695879662101,0 13.23495929146431,43.07678836382352,0 13.23502545500362,43.07671887536927,0 13.2350534819479,43.07664233741173,0 13.23502812591147,43.07626484576782,0 13.23515995539355,43.07562285454071,0 13.23511431341525,43.07551717598403,0 13.23495714954073,43.07542807200286,0 13.23478580028485,43.07539869016361,0 13.23462040041937,43.07541771425002,0 13.23439560508738,43.07548282885361,0 13.23417750837305,43.07556417351728,0 13.23344508948201,43.07599214662835,0 13.23330969061641,43.07598291904065,0 13.23320612889615,43.07593391093206,0 13.23320320443968,43.07586380614251,0 13.23337605506805,43.07563045343223,0 13.23347764202289,43.07536564570437,0 13.23349142289408,43.0751156561698,0 13.2335255101937,43.07500101256294,0 13.23369268930162,43.07478021154522,0 13.23373383055614,43.07468700735625,0 13.23393743459259,43.07413292171623,0 13.23398062822942,43.07406472955496,0 13.23426336962766,43.07387254225122,0 13.23436680293218,43.07375320545695,0 13.2344692854047,43.07360857284306,0 13.23457367730519,43.07331832172287,0 13.23465732171047,43.0731880340468,0 13.23478752500476,43.0731403507543,0 13.23512684787944,43.07309805578094,0 13.23565059951148,43.07308445429277,0 13.23598537488484,43.07302872381734,0 13.23627131398928,43.07300752679759,0 13.23648211498574,43.07303298043144,0 13.23672154879,43.07314241006774,0 13.23686390725112,43.07321044221462,0 13.23699237188133,43.07325889922463,0 13.23725795497893,43.07326429189765,0 13.23750453150798,43.07318608717483,0 13.23766394615818,43.07303067795495,0 13.23773817639412,43.07288915389945,0 13.23772395104686,43.07269672995147,0 13.237647249403,43.07265028444866,0 13.2372199130432,43.07268952303335,0 13.23719799867696,43.07260143638155,0 13.23734920991707,43.07255499093588,0 13.23746417178643,43.07245274785905,0 13.23752443703862,43.07236386052431,0 13.2376208610999,43.07226376211185,0 13.23768331748462,43.07222372268579,0 13.23771947638963,43.07218528481889,0 13.23774796518578,43.0721468469373,0 13.23774689861444,43.07209839844391,0 13.23771402675211,43.07205595676657,0 13.23762542353463,43.07205272971472,0 13.23728794068544,43.07206634361257,0 13.23698572886763,43.07204158727685,0 13.23665153335233,43.07203277829626,0 13.23633953254406,43.07198633537627,0 13.23623982189922,43.07196471396644,0 13.23620475887166,43.0719446942059,0 13.23619051460843,43.07191586582139,0 13.23620585485444,43.07187902963303,0 13.23623872657197,43.07185020135421,0 13.23651594361351,43.07178213463803,0 13.23852401206845,43.0711028173252,0 13.23860993513859,43.07108692615418,0 13.23865921118118,43.07106365612225,0 13.23871303584542,43.07105866958607,0 13.23874942418382,43.07101545385003,0 13.23865486766921,43.07100602583214,0 13.23810828183629,43.07104591867991,0 13.23673941480259,43.07101534569543,0 13.23645949868442,43.07099358787374,0 13.2361174959379,43.07095003616011,0 13.2358638022319,43.07088023741518,0 13.23551421808515,43.07072792641306,0 13.23509319457421,43.07057265334663,0 13.23481702882125,43.07042304069951,0 13.23466172855316,43.07027117307761,0 13.23457416785001,43.0700844197961,0 13.23455666991116,43.06992615761805,0 13.23455667042261,43.06978068428434,0 13.23458345198178,43.06966983908318,0 13.23455848689788,43.06957159054735,0 13.23450650355601,43.06946419095746,0 13.2344157489909,43.06920432454152,0 13.2343723849802,43.0691455696284,0 13.23428038696361,43.06912921438946,0 13.23408520184507,43.06914829518361,0 13.23399941987222,43.06913648284746,0 13.23388877363697,43.06910649786695,0 13.23376087081064,43.06904006572619,0 13.23356741110592,43.06887569021004,0 13.23345819147748,43.06876085368638,0 13.23335568080685,43.06866912509862,0 13.23327546154547,43.06860512478917,0 13.2331236541313,43.06856766374827,0 13.23300389598194,43.0685879700656,0 13.23292533448979,43.06862018013647,0 13.23286018570666,43.06867339686744,0 13.23283266404933,43.06873132014304,0 13.23283170892205,43.06879642975343,0 13.23285374460447,43.06885454816756,0 13.23285374476834,43.0689336732683,0 13.23282787692573,43.06896798418058,0 13.23278476375511,43.06898969109775,0 13.23272823755096,43.06898969110849,0 13.23269566315058,43.0689553802131,0 13.23264665406221,43.0688231415195,0 13.23263088282603,43.06875734298689,0 13.23262025260371,43.06860322649497,0 13.23259607912479,43.068526898327,0 13.2325656400481,43.06837287903357,0 13.23257711569974,43.06823630506494,0 13.23260870604231,43.06808246604855,0 13.23264226718221,43.06801458350803,0 13.23270236481278,43.06796381421193,0 13.23281715377368,43.06791094753459,0 13.23291016127025,43.06788304034674,0 13.23346428921352,43.06778987955494,0 13.23358850620683,43.06772758554458,0 13.23367437034855,43.06766483134273,0 13.23396149611443,43.06753146538414,0 13.2342338620484,43.06738731170078,0 13.23436506854424,43.06733762244508,0 13.23446703794051,43.06731604844102,0 13.2345609570968,43.06729937752645,0 13.23463743404577,43.06727290025712,0 13.23470720228904,43.06722092650166,0 13.23476757822131,43.06712090169299,0 13.23477409206552,43.06718155042508,0 13.23472579368222,43.06723324404592,0 13.23464707298986,43.06729479455691,0 13.23456517005652,43.06731920143971,0 13.23447481926431,43.06733478377194,0 13.23437849139593,43.06735416299685,0 13.23424613780585,43.06740188841462,0 13.23411191923475,43.06747360957566,0 13.23397460331569,43.06754665871002,0 13.23369173754884,43.0676791242382,0 13.2336041928909,43.0677375648569,0 13.23347486761765,43.06780084522572,0 13.23292232505714,43.0678931092659,0 13.23282307510453,43.0679234390773,0 13.23272129182626,43.06797220081896,0 13.23266299377054,43.06802198934769,0 13.23263069471922,43.06808766207051,0 13.23260660486755,43.06823370218888,0 13.23259361022483,43.06836633443522,0 13.23261891724585,43.06852053003665,0 13.23264130647428,43.06859914552772,0 13.23264951190346,43.06875622022519,0 13.23266958453825,43.06881903452347,0 13.23271315373704,43.06894891247608,0 13.23273730705404,43.0689764576726,0 13.23278219401459,43.06897637381645,0 13.2328156131147,43.06895543739276,0 13.23283546500915,43.06892580324285,0 13.23283510264495,43.06885657935245,0 13.23281048928782,43.06879759789441,0 13.23281441564092,43.06872745433294,0 13.23284215348107,43.06866387596951,0 13.23291087628825,43.06861080948202,0 13.23299397667075,43.06857527433405,0 13.23312862647929,43.06855046274082,0 13.2332914615716,43.06858717607168,0 13.2335983126821,43.06885351874519,0 13.23378858966767,43.06901245971772,0 13.23390360724501,43.06908826120814,0 13.2340901600948,43.06912999666634,0 13.23417903501058,43.06911764065581,0 13.23428210071368,43.06911129252511,0 13.23438474192924,43.06913091380221,0 13.23443801449664,43.06919752231804,0 13.23452441710741,43.0694597432142,0 13.23457897687741,43.06956612364306,0 13.23460378447808,43.06966629418066,0 13.23458218416019,43.06977990663832,0 13.23457581647581,43.06992407021532,0 13.23459741448625,43.0700828032225,0 13.23468303957173,43.07026255016639,0 13.23483658430336,43.07040926628537,0 13.23510374463622,43.07055466430062,0 13.23553292266445,43.07070918518482,0 13.23587351293838,43.07085410324066,0 13.23612726049894,43.07092589493905,0 13.2364539735933,43.07096863208376,0 13.23673070739249,43.070984977148,0 13.23809278070679,43.0710226178028,0 13.2386680843706,43.07097914683091,0 13.2387758043269,43.0709929955981,0 13.2387921672862,43.07102960304985,0 13.23874250573869,43.07108331967731,0 13.23867035428981,43.07108256301615,0 13.23862187941512,43.07110454381479,0 13.23853043563973,43.07112085443668,0 13.23652011239921,43.07180102307635,0 13.2362342257149,43.07187333765965,0 13.23622133832129,43.07191230895776,0 13.23623316387383,43.07194280355314,0 13.23634938904384,43.0719663254364,0 13.23665489405792,43.07201104315902,0 13.23698648637149,43.07202055554455,0 13.23728027706788,43.07204252300458,0 13.2376254204219,43.07203181220945,0 13.23772635541628,43.07203290525309,0 13.23778043966316,43.07209034579222,0 13.23777594858182,43.07214905107715,0 13.23774292127003,43.07219589735892,0 13.23770591665382,43.07223686046282,0 13.23764430083719,43.07227523486829,0 13.23755863932712,43.0723691833786,0 13.23749699523072,43.07245894419476,0 13.2373758814141,43.07257011726806,0 13.23723707272514,43.07260868757107,0 13.23724877135772,43.07266916293007,0 13.23765658555311,43.07262953597414,0 13.23775744915996,43.07268726900694,0 13.23777991976927,43.07289198410466,0 13.23768495819765,43.073043539525,0 13.23753652352905,43.0732114066519,0 13.23726965333765,43.07329738801607,0 13.23698856036439,43.07328576888145,0 13.23683871953894,43.0732334327466,0 13.23670231288163,43.07316047885511,0 13.23647068920332,43.0730582991223,0 13.23626534613568,43.07303211662744,0 13.23598956841323,43.07305314088535,0 13.23565487044868,43.07310849987316,0 13.23513002193905,43.07311790286629,0 13.2347952923576,43.07315950948779,0 13.2346701553019,43.07320271922826,0 13.23459636099298,43.07332144480528,0 13.23451625816021,43.07363132878373,0 13.23440916532167,43.07378634480605,0 13.23430274016411,43.07390042746848,0 13.23403281766577,43.07408365927139,0 13.23399219419619,43.07415184766926,0 13.23378664275094,43.07469940559496,0 13.23373700054358,43.07479587263566,0 13.23357465239421,43.07501051656589,0 13.23352666029056,43.07512082141641,0 13.23352371368368,43.0753751573216,0 13.2334106701621,43.07564963673241,0 13.2332442733885,43.07586125058555,0 13.23325546666796,43.07591365788164,0 13.23333655235115,43.0759559772265,0 13.23342609768997,43.07595739966323,0 13.23414454208117,43.07553933573089,0 13.23460548331575,43.07537928065735,0 13.23478049221129,43.07536469359409,0 13.23497162741489,43.07539560720616,0 13.23515322651613,43.07550576571069,0 13.23519946703948,43.07561898923335,0 13.23507375717948,43.07626952493648,0 13.23508901367175,43.07664226333759,0 13.23505639898348,43.07673307823262,0 13.23497391383119,43.07680689297646,0 13.23469834275241,43.07699294231595,0 13.2344385861794,43.07723596855615,0 13.23434013487929,43.0773792286427,0 13.23430841507323,43.07754522772298,0 13.23438024207378,43.07772453947096,0 13.23434815656698,43.07792105361786,0 13.23400123505636,43.07827416226795,0 13.23366122667799,43.07859107707843,0 13.23354529721317,43.07883291381146,0 13.23346736946107,43.07903930874721,0 13.23347836984422,43.07921866598485,0 13.23365837810536,43.07969372208259,0 13.23368921603355,43.07981665103163,0 13.23369042124246,43.07993531243231,0 13.23361879378244,43.08009146188414,0 13.233485327734,43.08024679452257,0 13.23335288148873,43.08040160991077,0 13.23325734723594,43.08050175433962,0 13.23326202300793,43.08056314024278,0 13.23329220881547,43.08067693155833,0 13.2332807289807,43.08078129887791,0 13.23306257374765,43.08143792480417,0 13.23295072531299,43.08162260967001,0 13.23266083230195,43.08199793366383,0 13.23259097790111,43.08210560096177,0 13.23275244265596,43.08223784424416,0 13.23284001385607,43.08231759491844,0 13.23288652142552,43.08240752331778,0 13.23291542883605,43.08258594238392,0 13.23271554321579,43.08309343652564,0 13.23274614114512,43.08324468200621,0 13.23280665143358,43.08338338419487,0 13.23297565123785,43.08360153567079,0 13.23316699229132,43.08407701955531,0 13.23324551759775,43.08432398393944,0 13.23324852039331,43.08456619654682,0 13.23322174921026,43.08503518107655,0 13.23316869660711,43.08521654701774,0 13.2330463845985,43.08536359229717,0 13.23245758150658,43.08599848476068,0 13.23191469811096,43.08708205346597,0 13.23155608181472,43.08757288079867,0 13.23153950740378,43.08769760569635,0 13.23153473608402,43.08791439350693,0 13.23124749687043,43.08825034372449,0 13.23099394017537,43.08853712126586,0 13.23089102452624,43.08872545802551,0 13.23080558978732,43.08956898545281,0 13.22992228576747,43.09122008989964,0 13.22926800553416,43.09196868761433,0 13.22866826464321,43.09254085542446,0 13.22801831154243,43.09308389294588,0 13.22740496622881,43.09385999046805,0 13.22709129321583,43.09404008041388,0 13.22664076848537,43.09412135426187,0 13.22611130648121,43.09453224824649,0 13.22649510324258,43.09473421961488,0 13.22691173581094,43.09531064447517,0 13.22737237006247,43.09555961217243,0 13.22758691269209,43.09578339186933,0 13.22793209257347,43.09622240724976,0 13.22771650395983,43.09637307913355,0 13.22762603753389,43.0963527072862,0 13.2273466558106,43.09633016320798,0 13.22710696728557,43.09641467452288,0 13.22686526028056,43.09690595977131,0 13.22669682161313,43.09747343745367,0 13.2265252984669,43.09803378566275,0 13.22636859940949,43.09825546687912,0 13.22615422861326,43.0984502576357,0 13.22611455433815,43.09857259095693,0 13.22612859856777,43.09880820807834,0 13.2262227329698,43.09957604160179,0 13.22618452244896,43.09977785642724,0 13.22595403152355,43.10011306532913,0 13.22558036113582,43.10064124084225,0 13.22554820877233,43.10093565618676,0 13.2254408865958,43.1013505614233,0 13.22530641894702,43.10166688909355,0 13.22560565707778,43.10191903262811,0 13.22571183512246,43.10203859271444,0 13.22579455148971,43.10217552202592,0 13.22583387620002,43.10241666390108,0 13.22590778435268,43.10265376094886,0 13.22651541230004,43.10279661268758,0 13.22669440592404,43.10286214711955,0 13.2271514628539,43.10297379118652,0 13.22723853513365,43.10301545236504,0 13.22747673119448,43.10326676266797,0 13.22766958575956,43.10357112084289,0 13.22777735057645,43.10349544223583,0 13.22794391604323,43.10315459049389,0 13.22815046041422,43.10297069114527,0 13.22844129657215,43.10274422230081,0 13.22911556157479,43.10255302795333,0 13.22934581575249,43.10243530591472,0 13.22950264378821,43.1024296401508,0 13.2295897562655,43.1025762778233,0 13.22978386587405,43.10268379392037,0 13.22979516613097,43.1027937791,0 13.22984111516971,43.10301444253994,0 13.22982200079305,43.10332211090928,0 13.22985960183829,43.10344467709012,0 13.2301576821281,43.10360904421589,0 13.23050642640833,43.10369426532863,0 13.23065666088589,43.10365788500891,0 13.23114268177089,43.10349564954765,0 13.23139706498894,43.10325254852764,0 13.2320879234918,43.10280118190961,0 13.23266379332226,43.10242395933236,0 13.23279399748915,43.10235685694299,0 13.23321778339408,43.10238580360672,0 13.2334669580057,43.10231721585072,0 13.2337887938205,43.10211032449812,0 13.23447889193398,43.10200724937258,0 13.23600191363733,43.10163629885992,0 13.23608234496505,43.10160556431507,0 13.23615684990419,43.10156800954481,0 13.23633831349688,43.1012807548735,0 13.23640981833719,43.1012056528678,0 13.23656585309644,43.10117384534017,0 13.23676296073357,43.10114515655944,0 13.23686130963204,43.1011160442208,0 13.23701879304101,43.10103190532881,0 13.23718318945297,43.10097131349703,0 13.23731855264689,43.10093285723764,0 13.23742853296126,43.10099172241037,0 13.23742749329271,43.10108653760247,0 13.23735080032072,43.10119019999325,0 13.23714452580024,43.10142393710927,0 13.23718769230313,43.10184837133431,0 13.23713240775093,43.10204739469028,0 13.23696883649767,43.10238239040573,0 13.23693171761662,43.10264615019442,0 13.23679283806188,43.10288675936275,0 13.23671985277545,43.10308117282172,0 13.23671234810099,43.10317341728122,0 13.23680666123507,43.10319322101964,0 13.23695202751093,43.10315817671524,0 13.23709118542881,43.10314949573414,0 13.23719813350683,43.10315980627266,0 13.23753069077203,43.10323531133917,0 13.23767164285696,43.10324494869921,0 13.23821212088613,43.10321500867435,0 13.23835201586661,43.10321760033783,0 13.23873444328265,43.10336507285782,0 13.23929032343917,43.10359945217709,0 13.23939212113412,43.10364495748519,0 13.23946558494556,43.10370346075609,0 13.23979691819102,43.10434474064267,0 13.23984163875193,43.10438245806625,0 13.23990804412084,43.10443518556539,0 13.24037231998063,43.10465657027837,0 13.24070976520638,43.10491650911028,0 13.24097344779778,43.10506080786309,0 13.24124197262317,43.1051933719402,0 13.24145077576671,43.10522235114502,0 13.24221245786532,43.10527688084358,0 13.24251057741127,43.10533710668281,0 13.24358080386343,43.10584663753777,0 13.24368979893356,43.10587092340573,0 13.24383037629131,43.10586401650504,0 13.24420655819035,43.10578372264369,0 13.24436352470359,43.10576133933378,0 13.24465125012694,43.1058679562172,0 13.2452958027489,43.10614935537465,0 13.24574108233454,43.10627617513113,0 13.24606360300065,43.10629538720997,0 13.24655008664888,43.10624135781397,0 13.24751607397501,43.10611542823294,0 13.24796401967882,43.10614738818598,0 13.24863265528848,43.10652097234615,0 13.24888493888791,43.1065995624635,0 13.25048836869304,43.10670521887769,0 13.25099224950691,43.10666040551244,0 13.25190013748067,43.10631168966151,0 13.2520861057986,43.10627620196233,0 13.25223192339518,43.1063069977569,0 13.25238696983298,43.10638614683167,0 13.25322287058296,43.10724684090732,0 13.25369106149446,43.10756924781382,0 13.25421366832829,43.10786157780077,0 13.2543986819619,43.10792134805061,0 13.25498186058248,43.10798111946147,0 13.25616368652415,43.10856836822071,0 13.25654759863755,43.10860896964233,0 13.25692665071138,43.10853393799118,0 13.25753420103125,43.10817022583699,0 13.2586599329677,43.10857866398165,0 13.25873815070518,43.10865463892077,0 13.25874848219854,43.10877609374932,0 13.25869818416309,43.1088900884798,0 13.25839862424941,43.10917063705737,0 
				</coordinates>
			</LineString>
		</Placemark>
		<Folder id="0478F07CFE35A470B0D5">
			<name> POI</name>
			<styleUrl>#__managed_style_094B4B060E35A3D8C8B8</styleUrl>
			<Placemark id="05A583C79B3599472FDB">
				<name>Chiesa di S. Andrea</name>
				<gx:mid>/g/11df1tm1dw</gx:mid>
				<gx:fid>0x132de6a478088811:0x2af6187be6cd3dae</gx:fid>
				<LookAt>
					<longitude>13.2583639</longitude>
					<latitude>43.1087819</latitude>
					<altitude>0</altitude>
					<heading>0</heading>
					<tilt>0</tilt>
					<gx:fovy>35</gx:fovy>
					<range>746.3750093793474</range>
					<altitudeMode>relativeToGround</altitudeMode>
				</LookAt>
				<styleUrl>#__managed_style_0937B7230535A3D8C8B9</styleUrl>
				<Point>
					<altitudeMode>relativeToGround</altitudeMode>
					<coordinates>13.2583484,43.1087973,0</coordinates>
				</Point>
			</Placemark>
			<Placemark id="09763CD134359948F879">
				<name>Piazzale Vittorio Emanuele</name>
				<LookAt>
					<longitude>13.25807370964352</longitude>
					<latitude>43.10869418242321</latitude>
					<altitude>441.6908080613543</altitude>
					<heading>0</heading>
					<tilt>0</tilt>
					<gx:fovy>35</gx:fovy>
					<range>137.2851393309975</range>
					<altitudeMode>absolute</altitudeMode>
				</LookAt>
				<styleUrl>#__managed_style_094B4B060E35A3D8C8B8</styleUrl>
				<Point>
					<coordinates>13.25820707805521,43.10883118479745,438.8800532958972</coordinates>
				</Point>
			</Placemark>
			<Placemark id="0A10DE42873599488FBE">
				<name>PIAZZALE CORTE</name>
				<gx:mid>/g/11rjss_9fv</gx:mid>
				<gx:fid>0x132de784bb293aad:0x71b56f41367a65fc</gx:fid>
				<LookAt>
					<longitude>13.2577588</longitude>
					<latitude>43.1087269</latitude>
					<altitude>0</altitude>
					<heading>0</heading>
					<tilt>0</tilt>
					<gx:fovy>35</gx:fovy>
					<range>746.3757407053417</range>
					<altitudeMode>relativeToGround</altitudeMode>
				</LookAt>
				<styleUrl>#__managed_style_0937B7230535A3D8C8B9</styleUrl>
				<Point>
					<altitudeMode>relativeToGround</altitudeMode>
					<coordinates>13.2577588,43.1087269,0</coordinates>
				</Point>
			</Placemark>
			<Placemark id="0393C6EE77359949ED02">
				<name>EDICOLA DELL&apos;IMPOLLATA</name>
				<gx:mid>/g/11sg7__nt4</gx:mid>
				<gx:fid>0x132de7c57954a829:0x9cd4f73c0c54fda0</gx:fid>
				<LookAt>
					<longitude>13.2554412</longitude>
					<latitude>43.10748299999999</latitude>
					<altitude>0</altitude>
					<heading>0</heading>
					<tilt>0</tilt>
					<gx:fovy>35</gx:fovy>
					<range>746.3922804687957</range>
					<altitudeMode>relativeToGround</altitudeMode>
				</LookAt>
				<styleUrl>#__managed_style_0937B7230535A3D8C8B9</styleUrl>
				<Point>
					<altitudeMode>relativeToGround</altitudeMode>
					<coordinates>13.2554412,43.10748299999999,0</coordinates>
				</Point>
			</Placemark>
			<Placemark id="0FBB0B6B7E35994A926F">
				<name>Memoriale martiri di Montalto</name>
				<gx:mid>/g/11ng1bl73w</gx:mid>
				<gx:fid>0x132de7e8eb1cac4f:0xe701482942350609</gx:fid>
				<LookAt>
					<longitude>13.2265601</longitude>
					<latitude>43.1041596</latitude>
					<altitude>0</altitude>
					<heading>0</heading>
					<tilt>0</tilt>
					<gx:fovy>35</gx:fovy>
					<range>746.4364691089072</range>
					<altitudeMode>relativeToGround</altitudeMode>
				</LookAt>
				<styleUrl>#__managed_style_0937B7230535A3D8C8B9</styleUrl>
				<Point>
					<altitudeMode>relativeToGround</altitudeMode>
					<coordinates>13.22658855506232,43.1041537414138,0</coordinates>
				</Point>
			</Placemark>
			<Placemark id="0E15D0539235994AEA99">
				<name>Il Giardino delle Farfalle</name>
				<gx:mid>/g/11b6js2xh7</gx:mid>
				<gx:fid>0x132de6d46fb3104b:0x6ea2184d8892ee32</gx:fid>
				<LookAt>
					<longitude>13.2251676</longitude>
					<latitude>43.1013291</latitude>
					<altitude>0</altitude>
					<heading>0</heading>
					<tilt>0</tilt>
					<gx:fovy>35</gx:fovy>
					<range>746.4741021991591</range>
					<altitudeMode>relativeToGround</altitudeMode>
				</LookAt>
				<styleUrl>#__managed_style_0937B7230535A3D8C8B9</styleUrl>
				<Point>
					<altitudeMode>relativeToGround</altitudeMode>
					<coordinates>13.22512845535348,43.10135990668874,0</coordinates>
				</Point>
			</Placemark>
			<Placemark id="0D2F5FCDD435994B1946">
				<name>Castello Di Montalto</name>
				<gx:mid>/g/11c4_b7363</gx:mid>
				<gx:fid>0x132de6d6db8021cb:0xc9e95f39d47c2acc</gx:fid>
				<LookAt>
					<longitude>13.2248766</longitude>
					<latitude>43.1051241</latitude>
					<altitude>0</altitude>
					<heading>0</heading>
					<tilt>0</tilt>
					<gx:fovy>35</gx:fovy>
					<range>746.4236451508355</range>
					<altitudeMode>relativeToGround</altitudeMode>
				</LookAt>
				<styleUrl>#__managed_style_0937B7230535A3D8C8B9</styleUrl>
				<Point>
					<altitudeMode>relativeToGround</altitudeMode>
					<coordinates>13.2248766,43.1051241,0</coordinates>
				</Point>
			</Placemark>
			<Placemark id="07B1A785DC35994B7BB4">
				<name>SAN BENEDETTO</name>
				<gx:mid>/g/11sg809nh8</gx:mid>
				<gx:fid>0x132de785cf7d1479:0xd06629d45c61d111</gx:fid>
				<LookAt>
					<longitude>13.2244543</longitude>
					<latitude>43.10495270000001</latitude>
					<altitude>0</altitude>
					<heading>0</heading>
					<tilt>0</tilt>
					<gx:fovy>35</gx:fovy>
					<range>746.4259240936094</range>
					<altitudeMode>relativeToGround</altitudeMode>
				</LookAt>
				<styleUrl>#__managed_style_0937B7230535A3D8C8B9</styleUrl>
				<Point>
					<altitudeMode>relativeToGround</altitudeMode>
					<coordinates>13.2245804,43.1049588,0</coordinates>
				</Point>
			</Placemark>
			<Placemark id="0F31C03D2735994E8BDA">
				<name>Chiesa di S. Maria Ausiliatrice</name>
				<gx:mid>/g/11g8b5jsv_</gx:mid>
				<gx:fid>0x132de12cf1f1d601:0xcc3b0c08f7b45e9a</gx:fid>
				<LookAt>
					<longitude>13.2278006</longitude>
					<latitude>43.09623799999999</latitude>
					<altitude>0</altitude>
					<heading>0</heading>
					<tilt>0</tilt>
					<gx:fovy>35</gx:fovy>
					<range>746.5417869648459</range>
					<altitudeMode>relativeToGround</altitudeMode>
				</LookAt>
				<styleUrl>#__managed_style_0937B7230535A3D8C8B9</styleUrl>
				<Point>
					<altitudeMode>relativeToGround</altitudeMode>
					<coordinates>13.2278304,43.0962484,0</coordinates>
				</Point>
			</Placemark>
			<Placemark id="0FB3170690359952ED7A">
				<name>Abbazia e Cripta di San Salvatore</name>
				<gx:mid>/g/11c32m6jbg</gx:mid>
				<gx:fid>0x132de10f0ea663e3:0x29894c60c8c1711d</gx:fid>
				<LookAt>
					<longitude>13.235037</longitude>
					<latitude>43.06716849999999</latitude>
					<altitude>0</altitude>
					<heading>0</heading>
					<tilt>0</tilt>
					<gx:fovy>35</gx:fovy>
					<range>746.9281526570936</range>
					<altitudeMode>relativeToGround</altitudeMode>
				</LookAt>
				<styleUrl>#__managed_style_0937B7230535A3D8C8B9</styleUrl>
				<Point>
					<altitudeMode>relativeToGround</altitudeMode>
					<coordinates>13.234865,43.0671366,0</coordinates>
				</Point>
			</Placemark>
			<Placemark id="0AAE645F21359945CBC5">
				<name>IL VECCHIO SCARPONE</name>
				<gx:mid>/g/11pdptrbr9</gx:mid>
				<gx:fid>0x132de7a229f518b5:0x202b2c8f626ee3b</gx:fid>
				<LookAt>
					<longitude>13.2460155</longitude>
					<latitude>43.11322490000001</latitude>
					<altitude>0</altitude>
					<heading>0</heading>
					<tilt>0</tilt>
					<gx:fovy>35</gx:fovy>
					<range>746.3159294186997</range>
					<altitudeMode>relativeToGround</altitudeMode>
				</LookAt>
				<styleUrl>#__managed_style_0937B7230535A3D8C8B9</styleUrl>
				<Point>
					<altitudeMode>relativeToGround</altitudeMode>
					<coordinates>13.2460525,43.11321,0</coordinates>
				</Point>
			</Placemark>
		</Folder>
		<Folder id="050C6A1AB935992D4EE3">
			<name>Cessapalombo2</name>
			<open>1</open>
			<styleUrl>#__managed_style_094B4B060E35A3D8C8B8</styleUrl>
		</Folder>
	</Folder>
</Document>
</kml>
