<?xml version="1.0" encoding="UTF-8"?>
<kml xmlns="http://www.opengis.net/kml/2.2" xmlns:gx="http://www.google.com/kml/ext/2.2" xmlns:kml="http://www.opengis.net/kml/2.2" xmlns:atom="http://www.w3.org/2005/Atom">
<Document>
	<name>Cessapalombo_IOT_indicazioni.kml</name>
	<StyleMap id="__managed_style_0B5A7E76A83595C788D8">
		<Pair>
			<key>normal</key>
			<styleUrl>#failed6</styleUrl>
		</Pair>
		<Pair>
			<key>highlight</key>
			<styleUrl>#failed50</styleUrl>
		</Pair>
	</StyleMap>
	<Style id="failed50">
		<LineStyle>
			<color>ff00ffff</color>
			<width>4</width>
		</LineStyle>
	</Style>
	<Style id="failed6">
		<LineStyle>
			<color>ff00ffff</color>
			<width>4</width>
		</LineStyle>
	</Style>
	<StyleMap id="m_ylw-pushpin40">
		<Pair>
			<key>normal</key>
			<styleUrl>#s_ylw-pushpin7</styleUrl>
		</Pair>
		<Pair>
			<key>highlight</key>
			<styleUrl>#s_ylw-pushpin_hl03</styleUrl>
		</Pair>
	</StyleMap>
	<Style id="s_ylw-pushpin7">
		<IconStyle>
			<color>ff0701fc</color>
			<scale>1.1</scale>
			<Icon>
				<href>http://maps.google.com/mapfiles/kml/pushpin/ylw-pushpin.png</href>
			</Icon>
			<hotSpot x="20" y="2" xunits="pixels" yunits="pixels"/>
		</IconStyle>
	</Style>
	<Style id="s_ylw-pushpin_hl03">
		<IconStyle>
			<color>ff0701fc</color>
			<scale>1.3</scale>
			<Icon>
				<href>http://maps.google.com/mapfiles/kml/pushpin/ylw-pushpin.png</href>
			</Icon>
			<hotSpot x="20" y="2" xunits="pixels" yunits="pixels"/>
		</IconStyle>
	</Style>
	<Folder>
		<name>IOT</name>
		<open>1</open>
		<Placemark>
			<name>IoT Cessapalombo</name>
			<styleUrl>#__managed_style_0B5A7E76A83595C788D8</styleUrl>
			<LineString>
				<tessellate>1</tessellate>
				<coordinates>
					13.25839080584123,43.10915637743044,0 13.2586683246801,43.10888510745446,0 13.25871716916728,43.10877156364332,0 13.25871747784992,43.10867627353427,0 13.25864224463116,43.10859677897977,0 13.25753592496964,43.10824908678609,0 13.2569417262957,43.10855186543611,0 13.25654636285939,43.10861810180386,0 13.25610321798677,43.10854306444448,0 13.25502998102067,43.10805340651536,0 13.25437258134587,43.1079658663035,0 13.25401542555973,43.10784185000826,0 13.25313559944527,43.10726395470646,0 13.25229587266136,43.10639078918753,0 13.2520936134433,43.10631527093702,0 13.25182964594562,43.1063672800997,0 13.25100536292163,43.10668382733263,0 13.25047790030842,43.1067442986335,0 13.24884044630687,43.10661632257815,0 13.24794628763405,43.10617199949521,0 13.24750909716288,43.10614643760844,0 13.24608139580508,43.10634287711112,0 13.24567021358897,43.10632130817945,0 13.24524331869751,43.10618557791655,0 13.24461330699299,43.105895669871,0 13.24444749828372,43.10586291072484,0 13.24425966735223,43.10588970113658,0 13.24355114492914,43.10606044808313,0 13.24327542230165,43.10621690227546,0 13.2425190632006,43.10618925052469,0 13.24244574814789,43.10627789988296,0 13.24243153660809,43.10641128456253,0 13.24340494128981,43.10675716125927,0 13.24415986324194,43.10751968185676,0 13.24416335119129,43.10771597456077,0 13.24361770138021,43.10844136261669,0 13.24365618596561,43.1085647469318,0 13.24377126733656,43.10866218916126,0 13.24394257478575,43.10870452114874,0 13.24386019371359,43.10880105074987,0 13.24361354886478,43.10875547246995,0 13.24342126533336,43.10862252891189,0 13.24331949094109,43.10848060465413,0 13.24330077130181,43.10829708082537,0 13.24333468881195,43.10797002849347,0 13.24324890440725,43.1078949932586,0 13.24309228412859,43.10783671681494,0 13.24234262727677,43.10768685394238,0 13.24208946015097,43.10768709875911,0 13.24137533498561,43.10806492619175,0 13.2405039110147,43.10839450974213,0 13.24022834230599,43.10837807293047,0 13.24007322159715,43.10826341298785,0 13.23985178616846,43.10788103943162,0 13.2395367252551,43.10777613977321,0 13.23923375720867,43.10772653635516,0 13.23883908208263,43.10778712019745,0 13.2377878125753,43.10822616331632,0 13.23758980095446,43.10822613351726,0 13.23737206458527,43.108108393219,0 13.23721351188954,43.10782660094431,0 13.23727509987559,43.10733228449681,0 13.23686653197254,43.10665403246203,0 13.23611070507966,43.10637585485308,0 13.23578838926607,43.1064068706463,0 13.23558032371632,43.10651315168788,0 13.23466806379137,43.10754334913661,0 13.23378883934355,43.10885201523278,0 13.23321631368984,43.10934523079822,0 13.23262552050813,43.10953439370183,0 13.2321277982672,43.10943955766006,0 13.23146763135023,43.10902672999676,0 13.2312877960975,43.10860217723141,0 13.23134729274925,43.10749146016578,0 13.23120331401146,43.10728586854023,0 13.23065387408714,43.10709659497176,0 13.23023737789572,43.10664985989815,0 13.22996811196171,43.10651727476817,0 13.22870950538056,43.10633834502387,0 13.22769750776964,43.10633148203362,0 13.22744949447151,43.10614493269095,0 13.22716839436911,43.10550958780873,0 13.22710226469873,43.1047985973955,0 13.22689911485664,43.10447417020659,0 13.22659212613062,43.10418363677415,0 13.22610325792702,43.10369599268545,0 13.2243975836568,43.1030792349417,0 13.22423208416575,43.10295337551066,0 13.2241398355529,43.10275024201459,0 13.22419595154807,43.1025391323905,0 13.22430308610797,43.1023747465164,0 13.22444829581867,43.10214296065464,0 13.22463151373567,43.10192096665643,0 13.22510739126957,43.10158979758303,0 13.22553094922759,43.10103044258008,0 13.22547297533988,43.10063806815081,0 13.22610561891797,43.09976229452552,0 13.2261563099982,43.09953725636068,0 13.22609595065314,43.09857943736355,0 13.22614195070025,43.09844748540306,0 13.2263671453206,43.09823126664712,0 13.22650213152232,43.09800553790981,0 13.22682529031253,43.09690802255381,0 13.22690851980382,43.09666573612583,0 13.22706907826485,43.0963893450383,0 13.22736942778876,43.09631767405578,0 13.22770362797902,43.09634406608784,0 13.22792206037546,43.09621568103073,0 13.22812432711429,43.09605557129904,0 13.22849254046017,43.09559297546481,0 13.22870173724702,43.09493943964627,0 13.22919717579732,43.09459258654891,0 13.2299377335273,43.09415639632875,0 13.23095846021184,43.09373730484257,0 13.23118275858691,43.09360426673767,0 13.23164262437882,43.09326990942589,0 13.23247584801041,43.09279290691153,0 13.23269701845341,43.09247196578507,0 13.23306634890703,43.09222222950745,0 13.23364785427495,43.09206320650772,0 13.23412139170258,43.09171633708384,0 13.23520094827266,43.09119535499367,0 13.23584552442505,43.09068602906849,0 13.23591472254297,43.09053097660068,0 13.23590373056424,43.09018476669786,0 13.23613317322729,43.08999086326948,0 13.23704487563877,43.08961557378985,0 13.2374808865588,43.08941675847493,0 13.23782542593633,43.08923331696169,0 13.23852889807073,43.08872352621064,0 13.23867520669441,43.0886807429329,0 13.23922269224351,43.08871592189295,0 13.23989419100824,43.08881658789408,0 13.24033159611631,43.08895793613737,0 13.24067880897652,43.08903671800572,0 13.24094198977633,43.08906577719205,0 13.24106807816688,43.08903575218029,0 13.24112800546926,43.08897229183852,0 13.2411556110455,43.0888815242507,0 13.24118257862187,43.08847359241089,0 13.24134213578014,43.08827005124866,0 13.24166955062713,43.0880694475792,0 13.242395658701,43.08782893698913,0 13.24336446788842,43.08758800635437,0 13.24365199706992,43.08747392025676,0 13.24388792146046,43.0873248652783,0 13.24407888919639,43.08716603406215,0 13.24416335688675,43.08705115152434,0 13.24409101008348,43.08701965211277,0 13.24383771603946,43.08709133299214,0 13.24357998223059,43.08712075259972,0 13.24336160063226,43.08708323650898,0 13.24308061554041,43.08697122589186,0 13.24281028919562,43.08680772102885,0 13.24251109873336,43.0865851009328,0 13.24235279050547,43.08647291679884,0 13.24228105250627,43.08640749254489,0 13.2421369168225,43.08621699072918,0 13.24194435838315,43.08600575763531,0 13.24154211080518,43.08556847637839,0 13.2413268083153,43.08533505367279,0 13.2411922686242,43.0852298236261,0 13.24053058425826,43.08492444868245,0 13.24056200072269,43.0848986807509,0 13.24120946177366,43.08521991652884,0 13.24134669268246,43.0853303858919,0 13.24157045053225,43.08556719040096,0 13.24198048798,43.086010888693,0 13.24217103223372,43.08623256385006,0 13.24230834034704,43.08641113763483,0 13.24238204902759,43.08648024169965,0 13.2425388020518,43.08658650708254,0 13.24283625842185,43.0868056349896,0 13.24311658177856,43.08696971339728,0 13.24338586338373,43.08707844732315,0 13.24360436587249,43.08710329394592,0 13.24386485535804,43.08707098075717,0 13.24411968615008,43.08699658323318,0 13.24419825822301,43.08704564190653,0 13.24410481324158,43.08718255530918,0 13.24389995135159,43.08734447965251,0 13.24365734984262,43.08749144294124,0 13.2433625494555,43.08761044297136,0 13.24238441024855,43.08785784589363,0 13.24167778397684,43.08809388645167,0 13.24135647267963,43.08829406151367,0 13.24120821415413,43.08849016907806,0 13.24119030490989,43.08889608039268,0 13.24115743966436,43.08899899170287,0 13.24108031769581,43.08906907428638,0 13.24093967873533,43.08909680272908,0 13.24066896131089,43.08906344191288,0 13.24031272778288,43.08897743156162,0 13.23987105279397,43.08883595518387,0 13.23918304887995,43.08873550547635,0 13.2386601861738,43.08870572243832,0 13.23853931474576,43.08875427282902,0 13.23782796690265,43.08926449016899,0 13.23743508573623,43.08946846881372,0 13.23703949210661,43.08965521698937,0 13.23613861358077,43.09002086024874,0 13.23593956269502,43.09019285443932,0 13.23594518828413,43.09054232565996,0 13.23586464897923,43.09071617343177,0 13.23521464865604,43.0912261502153,0 13.2341088589025,43.0917608826672,0 13.2336424983356,43.09209719646896,0 13.23307860737477,43.09224941780854,0 13.23272309316174,43.09250794130291,0 13.23250145191301,43.09282210463635,0 13.23163093340879,43.09330145689265,0 13.2311749832701,43.09363609671284,0 13.23093326520454,43.09377050965907,0 13.22993332436257,43.09417964837524,0 13.22919835887054,43.0946169099384,0 13.22874073046,43.09494939378355,0 13.22850764472309,43.09563351349539,0 13.22813215704901,43.09609156733651,0 13.22769558370616,43.09637383596012,0 13.22735137531235,43.09634887222091,0 13.22710890949443,43.09640014699742,0 13.22695287136827,43.0966519866486,0 13.22686258700264,43.09692506387511,0 13.22653346270524,43.09801139287434,0 13.22638253841896,43.09825365162452,0 13.22616251107277,43.09846415361512,0 13.2261296865915,43.09858713122101,0 13.2262060615504,43.09953406567328,0 13.22614399629019,43.09977476666609,0 13.22557052515625,43.10064312834079,0 13.22557558130093,43.10104099087692,0 13.22514102357425,43.10162583501621,0 13.22467444718802,43.10194691194008,0 13.22449497918562,43.10215695491403,0 13.22435710195067,43.10240959816348,0 13.2242404878469,43.10256326838727,0 13.22421125625389,43.10276279893035,0 13.22428367685621,43.10291881838842,0 13.22443349335599,43.10304365663246,0 13.22612930901343,43.10368092084806,0 13.22662039550768,43.10416431711125,0 13.22693693485514,43.10447967112933,0 13.227139742913,43.10480580633,0 13.22720697578747,43.10552682787016,0 13.22747011983181,43.10612446511703,0 13.22770948958664,43.10630461778525,0 13.22870374957746,43.10630848599571,0 13.22997800141822,43.10648715992154,0 13.23028313698776,43.10663070997409,0 13.23066726810649,43.1070655833574,0 13.23123655161526,43.10726911151654,0 13.23138096990303,43.10749394943839,0 13.23132492923904,43.10859691910489,0 13.23150797802068,43.1090214804206,0 13.23214495649516,43.10941815349783,0 13.2326293412381,43.10950104374181,0 13.23321311757555,43.10930920895065,0 13.2337717003824,43.10882390886204,0 13.23483588036147,43.10728382426198,0 13.23521318057007,43.10694075447812,0 13.23555726419053,43.10647971831635,0 13.23582867682433,43.10636775754479,0 13.23619310450341,43.10635789528208,0 13.23690897886923,43.10664716857667,0 13.23730292749022,43.10732402038121,0 13.23726093708583,43.10782806667368,0 13.23739889578221,43.10809645370562,0 13.2376298084018,43.10819714350379,0 13.23788417127554,43.10816481013361,0 13.23894290469518,43.10773414267555,0 13.23926090174369,43.10768916383591,0 13.23985829415353,43.10785224299999,0 13.24016420906751,43.10830781297128,0 13.24030276539614,43.10837726554718,0 13.24055384278152,43.108358255937,0 13.24146036678265,43.10800138290149,0 13.24209032576954,43.10765115813124,0 13.24248178454614,43.10767648961899,0 13.243249525241,43.10786020414867,0 13.24337412781136,43.1079679446988,0 13.24333548993534,43.10828935293731,0 13.24336019750105,43.10848268977997,0 13.24345806420675,43.10862776853387,0 13.24364601646981,43.1087462803161,0 13.24388251637868,43.1087472510529,0 13.2441751562203,43.10869887129137,0 13.24457415990795,43.10873148297824,0 13.24488728655075,43.10884048541384,0 13.24510715237719,43.10897351291545,0 13.24552622026606,43.10935591313454,0 13.24561176637959,43.10953033309471,0 13.24563529451969,43.1097350896022,0 13.24550401823571,43.11031155403493,0 13.24535497938161,43.1110939617318,0 13.24537220374646,43.11126470877654,0 13.24548640935341,43.11151116277597,0 13.2457354369942,43.11185933893909,0 13.24675005458189,43.11267274126747,0 13.24695358400409,43.11294931217939,0 13.24708238233225,43.11356735823919,0 13.24711052602668,43.11382325156784,0 13.24716678915732,43.11397838042108,0 13.24733121870474,43.11421008368506,0 13.2476083986151,43.11454644635126,0 13.24804063700156,43.11523605857879,0 13.24807469395238,43.11545665367637,0 13.24786077877959,43.1157150190119,0 13.24779509701466,43.11585907322386,0 13.24773819254864,43.11616498430318,0 13.24745010555072,43.11631855835078,0 13.24703538799547,43.11631258576962,0 13.24637564154232,43.11624548160862,0 13.24255414684929,43.11660861535339,0 13.24204748711822,43.11674270221346,0 13.24185930845633,43.11692962519114,0 13.24163304705713,43.11745981784551,0 13.24155242021335,43.11786782245317,0 13.24144740811159,43.11803410629504,0 13.24114686123165,43.11820526968473,0 13.24082964430858,43.11834485560879,0 13.23991189614672,43.11913885361615,0 13.23986493275978,43.11923242441762,0 13.23987204345241,43.11930899828786,0 13.2399574575837,43.11938815889673,0 13.24026141691518,43.11940799376673,0 13.24238118631987,43.11975516574496,0 13.24271184259199,43.11978939854269,0 13.24419658762044,43.11984893358589,0 13.24437514848783,43.11986906019077,0 13.24745774060253,43.12066668460951,0 13.24768383574574,43.12068791556271,0 13.24787328320762,43.12066246013315,0 13.24801306706733,43.1206124533104,0 13.24860481280817,43.12036978872668,0 13.24885914631661,43.12034937388736,0 13.2496170894117,43.12044715829439,0 13.25078342325342,43.12035439249221,0 13.25111123624753,43.12026396718797,0 13.25135985638325,43.12013791348052,0 13.25190639867114,43.11979820990955,0 13.25231792352449,43.11969100700576,0 13.25299450517322,43.11965945893606,0 13.25507007323116,43.12020037493533,0 13.25651128379881,43.1209573758457,0 13.25668301892719,43.12113641942386,0 13.25699370119566,43.12240171190802,0 13.25694701640079,43.12253259730751,0 13.25667702186009,43.12297253068118,0 13.25662985499723,43.12336344327551,0 13.25663071845663,43.12380587212484,0 13.25670450565437,43.12391853364537,0 13.2568765493006,43.12393515686942,0 13.25698243471407,43.12386048356759,0 13.25720250699151,43.12338641448154,0 13.25741400597328,43.12317506175233,0 13.25839623437861,43.12265259325947,0 13.25851418693665,43.12252705326796,0 13.25862615170155,43.12224494619825,0 13.2599452422803,43.12171936065726,0 13.26004790239199,43.12161157785379,0 13.26032743294504,43.12066963898116,0 13.26044366200609,43.12045622073569,0 13.26055349448568,43.12032509412767,0 13.26130705729805,43.11971264391939,0 13.26137646438145,43.11955407856787,0 13.26141538108693,43.11932024567328,0 13.26141444578496,43.11879085859312,0 13.26147314815122,43.11868241397031,0 13.26169564014347,43.1186014631975,0 13.26339803095785,43.11834982775137,0 13.26430830765541,43.11814119995974,0 13.26500559106674,43.1179454375601,0 13.26615393218999,43.11742688209765,0 13.2664310079401,43.1172029339408,0 13.26688072137357,43.11668283674909,0 13.26702292861881,43.11661923248936,0 13.26720062354146,43.11660571572521,0 13.26829438618622,43.11671786961825,0 13.26845156319323,43.11663854552798,0 13.26848527938125,43.11654704163465,0 13.26845308029857,43.11647356435083,0 13.26785353108675,43.11607861955404,0 13.26773427873368,43.11595279418935,0 13.26672749958201,43.11461903689591,0 13.26669987130227,43.11442748403778,0 13.26696688629649,43.11280972113583,0 13.26708542799364,43.11170496580884,0 13.26724495743548,43.11078967541823,0 13.26721052642274,43.10969041670054,0 13.26720824636859,43.10922744721154,0 13.26735416901996,43.10891474474759,0 13.2678998058679,43.10826927254454,0 13.26811437833891,43.10825374065535,0 13.2684492125853,43.10814536505556,0 13.26906326278781,43.10823045093177,0 
				</coordinates>
			</LineString>
		</Placemark>
		<Placemark>
			<name>1</name>
			<description>Segui le indicazioni;Follow the directions</description>
			<LookAt>
				<gx:TimeStamp><when>2022-04-30</when>
</gx:TimeStamp>
				<gx:ViewerOptions>
					<gx:option name="historicalimagery"></gx:option>
					<gx:option enabled="0" name="sunlight"></gx:option>
					<gx:option enabled="0" name="streetview"></gx:option>
				</gx:ViewerOptions>
				<longitude>13.2584941517014</longitude>
				<latitude>43.10871556068192</latitude>
				<altitude>0</altitude>
				<heading>-3.437416569656225</heading>
				<tilt>0</tilt>
				<range>147.0389771191075</range>
				<gx:altitudeMode>relativeToSeaFloor</gx:altitudeMode>
			</LookAt>
			<styleUrl>#m_ylw-pushpin40</styleUrl>
			<Point>
				<gx:drawOrder>1</gx:drawOrder>
				<coordinates>13.25841250351927,43.109151586899,0</coordinates>
			</Point>
		</Placemark>
		<Placemark>
			<name>2</name>
			<description>Gira a destra su Strada Provinciale 88;Turn right onto Provincial Road 88</description>
			<LookAt>
				<gx:TimeStamp><when>2022-04-30</when>
</gx:TimeStamp>
				<gx:ViewerOptions>
					<gx:option name="historicalimagery"></gx:option>
					<gx:option enabled="0" name="sunlight"></gx:option>
					<gx:option enabled="0" name="streetview"></gx:option>
				</gx:ViewerOptions>
				<longitude>13.25776103695513</longitude>
				<latitude>43.10849443101209</latitude>
				<altitude>0</altitude>
				<heading>-3.437917565485083</heading>
				<tilt>0</tilt>
				<range>147.0389771193164</range>
				<gx:altitudeMode>relativeToSeaFloor</gx:altitudeMode>
			</LookAt>
			<styleUrl>#m_ylw-pushpin40</styleUrl>
			<Point>
				<gx:drawOrder>1</gx:drawOrder>
				<coordinates>13.25754184197407,43.10826184507796,0</coordinates>
			</Point>
		</Placemark>
		<Placemark>
			<name>3</name>
			<description>Gira a sinistra;Turn left</description>
			<LookAt>
				<gx:TimeStamp><when>2022-04-30</when>
</gx:TimeStamp>
				<gx:ViewerOptions>
					<gx:option name="historicalimagery"></gx:option>
					<gx:option enabled="0" name="sunlight"></gx:option>
					<gx:option enabled="0" name="streetview"></gx:option>
				</gx:ViewerOptions>
				<longitude>13.24372437588842</longitude>
				<latitude>43.1083161587303</latitude>
				<altitude>0</altitude>
				<heading>-3.447509698667909</heading>
				<tilt>0</tilt>
				<range>147.038977116383</range>
				<gx:altitudeMode>relativeToSeaFloor</gx:altitudeMode>
			</LookAt>
			<styleUrl>#m_ylw-pushpin40</styleUrl>
			<Point>
				<gx:drawOrder>1</gx:drawOrder>
				<coordinates>13.24394740313585,43.10869298234238,0</coordinates>
			</Point>
		</Placemark>
		<Placemark>
			<name>4</name>
			<description>Segui il percorso;Follow the path</description>
			<LookAt>
				<gx:TimeStamp><when>2022-04-30</when>
</gx:TimeStamp>
				<gx:ViewerOptions>
					<gx:option name="historicalimagery"></gx:option>
					<gx:option enabled="0" name="sunlight"></gx:option>
					<gx:option enabled="0" name="streetview"></gx:option>
				</gx:ViewerOptions>
				<longitude>13.24372437588842</longitude>
				<latitude>43.1083161587303</latitude>
				<altitude>0</altitude>
				<heading>-3.447509698667909</heading>
				<tilt>0</tilt>
				<range>147.038977116383</range>
				<gx:altitudeMode>relativeToSeaFloor</gx:altitudeMode>
			</LookAt>
			<styleUrl>#m_ylw-pushpin40</styleUrl>
			<Point>
				<gx:drawOrder>1</gx:drawOrder>
				<coordinates>13.24386478953061,43.1088333897771,0</coordinates>
			</Point>
		</Placemark>
		<Placemark>
			<name>5</name>
			<description>Gira a Sinistra;Turn left</description>
			<LookAt>
				<gx:TimeStamp><when>2022-04-30</when>
</gx:TimeStamp>
				<gx:ViewerOptions>
					<gx:option name="historicalimagery"></gx:option>
					<gx:option enabled="0" name="sunlight"></gx:option>
					<gx:option enabled="0" name="streetview"></gx:option>
				</gx:ViewerOptions>
				<longitude>13.22543809182173</longitude>
				<latitude>43.10093873501876</latitude>
				<altitude>0</altitude>
				<heading>-3.460005908995794</heading>
				<tilt>0</tilt>
				<range>225.236394402543</range>
				<gx:altitudeMode>relativeToSeaFloor</gx:altitudeMode>
			</LookAt>
			<styleUrl>#m_ylw-pushpin40</styleUrl>
			<Point>
				<gx:drawOrder>1</gx:drawOrder>
				<coordinates>13.22543190068225,43.10063397045258,0</coordinates>
			</Point>
		</Placemark>
		<Placemark>
			<name>6</name>
			<description>Tinei la destra;Keep left</description>
			<LookAt>
				<gx:TimeStamp><when>2022-04-30</when>
</gx:TimeStamp>
				<gx:ViewerOptions>
					<gx:option name="historicalimagery"></gx:option>
					<gx:option enabled="0" name="sunlight"></gx:option>
					<gx:option enabled="0" name="streetview"></gx:option>
				</gx:ViewerOptions>
				<longitude>13.24104222857635</longitude>
				<latitude>43.08874609886979</latitude>
				<altitude>0</altitude>
				<heading>-3.449345435102933</heading>
				<tilt>0</tilt>
				<range>225.2363943980548</range>
				<gx:altitudeMode>relativeToSeaFloor</gx:altitudeMode>
			</LookAt>
			<styleUrl>#m_ylw-pushpin40</styleUrl>
			<Point>
				<gx:drawOrder>1</gx:drawOrder>
				<coordinates>13.24108561032432,43.08898189038096,0</coordinates>
			</Point>
		</Placemark>
		<Placemark>
			<name>7</name>
			<description>Gira tutto a destra;Turn all the way to the right</description>
			<LookAt>
				<gx:TimeStamp><when>2022-04-30</when>
</gx:TimeStamp>
				<gx:ViewerOptions>
					<gx:option name="historicalimagery"></gx:option>
					<gx:option enabled="0" name="sunlight"></gx:option>
					<gx:option enabled="0" name="streetview"></gx:option>
				</gx:ViewerOptions>
				<longitude>13.24355742676613</longitude>
				<latitude>43.08742127226663</latitude>
				<altitude>0</altitude>
				<heading>-3.447604837707313</heading>
				<tilt>9.842407099179841</tilt>
				<range>128.071513974332</range>
				<gx:altitudeMode>relativeToSeaFloor</gx:altitudeMode>
			</LookAt>
			<styleUrl>#m_ylw-pushpin40</styleUrl>
			<Point>
				<gx:drawOrder>1</gx:drawOrder>
				<coordinates>13.244121033091,43.08706680719143,0</coordinates>
			</Point>
		</Placemark>
		<Placemark>
			<name>8</name>
			<description>Tieni la sinistra;Keep left</description>
			<LookAt>
				<gx:TimeStamp><when>2022-04-30</when>
</gx:TimeStamp>
				<gx:ViewerOptions>
					<gx:option name="historicalimagery"></gx:option>
					<gx:option enabled="0" name="sunlight"></gx:option>
					<gx:option enabled="0" name="streetview"></gx:option>
				</gx:ViewerOptions>
				<longitude>13.24340541700737</longitude>
				<latitude>43.08725494074928</latitude>
				<altitude>0</altitude>
				<heading>-3.447708677755664</heading>
				<tilt>9.842407099179804</tilt>
				<range>128.0715139722136</range>
				<gx:altitudeMode>relativeToSeaFloor</gx:altitudeMode>
			</LookAt>
			<styleUrl>#m_ylw-pushpin40</styleUrl>
			<Point>
				<gx:drawOrder>1</gx:drawOrder>
				<coordinates>13.24360010445002,43.08713314060287,0</coordinates>
			</Point>
		</Placemark>
		<Placemark>
			<name>9</name>
			<description>Torna indietro;Go back</description>
			<LookAt>
				<gx:TimeStamp><when>2022-04-30</when>
</gx:TimeStamp>
				<gx:ViewerOptions>
					<gx:option name="historicalimagery"></gx:option>
					<gx:option enabled="0" name="sunlight"></gx:option>
					<gx:option enabled="0" name="streetview"></gx:option>
				</gx:ViewerOptions>
				<longitude>13.24042926895627</longitude>
				<latitude>43.08485290068889</latitude>
				<altitude>0</altitude>
				<heading>-3.449741676292479</heading>
				<tilt>9.842407099179841</tilt>
				<range>128.0715139747564</range>
				<gx:altitudeMode>relativeToSeaFloor</gx:altitudeMode>
			</LookAt>
			<styleUrl>#m_ylw-pushpin40</styleUrl>
			<Point>
				<gx:drawOrder>1</gx:drawOrder>
				<coordinates>13.24052149421,43.08493059152447,0</coordinates>
			</Point>
		</Placemark>
		<Placemark>
			<name>10</name>
			<description>Continua dritto;Continue straight</description>
			<LookAt>
				<gx:TimeStamp><when>2022-04-30</when>
</gx:TimeStamp>
				<gx:ViewerOptions>
					<gx:option name="historicalimagery"></gx:option>
					<gx:option enabled="0" name="sunlight"></gx:option>
					<gx:option enabled="0" name="streetview"></gx:option>
				</gx:ViewerOptions>
				<longitude>13.24333474567407</longitude>
				<latitude>43.08691367033786</latitude>
				<altitude>0</altitude>
				<heading>-3.447756981754546</heading>
				<tilt>9.842407099179916</tilt>
				<range>128.0715139750528</range>
				<gx:altitudeMode>relativeToSeaFloor</gx:altitudeMode>
			</LookAt>
			<styleUrl>#m_ylw-pushpin40</styleUrl>
			<Point>
				<gx:drawOrder>1</gx:drawOrder>
				<coordinates>13.24360607458932,43.08708782280725,0</coordinates>
			</Point>
		</Placemark>
		<Placemark>
			<name>11</name>
			<description>Gira tutto sulla sinistra;Turn everything to the left</description>
			<LookAt>
				<gx:TimeStamp><when>2022-04-30</when>
</gx:TimeStamp>
				<gx:ViewerOptions>
					<gx:option name="historicalimagery"></gx:option>
					<gx:option enabled="0" name="sunlight"></gx:option>
					<gx:option enabled="0" name="streetview"></gx:option>
				</gx:ViewerOptions>
				<longitude>13.24398722878621</longitude>
				<latitude>43.08698346328464</latitude>
				<altitude>0</altitude>
				<heading>-3.447311266977131</heading>
				<tilt>9.842407099179766</tilt>
				<range>128.0715139716136</range>
				<gx:altitudeMode>relativeToSeaFloor</gx:altitudeMode>
			</LookAt>
			<styleUrl>#m_ylw-pushpin40</styleUrl>
			<Point>
				<gx:drawOrder>1</gx:drawOrder>
				<coordinates>13.24414193321182,43.08699077872625,0</coordinates>
			</Point>
		</Placemark>
		<Placemark>
			<name>12</name>
			<description>Tieni la sinistra;Keep left</description>
			<LookAt>
				<gx:TimeStamp><when>2022-04-30</when>
</gx:TimeStamp>
				<gx:ViewerOptions>
					<gx:option name="historicalimagery"></gx:option>
					<gx:option enabled="0" name="sunlight"></gx:option>
					<gx:option enabled="0" name="streetview"></gx:option>
				</gx:ViewerOptions>
				<longitude>13.24141009733384</longitude>
				<latitude>43.08879486987178</latitude>
				<altitude>0</altitude>
				<heading>-3.449071767979131</heading>
				<tilt>9.842407099179916</tilt>
				<range>128.0715139727559</range>
				<gx:altitudeMode>relativeToSeaFloor</gx:altitudeMode>
			</LookAt>
			<styleUrl>#m_ylw-pushpin40</styleUrl>
			<Point>
				<gx:drawOrder>1</gx:drawOrder>
				<coordinates>13.24117241289743,43.08900805580974,0</coordinates>
			</Point>
		</Placemark>
		<Placemark>
			<name>13</name>
			<description>Tieni la sinistra;Keep left</description>
			<LookAt>
				<gx:TimeStamp><when>2022-04-30</when>
</gx:TimeStamp>
				<gx:ViewerOptions>
					<gx:option name="historicalimagery"></gx:option>
					<gx:option enabled="0" name="sunlight"></gx:option>
					<gx:option enabled="0" name="streetview"></gx:option>
				</gx:ViewerOptions>
				<longitude>13.22818225304143</longitude>
				<latitude>43.09612672823086</latitude>
				<altitude>0</altitude>
				<heading>-3.45811102272005</heading>
				<tilt>9.842601928244035</tilt>
				<range>254.8508250986573</range>
				<gx:altitudeMode>relativeToSeaFloor</gx:altitudeMode>
			</LookAt>
			<styleUrl>#m_ylw-pushpin40</styleUrl>
			<Point>
				<gx:drawOrder>1</gx:drawOrder>
				<coordinates>13.22772789176828,43.09638708953483,0</coordinates>
			</Point>
		</Placemark>
		<Placemark>
			<name>14</name>
			<description>Tieni la destra;Keep right</description>
			<LookAt>
				<gx:TimeStamp><when>2022-04-30</when>
</gx:TimeStamp>
				<gx:ViewerOptions>
					<gx:option name="historicalimagery"></gx:option>
					<gx:option enabled="0" name="sunlight"></gx:option>
					<gx:option enabled="0" name="streetview"></gx:option>
				</gx:ViewerOptions>
				<longitude>13.22690667570883</longitude>
				<latitude>43.10055608871917</latitude>
				<altitude>0</altitude>
				<heading>-3.458982762337951</heading>
				<tilt>9.84272313918161</tilt>
				<range>333.469784508722</range>
				<gx:altitudeMode>relativeToSeaFloor</gx:altitudeMode>
			</LookAt>
			<styleUrl>#m_ylw-pushpin40</styleUrl>
			<Point>
				<gx:drawOrder>1</gx:drawOrder>
				<coordinates>13.2256372324936,43.10066201065303,0</coordinates>
			</Point>
		</Placemark>
		<Placemark>
			<name>15</name>
			<description>Allo STOP tieni la sinistra;At the STOP sign keep left</description>
			<LookAt>
				<gx:TimeStamp><when>2022-04-30</when>
</gx:TimeStamp>
				<gx:ViewerOptions>
					<gx:option name="historicalimagery"></gx:option>
					<gx:option enabled="0" name="sunlight"></gx:option>
					<gx:option enabled="0" name="streetview"></gx:option>
				</gx:ViewerOptions>
				<longitude>13.24509088132279</longitude>
				<latitude>43.10869188668445</latitude>
				<altitude>0</altitude>
				<heading>-3.446556376437365</heading>
				<tilt>9.842723139181535</tilt>
				<range>333.4697845072734</range>
				<gx:altitudeMode>relativeToSeaFloor</gx:altitudeMode>
			</LookAt>
			<styleUrl>#m_ylw-pushpin40</styleUrl>
			<Point>
				<gx:drawOrder>1</gx:drawOrder>
				<coordinates>13.24384790101151,43.10874262771838,0</coordinates>
			</Point>
		</Placemark>
		<Placemark>
			<name>16</name>
			<description>Continua su strada provinciale 88;Continue on provincial road 88</description>
			<LookAt>
				<gx:TimeStamp><when>2022-04-30</when>
</gx:TimeStamp>
				<gx:ViewerOptions>
					<gx:option name="historicalimagery"></gx:option>
					<gx:option enabled="0" name="sunlight"></gx:option>
					<gx:option enabled="0" name="streetview"></gx:option>
				</gx:ViewerOptions>
				<longitude>13.24497292423321</longitude>
				<latitude>43.10838380176347</latitude>
				<altitude>0</altitude>
				<heading>-3.446637032428526</heading>
				<tilt>9.84272313918161</tilt>
				<range>333.4697845085665</range>
				<gx:altitudeMode>relativeToSeaFloor</gx:altitudeMode>
			</LookAt>
			<styleUrl>#m_ylw-pushpin40</styleUrl>
			<Point>
				<gx:drawOrder>1</gx:drawOrder>
				<coordinates>13.24421281439862,43.10873112157102,0</coordinates>
			</Point>
		</Placemark>
		<Placemark>
			<name>17</name>
			<description>Tinei la sinistra;Keep left</description>
			<LookAt>
				<gx:TimeStamp><when>2022-04-30</when>
</gx:TimeStamp>
				<gx:ViewerOptions>
					<gx:option name="historicalimagery"></gx:option>
					<gx:option enabled="0" name="sunlight"></gx:option>
					<gx:option enabled="0" name="streetview"></gx:option>
				</gx:ViewerOptions>
				<longitude>13.24785479063313</longitude>
				<latitude>43.11589659153049</latitude>
				<altitude>0</altitude>
				<heading>-3.444667596179097</heading>
				<tilt>9.842723139181647</tilt>
				<range>333.4697845073756</range>
				<gx:altitudeMode>relativeToSeaFloor</gx:altitudeMode>
			</LookAt>
			<styleUrl>#m_ylw-pushpin40</styleUrl>
			<Point>
				<gx:drawOrder>1</gx:drawOrder>
				<coordinates>13.24774519426265,43.11620906397248,0</coordinates>
			</Point>
		</Placemark>
		<Placemark>
			<name>18</name>
			<description>Gira a Destra;Turn right</description>
			<LookAt>
				<gx:TimeStamp><when>2022-04-30</when>
</gx:TimeStamp>
				<gx:ViewerOptions>
					<gx:option name="historicalimagery"></gx:option>
					<gx:option enabled="0" name="sunlight"></gx:option>
					<gx:option enabled="0" name="streetview"></gx:option>
				</gx:ViewerOptions>
				<longitude>13.2406501195047</longitude>
				<latitude>43.11913698802922</latitude>
				<altitude>0</altitude>
				<heading>-3.449591843152539</heading>
				<tilt>9.842723139181759</tilt>
				<range>333.4697845080115</range>
				<gx:altitudeMode>relativeToSeaFloor</gx:altitudeMode>
			</LookAt>
			<styleUrl>#m_ylw-pushpin40</styleUrl>
			<Point>
				<gx:drawOrder>1</gx:drawOrder>
				<coordinates>13.23983137936355,43.1192548108061,0</coordinates>
			</Point>
		</Placemark>
		<Placemark>
			<name>19</name>
			<description>Gira a destra e immettiti sulla SP 502;Turn right and enter the SP 502</description>
			<LookAt>
				<gx:TimeStamp><when>2022-04-30</when>
</gx:TimeStamp>
				<gx:ViewerOptions>
					<gx:option name="historicalimagery"></gx:option>
					<gx:option enabled="0" name="sunlight"></gx:option>
					<gx:option enabled="0" name="streetview"></gx:option>
				</gx:ViewerOptions>
				<longitude>13.24108629243193</longitude>
				<latitude>43.11941845418031</latitude>
				<altitude>0</altitude>
				<heading>-3.44929942802749</heading>
				<tilt>11.37610277052016</tilt>
				<range>208.6431765936895</range>
				<gx:altitudeMode>relativeToSeaFloor</gx:altitudeMode>
			</LookAt>
			<styleUrl>#m_ylw-pushpin40</styleUrl>
			<Point>
				<gx:drawOrder>1</gx:drawOrder>
				<coordinates>13.23997938048123,43.11941415361724,0</coordinates>
			</Point>
		</Placemark>
		<Placemark>
			<name>20</name>
			<description>Tieni la destra;Keep right</description>
			<LookAt>
				<gx:TimeStamp><when>2022-04-30</when>
</gx:TimeStamp>
				<gx:ViewerOptions>
					<gx:option name="historicalimagery"></gx:option>
					<gx:option enabled="0" name="sunlight"></gx:option>
					<gx:option enabled="0" name="streetview"></gx:option>
				</gx:ViewerOptions>
				<longitude>13.25960859163122</longitude>
				<latitude>43.1215992092698</latitude>
				<altitude>0</altitude>
				<heading>-3.436638837635679</heading>
				<tilt>11.37610277053922</tilt>
				<range>208.6431769960512</range>
				<gx:altitudeMode>relativeToSeaFloor</gx:altitudeMode>
			</LookAt>
			<styleUrl>#m_ylw-pushpin40</styleUrl>
			<Point>
				<gx:drawOrder>1</gx:drawOrder>
				<coordinates>13.25995817264756,43.12173358670567,0</coordinates>
			</Point>
		</Placemark>
		<Placemark>
			<name>21</name>
			<description>Segui il percorso;Follow the path</description>
			<LookAt>
				<gx:TimeStamp><when>2022-04-30</when>
</gx:TimeStamp>
				<gx:ViewerOptions>
					<gx:option name="historicalimagery"></gx:option>
					<gx:option enabled="0" name="sunlight"></gx:option>
					<gx:option enabled="0" name="streetview"></gx:option>
				</gx:ViewerOptions>
				<longitude>13.26093747752523</longitude>
				<latitude>43.12019540964025</latitude>
				<altitude>0</altitude>
				<heading>-3.435730510689188</heading>
				<tilt>11.37610277054544</tilt>
				<range>208.6431770980403</range>
				<gx:altitudeMode>relativeToSeaFloor</gx:altitudeMode>
			</LookAt>
			<styleUrl>#m_ylw-pushpin40</styleUrl>
			<Point>
				<gx:drawOrder>1</gx:drawOrder>
				<coordinates>13.26057583785004,43.12033121180158,0</coordinates>
			</Point>
		</Placemark>
		<Placemark>
			<name>22</name>
			<description>Tieni la destra;Keep right</description>
			<LookAt>
				<gx:TimeStamp><when>2022-04-30</when>
</gx:TimeStamp>
				<gx:ViewerOptions>
					<gx:option name="historicalimagery"></gx:option>
					<gx:option enabled="0" name="sunlight"></gx:option>
					<gx:option enabled="0" name="streetview"></gx:option>
				</gx:ViewerOptions>
				<longitude>13.26535514527334</longitude>
				<latitude>43.11804259226851</latitude>
				<altitude>0</altitude>
				<heading>-3.432711002386752</heading>
				<tilt>11.37610277055251</tilt>
				<range>208.6431771975414</range>
				<gx:altitudeMode>relativeToSeaFloor</gx:altitudeMode>
			</LookAt>
			<styleUrl>#m_ylw-pushpin40</styleUrl>
			<Point>
				<gx:drawOrder>1</gx:drawOrder>
				<coordinates>13.26502858667234,43.11795793350418,0</coordinates>
			</Point>
		</Placemark>
		<Placemark>
			<name>23</name>
			<description>Gira a sinistra;Turn left</description>
			<LookAt>
				<gx:TimeStamp><when>2022-04-30</when>
</gx:TimeStamp>
				<gx:ViewerOptions>
					<gx:option name="historicalimagery"></gx:option>
					<gx:option enabled="0" name="sunlight"></gx:option>
					<gx:option enabled="0" name="streetview"></gx:option>
				</gx:ViewerOptions>
				<longitude>13.26796288287282</longitude>
				<latitude>43.10829475471579</latitude>
				<altitude>0</altitude>
				<heading>-3.430928750584994</heading>
				<tilt>11.37610277055834</tilt>
				<range>208.6431773597865</range>
				<gx:altitudeMode>relativeToSeaFloor</gx:altitudeMode>
			</LookAt>
			<styleUrl>#m_ylw-pushpin40</styleUrl>
			<Point>
				<gx:drawOrder>1</gx:drawOrder>
				<coordinates>13.26793840549879,43.1082928494761,0</coordinates>
			</Point>
		</Placemark>
		<atom:link rel="app" href="https://www.google.com/earth/about/versions/#earth-pro" title="Google Earth Pro 7.3.6.10441"></atom:link>
	</Folder>
</Document>
</kml>
