<?xml version="1.0" encoding="UTF-8"?>
<kml xmlns="http://www.opengis.net/kml/2.2" xmlns:gx="http://www.google.com/kml/ext/2.2" xmlns:kml="http://www.opengis.net/kml/2.2" xmlns:atom="http://www.w3.org/2005/Atom">
<Document>
	<name>Montecavallo_IOT_indicazioni.kml</name>
	<StyleMap id="__managed_style_0904EBD0973874FF2796">
		<Pair>
			<key>normal</key>
			<styleUrl>#failed80</styleUrl>
		</Pair>
		<Pair>
			<key>highlight</key>
			<styleUrl>#failed900</styleUrl>
		</Pair>
	</StyleMap>
	<Style id="failed80">
		<LineStyle>
			<color>ff0affff</color>
			<width>2</width>
		</LineStyle>
	</Style>
	<Style id="failed900">
		<LineStyle>
			<color>ff0affff</color>
			<width>2</width>
		</LineStyle>
	</Style>
	<StyleMap id="m_ylw-pushpin">
		<Pair>
			<key>normal</key>
			<styleUrl>#s_ylw-pushpin</styleUrl>
		</Pair>
		<Pair>
			<key>highlight</key>
			<styleUrl>#s_ylw-pushpin_hl</styleUrl>
		</Pair>
	</StyleMap>
	<Style id="s_ylw-pushpin">
		<IconStyle>
			<scale>1.1</scale>
			<Icon>
				<href>http://maps.google.com/mapfiles/kml/pushpin/red-pushpin.png</href>
			</Icon>
			<hotSpot x="20" y="2" xunits="pixels" yunits="pixels"/>
		</IconStyle>
		<ListStyle>
		</ListStyle>
	</Style>
	<Style id="s_ylw-pushpin_hl">
		<IconStyle>
			<scale>1.3</scale>
			<Icon>
				<href>http://maps.google.com/mapfiles/kml/pushpin/red-pushpin.png</href>
			</Icon>
			<hotSpot x="20" y="2" xunits="pixels" yunits="pixels"/>
		</IconStyle>
		<ListStyle>
		</ListStyle>
	</Style>
	<Folder>
		<name>IOT</name>
		<open>1</open>
		<Placemark id="55527D13F0000002">
			<name>IOT</name>
			<styleUrl>#__managed_style_0904EBD0973874FF2796</styleUrl>
			<LineString>
				<coordinates>
					12.96371104566456,42.98058865539463,1081.744611320689 12.96380703778052,42.98074847932561,1081.744611320689 12.96403904947677,42.98100114781059,1081.744611320689 12.96402383604494,42.98116573101046,1081.744611320689 12.96415585954043,42.98151225002012,1081.744611320689 12.96426847334216,42.98175646086415,1081.53 12.96430826682734,42.98198114646213,1081.85 12.96445,42.98222,1082.23 12.9646,42.98247,1082.61 12.96505649144039,42.9833210593914,1084.03 12.9651306789548,42.98386810300549,1084.14 12.96511891098227,42.98406009376113,1084.19 12.96508782759496,42.98418562741021,1084.22 12.96505,42.98431,1084.25 12.96499,42.9844,1084.28 12.96471,42.98461,1084.34 12.96465,42.98469,1084.36 12.96459,42.98479,1084.4 12.96458,42.98492,1084.43 12.96464,42.98544,1087.23 12.96467,42.98596,1090.18 12.96466,42.9862,1091.52 12.96454,42.98678,1094.83 12.96426,42.98771,1100.19 12.9639,42.98915,1109.2 12.96387,42.98965,1108.6 12.96392,42.99005,1108.13 12.96393,42.9906,1107.49 12.964,42.99076,1107.28 12.96441,42.99141,1106.44 12.96451,42.99142,1106.43 12.96508,42.99155,1106.4 12.96561,42.99172,1106.35 12.96566,42.99175,1106.35 12.96552,42.99184,1106.51 12.96546,42.99203,1108.48 12.96549,42.99212,1109.41 12.96574,42.99237,1112.46 12.96579,42.99247,1113.54 12.96575,42.99254,1114.3 12.96564,42.99261,1114.33 12.96542,42.99306,1114.6 12.96494,42.99368,1115.03 12.96473,42.99402,1115.24 12.96464,42.99422,1115.36 12.9646,42.99443,1115.49 12.96458,42.99491,1115.77 12.96453,42.99518,1115.93 12.96444,42.99524,1116.06 12.96423,42.9953,1116.32 12.96403,42.99533,1116.56 12.96394,42.99553,1117.31 12.96356,42.99616,1119.89 12.96322,42.99646,1121.35 12.96316,42.99677,1123.35 12.963,42.99708,1125.53 12.96289,42.99741,1127.75 12.96256,42.99804,1137.16 12.96251,42.99825,1140.03 12.96253,42.99858,1140.57 12.96286,42.99937,1141.95 12.96293,42.99958,1142.3 12.96294,42.99979,1145.91 12.9629,42.99996,1149.03 12.96277,43.00014,1152.93 12.96265,43.00026,1155.79 12.96275,43.00037,1155.25 12.96277,43.00039,1154.71 12.96279,43.00049,1154.06 12.96274,43.00106,1150.31 12.96276,43.00187,1144.89 12.96244,43.0038,1123.3 12.96271,43.0055,1097.4 12.96296,43.00596,1091.98 12.96404,43.00744,1080.92 12.96449,43.00784,1073.51 12.96508,43.00817,1069.88 12.96576,43.00844,1070.28 12.96661,43.0085,1070.7 12.96688,43.00847,1070.83 12.96875,43.00887,1072.85 12.96953,43.00909,1075.57 12.96993,43.00911,1076.83 12.97069,43.00935,1071.86 12.97129,43.00938,1068.23 12.97191,43.00938,1064.65 12.97247,43.00944,1054.78 12.97303,43.00966,1043.78 12.97341,43.00977,1041.2 12.97418,43.01027,1037.71 12.97479,43.01044,1037.4 12.97516,43.01064,1038.44 12.9754,43.01088,1039.36 12.97617,43.01115,1038.57 12.97775,43.0116,1036.94 12.97848,43.01174,1034.98 12.97914,43.01178,1030.8 12.97957,43.01186,1028 12.98002,43.01203,1024.82 12.98046,43.01206,1022.01 12.98156,43.0122,1018.69 12.98254,43.01214,1021.9 12.98319,43.01228,1024.01 12.98391,43.01217,1023.99 12.98423,43.01206,1023.98 12.98492,43.01216,1008.42 12.98521,43.01237,1005.24 12.98575,43.01246,998.7099999999998 12.98677,43.01308,972.8899999999999 12.98762,43.0133,952.2899999999998 12.98754,43.01355,960.9499999999998 12.98775,43.01402,965.8499999999999 12.98803,43.01425,962.7899999999998 12.9883,43.01414,951.7900000000001 12.98848,43.01417,946.5299999999999 12.98883,43.01438,939.6399999999999 12.9892,43.01437,928.3200000000002 12.98946,43.01453,926.41 12.98955,43.01446,924.27 12.98936,43.01426,920.0799999999998 12.98926,43.01419,920.9699999999999 12.98907,43.01419,927.16 12.9887,43.01368,928.87 12.98872,43.01357,926.89 12.98882,43.01357,923.7699999999999 12.98897,43.0136,918.5799999999999 12.98924,43.01363,909.6799999999998 12.98988,43.01365,894.64 12.98994,43.01362,894.8499999999999 12.98997,43.01352,895.33 12.9899,43.01343,896.13 12.98989,43.01338,896.2299999999998 12.98992,43.01334,896.33 12.99009,43.01323,896.6799999999998 12.99033,43.01315,897.02 12.99044,43.01316,896.4 12.99057,43.0132,895.61 12.99077,43.01331,894.16 12.99099,43.01336,892.8200000000001 12.99108,43.01335,892.3099999999998 12.99128,43.01324,890.8700000000001 12.99151,43.01309,890.28 12.99157,43.01312,889.45 12.99167,43.01313,888.17 12.99234,43.01298,879.91 12.99258,43.01296,877.0799999999998 12.99278,43.01299,875.1600000000001 12.993,43.01307,875.15 12.9933,43.01323,875.13 12.99368,43.01337,875.1199999999999 12.99376,43.01344,877.4800000000001 12.99377,43.01354,880.26 12.99374,43.01373,885.4199999999997 12.99376,43.01384,888.4399999999999 12.99393,43.01417,898.0899999999999 12.99399,43.01449,906.8899999999998 12.9940153040731,43.0145249723809,907.33 12.99408070805507,43.01454153095651,905.2999999999998 12.99413735647269,43.01452676773031,903.15 12.99420027490747,43.01446807145929,888.3699999999999 12.99455,43.01412,876.3899999999999 12.99463,43.01406,873.62 12.99471602646372,43.01400865690699,872.01 12.99485,43.01399,870.3199999999998 12.99502,43.01402,868.2899999999998 12.99526,43.01409,870.49 12.99551,43.01413,872.62 12.99703,43.01433,892.7300000000001 12.99722,43.01428,889.97 12.99733,43.01422,888.1200000000001 12.99748464322263,43.01407804567386,884.75 12.99756,43.01403,883.28 12.99762,43.01403,883.05 12.99764,43.01407,884.79 12.99765,43.01423,891.4599999999998 12.99771,43.01427,893.1 12.99772,43.0143,894.1799999999999 12.99762827041595,43.01423147956461,891.4599999999998 12.99761959433535,43.01407645542771,884.79 12.99760698143763,43.01404808588831,883.05 12.99756677153204,43.01404855969756,883.28 12.99749902927682,43.01410175084308,884.75 12.99734576100242,43.014230826035,888.1200000000001 12.99722587860579,43.01429865392133,889.97 12.99703025390971,43.0143480109634,892.7300000000001 12.9956743553999,43.01416324639863,882.6700000000001 12.99525603493476,43.01409993264748,870.49 12.99500674873649,43.01403109531402,868.2899999999998 12.9948475827974,43.0139991517722,870.3199999999998 12.99472751680497,43.0140197618509,872.01 12.99464465285793,43.0140660368747,873.62 12.99456587093404,43.01412917068804,876.3899999999999 12.99419850227557,43.01449200332475,900.36 12.99413914766694,43.01454084350722,903.15 12.99407286082105,43.01455698074592,905.2999999999998 12.99400043522987,43.01453486517261,907.33 12.99396752624221,43.01449052850201,906.8899999999998 12.99390146204286,43.01417255309025,898.0899999999999 12.99374157420961,43.01384003646221,888.4399999999999 12.9937219631691,43.01372809305418,885.4199999999997 12.99374966191517,43.01353745276977,880.26 12.99373861077959,43.01344164958582,877.4800000000001 12.99366340932682,43.01337689220627,875.1199999999999 12.99328326839291,43.01323816464191,875.13 12.99298536480729,43.01308002673824,875.15 12.99277177417909,43.01300115596926,875.1600000000001 12.9925546599863,43.01297265671939,877.0799999999998 12.99234364143689,43.01299329795637,879.91 12.9916510026239,43.0131493616148,888.17 12.99154423254714,43.01314236393478,889.45 12.99152003264682,43.01307824872579,890.28 12.99163,43.013,889.6699999999997 12.9918,43.01292,888.97 12.992,43.01286,888.25 12.99238,43.01279,886.9499999999999 12.99265,43.01272,886.0499999999998 12.99293,43.01268,882.6900000000001 12.99307,43.01269,881.15 12.99319,43.01269,879.6199999999999 12.99333,43.01266,877.9300000000001 12.99407,43.01258,875.7399999999999 12.99520485776751,43.01251584053146,878.6999999999999 12.99565,43.01244,881.8799999999999 12.99592,43.01243,884.6 12.99605,43.0124,885.95 12.99608634653315,43.01238966921142,890.0799999999999 12.99625673249761,43.0122816265598,894.22 12.99634170884599,43.01216494262382,899.5199999999999 12.99644879725954,43.01210331253915,902.3399999999999 12.99732,43.01173,923.83 12.99784,43.01156,935.6399999999999 12.99806,43.01157,931.7399999999999 12.99819,43.01156,929.4400000000001 12.99825,43.01154,930.61 12.99836,43.01143,933.9299999999999 12.99859,43.0113,938.96 12.99874,43.01127,934.7199999999999 12.99897,43.01128,928.7099999999999 12.99962,43.01142,903.6 12.99991,43.01156,891.0199999999999 13.00004,43.01158,887.7299999999999 13.0001,43.01159,884.45 13.00038,43.01141,891.1199999999999 13.00069,43.01118,898.99 13.00086,43.01096,904.9499999999999 13.00104,43.01087,903.46 13.00124,43.01083,901.9899999999999 13.00157,43.01083,899.7399999999999 13.00216,43.01078,895.8199999999999 13.00284,43.01066,903.41 13.00296,43.01062,904.7899999999998 13.00317,43.01063,904.17 13.00335,43.01061,903.6799999999999 13.00377,43.01047,910.8499999999999 13.0041,43.01023,917.8299999999999 13.00498,43.00981,922.1699999999998 13.00579,43.00957,909.1 13.00615,43.00935,899.76 13.00628,43.00924,895.98 13.00631,43.00903,895.66 13.00624,43.00885,895.41 13.00553,43.00793,903.0000000000001 13.00546,43.00778,904.1599999999999 13.00537,43.00748,906.34 13.00524,43.00723,908.0399999999998 13.00540494528075,43.00746045321122,906.34 13.00557257651247,43.0075274082261,906.34 13.00555187326829,43.00766399190262,906.34 13.00560005368705,43.00777940330697,906.34 13.00568788415856,43.00792701824541,906.34 13.00581158645351,43.00806792184797,906.34 13.00589080999068,43.00814442743533,906.34 13.00592885970432,43.00819169813261,906.34 13.00600333272245,43.00826834003569,906.34 13.00614544640094,43.00837799193875,906.34 13.00634176197465,43.00854115467683,906.34 13.00647169935137,43.00866991027345,906.34 13.00654421633605,43.00875334842647,906.34 13.00665975401977,43.00884025412149,906.34 13.0068024315038,43.00887683528908,906.34 13.00697063048696,43.00888860301311,906.34 13.00715205992393,43.00888475741601,906.34 13.00724311348133,43.00883607425251,906.34 13.00732549825203,43.00875585631209,906.34 13.00737863950923,43.0086754872213,906.34 13.00744493349655,43.00857667944251,906.34 13.00745365870668,43.00853745371059,906.34 13.00748029719695,43.00845452643296,906.34 13.0075280328542,43.00835953438403,906.34 13.00759013957405,43.00826647160319,906.34 13.00766192489839,43.00826119253959,906.34 13.00774358337281,43.00826320966426,906.34 13.00783519777156,43.00826998689735,906.34 13.00783855186353,43.00827242760025,906.34 13.00790635461148,43.00829046971375,906.34 13.00796249458751,43.00831428524517,906.34 13.00799575263776,43.00832868628974,906.34 13.00800553050146,43.00833093284318,906.34 13.0080625001052,43.00832877190701,906.34 13.00807199501006,43.00832841175087,906.34 13.00814727226303,43.00832032348269,906.34 13.00821051809688,43.00825062042333,906.34 13.00825531996881,43.00821322797707,906.34 13.00833775595613,43.00814231982991,906.34 13.00844503372588,43.00802030278492,906.34 13.00858590514453,43.00790013932532,906.34 13.00870225417194,43.00782293297458,906.34 13.00883893502354,43.00778830119296,906.34 13.00894402680246,43.00778431415912,906.34 13.00902358372463,43.0078140259195,906.34 13.00910117046122,43.00785067204715,906.34 13.00918882715876,43.00789062609055,906.34 13.00930227327039,43.00788632273354,906.34 13.00954104091137,43.00787391661012,906.34 13.00978545229596,43.00789482160393,906.34 13.00996905110523,43.00788785272741,906.34 13.01017814165241,43.00788328185547,906.34 13.0102942221989,43.00784867169252,906.34 13.01043487415211,43.00782663813858,906.34 13.01058356386241,43.00781433307532,906.34 13.01068215340708,43.00786414965376,906.34 13.01077010219044,43.00795606347303,906.34 13.01080351578189,43.00806257903711,906.34 13.01080185355993,43.00815498677159,906.34 13.01080622589762,43.00830418214641,906.34 13.01080563959799,43.00843927718823,906.34 13.010781403024,43.00855568043883,906.34 13.0107902228712,43.00859865680837,906.34 13.01082565714198,43.00871962766885,906.34 13.01087547274606,43.00880444930904,906.34 13.01092511694927,43.00886082697516,906.34 13.01100271116738,43.00887325120347,906.34 13.01107954319284,43.00887033441816,906.34 13.01122526099516,43.00886223904208,906.34 13.01138807126505,43.00885092959881,906.34 13.01158859565934,43.00884844262892,906.34 13.01173640198689,43.00883514211466,906.34 13.01192224776496,43.00882552636766,906.34 13.01205496857177,43.00882048653708,906.34 13.01229368658734,43.00880886484639,906.34 13.01252981399849,43.00880245476021,906.34 13.01276359383929,43.00877826647061,906.34 13.01293805825329,43.0087767367028,906.34 13.01318143162492,43.00876239871658,906.34 13.01341977645006,43.00875334714937,906.34 13.01360378575222,43.00874127116888,906.34 13.01373536055041,43.00872358915744,906.34 13.01382410333765,43.00866498026824,906.34 13.01383,43.0086,769.4 13.01378,43.00856,768.38 13.01369,43.00855,767.15 13.01321,43.00858,773.4 13.01276,43.00859,779.0299999999999 13.01221,43.00846,786.16 13.01207,43.00844,790.6800000000001 13.01187,43.00842,797.22 13.01165,43.00846,804.83 13.01156,43.00845,807.86 13.0115,43.00843,809.97 13.01146,43.00838,810.95 13.01146,43.00833,807.4999999999999 13.01152,43.00816,797.38 13.01161,43.00798,786.17 13.01163,43.0079,781.1599999999999 13.01162,43.0078,775.8200000000001 13.0115,43.00754,759.47 13.01146,43.00732,746.4299999999999 13.01141,43.00725,744.7 13.01133,43.00721,743.88 13.01084,43.00712,739.85 13.01057,43.00709,740.3 13.0101,43.00711,741.0700000000001 13.00993,43.00709,741.35 13.00954,43.00701,742.01 13.00909,43.00687,742.78 13.00841,43.00684,761.59 13.00802,43.00692,778.21 13.00787,43.0069,784.59 13.00775,43.00679,789.05 13.0077,43.00653,788.75 13.00769,43.00623,788.3999999999999 13.00773,43.00595,791.72 13.00769,43.00581,796.3 13.00772,43.00564,797.9 13.00826,43.00514,775.1699999999998 13.0088,43.00474,755.28 13.00899,43.00454,746.6 13.00909,43.00441,742.75 13.0092,43.00411,734.3099999999999 13.00921,43.00392,729.1799999999999 13.00919,43.00375,724.72 13.00914,43.00362,721.24 13.00905,43.00352,719.33 13.00866,43.00325,723.24 13.00836,43.00303,730.96 13.0082,43.00298,734.01 13.00805,43.00286,737.6999999999999 13.00803,43.00241,723.1900000000001 13.00777,43.00176,716.4400000000001 13.0077,43.0014,712.8 13.00764,43.00131,715.17 13.00751,43.0012,718.8200000000001 13.00746,43.00108,721.59 13.00755,43.00022,702.89 13.00748,42.99992,698.67 13.00733,42.99958,693.8 13.00709,42.99925,688.7199999999999 13.007,42.99901,679.2 13.00697,42.99869,666.9400000000001 13.0069,42.99862,667.95 13.00647,42.99834,672.83 13.00608,42.99796,671.72 13.00602,42.99782,667.84 13.00602,42.99761,662.79 13.00598,42.99751,660.3200000000001 13.00542,42.99717,662.95 13.00526,42.99703,663.84 13.005,42.9967,657.49 13.00471,42.99648,653.66 13.00458,42.99638,649.83 13.00457,42.99631,649.01 13.00517,42.99666,654.6 13.00670016670479,42.99733319477932,639.21 13.00691452668629,42.99746130041837,638.52 13.00723510537615,42.99771332493139,637.37 13.00811961840523,42.9985341112898,633.72 13.00846958081672,42.99885964201794,632.36 13.00872534467223,42.99910940772939,631.4 13.00912254356938,42.9995822991647,629.65 13.01010694787294,43.00058681678045,625.77 13.01031136157676,43.00076117392332,625.02 13.0105007449805,43.00083363627851,624.55 13.01079232012223,43.00092333355736,623.8200000000001 13.01098058775308,43.00104871721899,623.28 13.01109936770143,43.00119823486359,622.74 13.01141,43.00174,621.09 13.01161,43.00211,621 13.01138,43.00266,628.41 13.01142,43.00292,631.77 13.01171,43.00343,638.88 13.01176,43.00355,639.65 13.01177,43.00365,641.78 13.01171,43.00401,650.17 13.01181,43.00466,652.6 13.01189,43.00477,648.7 13.01198,43.00484,645.97 13.01204,43.00495,642.6900000000001 13.01211,43.00524,639.98 13.01217,43.00537,638.67 13.01238,43.00553,636.62 13.01262,43.00565,635.14 13.01292,43.00571,631.3 13.01323,43.00574,627.42 13.01371,43.00567,620.79 13.01375,43.00568,619.98 13.01383,43.00569,619.16 13.01392,43.00578,619.04 13.01399,43.00578,618.2 13.01402,43.00574,617.12 13.01396,43.00557,612.49 13.01396,43.00549,610.39 13.01398,43.00545,609.0700000000001 13.01406,43.00542,608.4400000000001 13.01413,43.00541,607.8200000000001 13.01424,43.00543,606.99 13.01481,43.00576,608.09 13.01496,43.00581,607.84 13.01515,43.00583,606.29 13.01426,43.00524,607.49 13.01385,43.00498,608.04 13.01366,43.00484,608.3200000000001 13.01272,43.00384,614.29 13.01247,43.00351,616.51 13.01244,43.00347,618.73 13.01158298279083,43.00209775290931,621 13.0113896809355,43.00174352752157,621.09 13.01105452217366,43.00121090254034,622.74 13.01092842680685,43.00106965019137,623.28 13.01077221754647,43.0009543080466,623.8200000000001 13.01049330529849,43.00086902718228,624.55 13.01029844870633,43.00078515062786,625.02 13.01008102822461,43.00060710777095,625.77 13.00909435832459,42.99959771236271,629.65 13.00869861748899,42.99912532230604,631.4 13.00842968156761,42.99887671461478,632.36 13.00808995648103,42.99854689660194,633.72 13.00719478747501,42.9977319469382,637.37 13.00689227101135,42.99749292450017,638.52 13.00667356039257,42.99735811949692,639.21 13.00515696432626,42.9966863101069,654.6 13.00449286672233,42.99628747428699,649.01 13.00436,42.99621,650.59 13.00365,42.99592,652.3 13.00315,42.99573,653.5700000000001 13.00241,42.9954,655.51 13.00226,42.99531,655.9400000000001 13.00211,42.99519,656.42 13.00183,42.99493,657.42 13.00177,42.9949,657.58 13.0017,42.99489,657.76 13.00164,42.9947,654.9400000000001 13.00174,42.99468,654.54 13.00185,42.99461,653.54 13.00204,42.99449,652.54 13.00216,42.99445,651.85 13.00233987367271,42.99440749279484,650.54 13.00234,42.99428,650.66 13.00232,42.99417,650.75 13.00233,42.99394,650.95 13.00222,42.99352,651.3 13.00220267350906,42.99337794991266,651.46 13.00141813879529,42.99335571976198,671.29 13.00097570284281,42.99335613673522,688.1 13.00097999541082,42.9935397571932,685.7 13.00104069845439,42.99365902833644,683.71 13.00108051562968,42.99369332101455,683.02 13.00113,42.99375,681.75 13.00112,42.99395,678.45 13.00108,42.99404,676.78 13.00081617412658,42.99451256398982,668.37 13.00067351257966,42.99458279041567,668.6199999999999 13.00053942409097,42.99457924721943,668.74 12.99998,42.99442,682.04 12.99966,42.99436,689.09 12.99878,42.99428,691.04 12.99814,42.99424,683.62 12.99791,42.99435,680.9 12.99776211937195,42.9942990727649,682.45 12.99756598439672,42.99426143696427,683.28 12.99629509864649,42.99407593109165,689.98 12.99537762876224,42.99376478586286,701.9400000000001 12.99521157221834,42.99373382663953,706.29 12.9950721990724,42.9937247186614,707.6899999999999 12.99491391277437,42.99374420537145,707.42 12.99452922115851,42.99382368664451,703.79 12.99427166473896,42.99385095867623,705.48 12.99402522781877,42.9938555434677,707.12 12.9934456526132,42.9938327145237,720.86 12.99314323087033,42.99379315028867,728.11 12.99268983126075,42.99362112419782,740.13 12.99198813264226,42.99343457600708,750.14 12.99180696989968,42.99332013235833,752.66 12.99173186277452,42.9931889362413,753.25 12.99168217319423,42.99300856859236,755.5599999999999 12.99159438106098,42.99292291585382,756.47 12.9914295159058,42.99282567754219,757.59 12.99087156400975,42.99257816258652,767.13 12.99059814908591,42.99225960341382,773.21 12.99038427395067,42.99187565295748,783.7900000000001 12.9903313850122,42.99175543744206,785.5800000000002 12.9902811549066,42.99151428298781,790.0799999999998 12.99031605873479,42.99100999407905,794.24 12.99039578887742,42.99083272189998,795.72 12.99054141198817,42.99060322912581,795.54 12.9906816630676,42.99028445455956,798.2899999999998 12.99071521996542,42.98984693132572,802.6299999999999 12.99070676663395,42.98972989399859,803.74 12.99065896807058,42.98953105857521,805.99 12.99052826701658,42.98922571797455,809.08 12.99048426016913,42.98902682267166,811.1599999999999 12.99050478166853,42.98880580395258,813.2599999999999 12.99059642555459,42.98844090659764,816.9699999999999 12.99050698978664,42.98807902258876,820.6299999999998 12.99049802320397,42.98792961385851,821.9599999999999 12.9905818127779,42.98711761060053,830.4400000000001 12.99051895683745,42.98701645764139,833.3100000000001 12.99048055209413,42.98693683114018,836.4400000000001 12.99037367966744,42.98682926057289,840.38 12.99029940815905,42.98680555330448,841.39 12.990224229967,42.98682631077051,842.0799999999999 12.99011,42.9869,843.2699999999999 12.98989,42.98743,850.3799999999999 12.98989,42.98768,853.6799999999998 12.98986,42.98775,856.17 12.98978595705858,42.98777920575295,859.0599999999997 12.98966612485921,42.98773797734029,861.0099999999999 12.98964924852007,42.9876753870851,860.58 12.98965285353521,42.98753951561831,859.1900000000001 12.98974,42.9871,854.3999999999999 12.98969,42.98693,852.62 12.98966,42.98688,852.08 12.98961,42.98686,853.6299999999999 12.98939,42.9868,860.2199999999999 12.98933,42.98676,862.3799999999999 12.98912,42.98656,861.65 12.98909,42.98642,861.23 12.98901,42.9863,860.8300000000002 12.98877,42.98619,867.5199999999999 12.98865,42.98611,871.4199999999998 12.98849,42.98594,878.1799999999999 12.98838,42.98573,880.6599999999999 12.98823,42.98555,882.9499999999999 12.98806,42.98528,880.58 12.988,42.98503,876.0599999999998 12.98803,42.9849,873.58 12.98803,42.9848,871.7699999999999 12.98794,42.98469,869.4399999999999 12.98772,42.98454,878.9499999999999 12.98741,42.98437,891.24 12.98673437567609,42.98409772373169,903.7999999999998 12.98630172975009,42.98395401928333,904.7400000000001 12.98607765680607,42.98391290379488,903.83 12.98565506192174,42.98379718572158,902.1099999999999 12.9854440477605,42.98370887085292,900.9599999999999 12.98506662423345,42.98359566310459,903.8199999999999 12.98482177551594,42.98350386470274,905.52 12.98429604189175,42.98328924040595,902.47 12.98378889401961,42.98304598126262,899.16 12.98315227697637,42.9827754966503,918.24 12.98285285479932,42.98251070256165,918.5299999999999 12.98273679309369,42.98234963362978,918.74 12.98260242418573,42.98222027104433,919.0199999999999 12.98245166017881,42.98213343795457,921.3200000000001 12.98173825302874,42.9818268720308,931.0799999999999 12.98157075915033,42.98174555321251,930.2699999999999 12.98138802446933,42.9815985891375,929.0299999999999 12.98127641045649,42.98136613337281,920.1 12.98123037059513,42.98131848191613,923.3899999999999 12.98115512518798,42.981326074627,924.9100000000001 12.98085707683099,42.98134257246799,929.7999999999998 12.98066855964167,42.98131811484933,931.83 12.98039302648534,42.98119774931128,938.4499999999999 12.97951197464983,42.98127712713343,954.23 12.9787358198052,42.98112031486255,968.8099999999998 12.97857134685835,42.98111988277628,969.6900000000001 12.97791105197504,42.9811899421429,973.37 12.97754997246749,42.9812051981753,975.35 12.97706740239021,42.98116268396942,977.3699999999998 12.97655709523396,42.98123672662664,975.5099999999999 12.97629793052131,42.98120149085602,977.46 12.97617200471113,42.98116211377599,979.03 12.97592124491644,42.98099685580163,986.8899999999999 12.975793274628,42.98095707342523,989.96 12.97550090267391,42.98087511495556,997.6199999999998 12.97527562187851,42.98086103632789,1002.79 12.97512358978985,42.98085663827857,1003.94 12.97468,42.98098,1000.4 12.97430952983289,42.98108112324755,997.7499999999999 12.97380995352227,42.98127451028271,993.6799999999999 12.97337818273293,42.98139138769342,994.7699999999999 12.97270548601981,42.98148948457267,996.8200000000001 12.97230191654216,42.98158945696424,994.21 12.97217064949936,42.98163573751761,992.8399999999999 12.97195,42.98173,990.1900000000001 12.97133,42.98205,982.9299999999999 12.97102,42.98219,983.27 12.97077954537851,42.98224541415815,985.6900000000001 12.97049854960176,42.98231665246644,988.92 12.97008811908399,42.98228678592491,993.4299999999998 12.96976364279945,42.98229160076568,997.2599999999999 12.96956225522195,42.98224851744444,1001.24 12.96927750416264,42.98230616248522,1009.8 12.96914426186045,42.98231029515753,1012.23 12.96905238736326,42.98228568135247,1014.84 12.96897362956104,42.98223154558583,1015.09 12.96891,42.9821,1015.78 12.96883,42.98197,1016.55 12.96876,42.9819,1016.98 12.96843,42.98169,1018.67 12.96833290887147,42.98169194429106,1021.61 12.96804820679012,42.98176726091913,1031.07 12.96793592693307,42.9817562710151,1033.18 12.96783322710557,42.98171345298078,1035 12.96776638849029,42.98159743811501,1034.66 12.9676229747031,42.98126712350909,1033.7 12.96752836385085,42.98119057578942,1033.54 12.9668,42.98074,1040.36 12.96646,42.98046,1044.09 12.96641,42.98044,1044.41 12.96634962566189,42.98041196520666,1045.08 12.96626,42.98039,1047.15 12.96610627960357,42.98038144270649,1050.41 12.96559638084545,42.98040091619225,1060.81 12.96518470072948,42.98045750392097,1070.42 12.96437704311191,42.98075112802581,1084.36 12.96435,42.98101,1083.89 12.96429,42.98129,1083.33 12.96426941163087,42.98131745115884,1083.142988980394 
				</coordinates>
			</LineString>
		</Placemark>
		<Placemark>
			<name>1</name>
			<description>Procedi in direzioone nord;Proceed north</description>
			<LookAt>
				<gx:TimeStamp><when>2022-04-30</when>
</gx:TimeStamp>
				<gx:ViewerOptions>
					<gx:option name="historicalimagery"></gx:option>
					<gx:option enabled="0" name="sunlight"></gx:option>
					<gx:option enabled="0" name="streetview"></gx:option>
				</gx:ViewerOptions>
				<longitude>12.96416749279731</longitude>
				<latitude>42.98115414744254</latitude>
				<altitude>0</altitude>
				<heading>-0.02422245311461142</heading>
				<tilt>30.00164019846923</tilt>
				<range>365.4161302535123</range>
				<gx:altitudeMode>relativeToSeaFloor</gx:altitudeMode>
			</LookAt>
			<styleUrl>#m_ylw-pushpin</styleUrl>
			<Point>
				<gx:drawOrder>1</gx:drawOrder>
				<coordinates>12.96372768459285,42.98070554694912,0</coordinates>
			</Point>
		</Placemark>
		<Placemark>
			<name>2</name>
			<description>Svolta a sinistra verso Località Collattoni;Turn left towards Collattoni</description>
			<LookAt>
				<gx:TimeStamp><when>2022-04-30</when>
</gx:TimeStamp>
				<gx:ViewerOptions>
					<gx:option name="historicalimagery"></gx:option>
					<gx:option enabled="0" name="sunlight"></gx:option>
					<gx:option enabled="0" name="streetview"></gx:option>
				</gx:ViewerOptions>
				<longitude>12.96509552916824</longitude>
				<latitude>42.98346304442953</latitude>
				<altitude>0</altitude>
				<heading>-0.02358976293643685</heading>
				<tilt>30.00164019846916</tilt>
				<range>365.4161302527166</range>
				<gx:altitudeMode>relativeToSeaFloor</gx:altitudeMode>
			</LookAt>
			<styleUrl>#m_ylw-pushpin</styleUrl>
			<Point>
				<gx:drawOrder>1</gx:drawOrder>
				<coordinates>12.96508367586578,42.98327242698602,0</coordinates>
			</Point>
		</Placemark>
		<Placemark>
			<name>3</name>
			<description>Svolta a destra;Turn right</description>
			<LookAt>
				<gx:TimeStamp><when>2022-04-30</when>
</gx:TimeStamp>
				<gx:ViewerOptions>
					<gx:option name="historicalimagery"></gx:option>
					<gx:option enabled="0" name="sunlight"></gx:option>
					<gx:option enabled="0" name="streetview"></gx:option>
				</gx:ViewerOptions>
				<longitude>12.96270045444793</longitude>
				<latitude>43.00041870077004</latitude>
				<altitude>0</altitude>
				<heading>-0.02522485934482209</heading>
				<tilt>30.00108855768521</tilt>
				<range>242.57433729697</range>
				<gx:altitudeMode>relativeToSeaFloor</gx:altitudeMode>
			</LookAt>
			<styleUrl>#m_ylw-pushpin</styleUrl>
			<Point>
				<gx:drawOrder>1</gx:drawOrder>
				<coordinates>12.96270555555556,43.00025833333333,0</coordinates>
			</Point>
		</Placemark>
		<Placemark>
			<name>4</name>
			<description>Continua su Località Valcadara;Continue to Valcadara</description>
			<LookAt>
				<gx:TimeStamp><when>2022-04-30</when>
</gx:TimeStamp>
				<gx:ViewerOptions>
					<gx:option name="historicalimagery"></gx:option>
					<gx:option enabled="0" name="sunlight"></gx:option>
					<gx:option enabled="0" name="streetview"></gx:option>
				</gx:ViewerOptions>
				<longitude>12.98851142575132</longitude>
				<latitude>43.01390579875874</latitude>
				<altitude>0</altitude>
				<heading>-0.01216215137736168</heading>
				<tilt>25.34544400977449</tilt>
				<range>303.5350540596229</range>
				<gx:altitudeMode>relativeToSeaFloor</gx:altitudeMode>
			</LookAt>
			<styleUrl>#m_ylw-pushpin</styleUrl>
			<Point>
				<gx:drawOrder>1</gx:drawOrder>
				<coordinates>12.98940554728865,43.01366654965958,0</coordinates>
			</Point>
		</Placemark>
		<Placemark>
			<name>5</name>
			<description>Svolta a sinistra;Turn left</description>
			<LookAt>
				<gx:TimeStamp><when>2022-04-30</when>
</gx:TimeStamp>
				<gx:ViewerOptions>
					<gx:option name="historicalimagery"></gx:option>
					<gx:option enabled="0" name="sunlight"></gx:option>
					<gx:option enabled="0" name="streetview"></gx:option>
				</gx:ViewerOptions>
				<longitude>12.99150121193195</longitude>
				<latitude>43.0132130437305</latitude>
				<altitude>0</altitude>
				<heading>-0.005573700082796112</heading>
				<tilt>30.00086832045978</tilt>
				<range>192.8396960706456</range>
				<gx:altitudeMode>relativeToSeaFloor</gx:altitudeMode>
			</LookAt>
			<styleUrl>#m_ylw-pushpin</styleUrl>
			<Point>
				<gx:drawOrder>1</gx:drawOrder>
				<coordinates>12.99149493345877,43.01309201459168,0</coordinates>
			</Point>
		</Placemark>
		<Placemark>
			<name>6</name>
			<description>Torna indietro per la stessa strada percorsa per arrivare fino a quì;Go back the same way you came to get here</description>
			<LookAt>
				<gx:TimeStamp><when>2022-04-30</when>
</gx:TimeStamp>
				<gx:ViewerOptions>
					<gx:option name="historicalimagery"></gx:option>
					<gx:option enabled="0" name="sunlight"></gx:option>
					<gx:option enabled="0" name="streetview"></gx:option>
				</gx:ViewerOptions>
				<longitude>12.99732669124915</longitude>
				<latitude>43.01430571697775</latitude>
				<altitude>0</altitude>
				<heading>-0.001601634185369377</heading>
				<tilt>30.00095706864003</tilt>
				<range>213.1009264208115</range>
				<gx:altitudeMode>relativeToSeaFloor</gx:altitudeMode>
			</LookAt>
			<styleUrl>#m_ylw-pushpin</styleUrl>
			<Point>
				<gx:drawOrder>1</gx:drawOrder>
				<coordinates>12.99771883078709,43.01424742875119,0</coordinates>
			</Point>
		</Placemark>
		<Placemark>
			<name>7</name>
			<description>Svolta a sinistra;Turn left</description>
			<LookAt>
				<gx:TimeStamp><when>2022-04-30</when>
</gx:TimeStamp>
				<gx:ViewerOptions>
					<gx:option name="historicalimagery"></gx:option>
					<gx:option enabled="0" name="sunlight"></gx:option>
					<gx:option enabled="0" name="streetview"></gx:option>
				</gx:ViewerOptions>
				<longitude>12.99091656372407</longitude>
				<latitude>43.01331246330161</latitude>
				<altitude>0</altitude>
				<heading>-0.006413892180877344</heading>
				<tilt>29.50220577435329</tilt>
				<range>192.3860670813245</range>
				<gx:altitudeMode>relativeToSeaFloor</gx:altitudeMode>
			</LookAt>
			<styleUrl>#m_ylw-pushpin</styleUrl>
			<Point>
				<gx:drawOrder>1</gx:drawOrder>
				<coordinates>12.99156111111111,43.01315833333334,0</coordinates>
			</Point>
		</Placemark>
		<Placemark>
			<name>8</name>
			<description>Svolta a sinistra;Turn left</description>
			<LookAt>
				<gx:TimeStamp><when>2022-04-30</when>
</gx:TimeStamp>
				<gx:ViewerOptions>
					<gx:option name="historicalimagery"></gx:option>
					<gx:option enabled="0" name="sunlight"></gx:option>
					<gx:option enabled="0" name="streetview"></gx:option>
				</gx:ViewerOptions>
				<longitude>13.00447641540519</longitude>
				<latitude>43.00714356770504</latitude>
				<altitude>0</altitude>
				<heading>0.002773668555558176</heading>
				<tilt>29.43123493471177</tilt>
				<range>424.2951565193288</range>
				<gx:altitudeMode>relativeToSeaFloor</gx:altitudeMode>
			</LookAt>
			<styleUrl>#m_ylw-pushpin</styleUrl>
			<Point>
				<gx:drawOrder>1</gx:drawOrder>
				<coordinates>13.00518611111111,43.00728055555555,0</coordinates>
			</Point>
		</Placemark>
		<Placemark>
			<name>9</name>
			<description>Svolta tutto a sinistra e prendi Str. Provincilae Caspriano Montecavallo;Turn sharp left and take Str. Provincilae Caspriano Montecavallo</description>
			<LookAt>
				<gx:TimeStamp><when>2022-04-30</when>
</gx:TimeStamp>
				<gx:ViewerOptions>
					<gx:option name="historicalimagery"></gx:option>
					<gx:option enabled="0" name="sunlight"></gx:option>
					<gx:option enabled="0" name="streetview"></gx:option>
				</gx:ViewerOptions>
				<longitude>13.00396036875048</longitude>
				<latitude>42.99642921430214</latitude>
				<altitude>0</altitude>
				<heading>0.002772893640523358</heading>
				<tilt>30.0009006700372</tilt>
				<range>200.5431893277242</range>
				<gx:altitudeMode>relativeToSeaFloor</gx:altitudeMode>
			</LookAt>
			<styleUrl>#m_ylw-pushpin</styleUrl>
			<Point>
				<gx:drawOrder>1</gx:drawOrder>
				<coordinates>13.00454843723267,42.99637208821814,0</coordinates>
			</Point>
		</Placemark>
		<Placemark>
			<name>10</name>
			<description>Svolta leggermente a sinistra e prendi Viale S. Benedetto;Turn slightly left and take Viale S. Benedetto</description>
			<LookAt>
				<gx:TimeStamp><when>2022-04-30</when>
</gx:TimeStamp>
				<gx:ViewerOptions>
					<gx:option name="historicalimagery"></gx:option>
					<gx:option enabled="0" name="sunlight"></gx:option>
					<gx:option enabled="0" name="streetview"></gx:option>
				</gx:ViewerOptions>
				<longitude>13.01150549101807</longitude>
				<latitude>43.00209720696986</latitude>
				<altitude>0</altitude>
				<heading>0.007918424260369808</heading>
				<tilt>30.00090067003718</tilt>
				<range>200.5431893215303</range>
				<gx:altitudeMode>relativeToSeaFloor</gx:altitudeMode>
			</LookAt>
			<styleUrl>#m_ylw-pushpin</styleUrl>
			<Point>
				<gx:drawOrder>1</gx:drawOrder>
				<coordinates>13.01163294960991,43.0020937555479,0</coordinates>
			</Point>
		</Placemark>
		<Placemark>
			<name>11</name>
			<description>Procedi in direzione sud verso Str. Provincilae Caspriano Montecavallo;Proceed south towards Provincial Road Caspriano Montecavallo</description>
			<LookAt>
				<gx:TimeStamp><when>2022-04-30</when>
</gx:TimeStamp>
				<gx:ViewerOptions>
					<gx:option name="historicalimagery"></gx:option>
					<gx:option enabled="0" name="sunlight"></gx:option>
					<gx:option enabled="0" name="streetview"></gx:option>
				</gx:ViewerOptions>
				<longitude>13.01407425946381</longitude>
				<latitude>43.00511861554739</latitude>
				<altitude>0</altitude>
				<heading>0.002479247747109462</heading>
				<tilt>22.61493060048485</tilt>
				<range>217.8829866302017</range>
				<gx:altitudeMode>relativeToSeaFloor</gx:altitudeMode>
			</LookAt>
			<styleUrl>#m_ylw-pushpin</styleUrl>
			<Point>
				<gx:drawOrder>1</gx:drawOrder>
				<coordinates>13.01516436844165,43.00584916078246,0</coordinates>
			</Point>
		</Placemark>
		<Placemark>
			<name>12</name>
			<description>Svolta a sinistra;Turn left</description>
			<LookAt>
				<gx:TimeStamp><when>2022-04-30</when>
</gx:TimeStamp>
				<gx:ViewerOptions>
					<gx:option name="historicalimagery"></gx:option>
					<gx:option enabled="0" name="sunlight"></gx:option>
					<gx:option enabled="0" name="streetview"></gx:option>
				</gx:ViewerOptions>
				<longitude>13.00260046188028</longitude>
				<latitude>42.99453169996958</latitude>
				<altitude>0</altitude>
				<heading>-0.004171625943892908</heading>
				<tilt>23.60082555858738</tilt>
				<range>338.4547253570598</range>
				<gx:altitudeMode>relativeToSeaFloor</gx:altitudeMode>
			</LookAt>
			<styleUrl>#m_ylw-pushpin</styleUrl>
			<Point>
				<gx:drawOrder>1</gx:drawOrder>
				<coordinates>13.00171234541156,42.99491786151913,0</coordinates>
			</Point>
		</Placemark>
		<Placemark>
			<name>13</name>
			<description>Svolta a destra;Turn right</description>
			<LookAt>
				<gx:TimeStamp><when>2022-04-30</when>
</gx:TimeStamp>
				<gx:ViewerOptions>
					<gx:option name="historicalimagery"></gx:option>
					<gx:option enabled="0" name="sunlight"></gx:option>
					<gx:option enabled="0" name="streetview"></gx:option>
				</gx:ViewerOptions>
				<longitude>13.00232700242558</longitude>
				<latitude>42.99385526312958</latitude>
				<altitude>0</altitude>
				<heading>-0.004358101132717586</heading>
				<tilt>23.60082555858744</tilt>
				<range>338.4547253523076</range>
				<gx:altitudeMode>relativeToSeaFloor</gx:altitudeMode>
			</LookAt>
			<styleUrl>#m_ylw-pushpin</styleUrl>
			<Point>
				<gx:drawOrder>1</gx:drawOrder>
				<coordinates>13.00237777777778,42.99440277777778,0</coordinates>
			</Point>
		</Placemark>
		<Placemark>
			<name>14</name>
			<open>1</open>
			<description>Svolta a destra;Turn right</description>
			<LookAt>
				<gx:TimeStamp><when>2022-04-30</when>
</gx:TimeStamp>
				<gx:ViewerOptions>
					<gx:option name="historicalimagery"></gx:option>
					<gx:option enabled="0" name="sunlight"></gx:option>
					<gx:option enabled="0" name="streetview"></gx:option>
				</gx:ViewerOptions>
				<longitude>13.00232700242558</longitude>
				<latitude>42.99385526312958</latitude>
				<altitude>0</altitude>
				<heading>-0.004358101132717586</heading>
				<tilt>23.60082555858744</tilt>
				<range>338.4547253523076</range>
				<gx:altitudeMode>relativeToSeaFloor</gx:altitudeMode>
			</LookAt>
			<styleUrl>#m_ylw-pushpin</styleUrl>
			<Point>
				<gx:drawOrder>1</gx:drawOrder>
				<coordinates>13.00224821500106,42.9933757041093,0</coordinates>
			</Point>
		</Placemark>
		<Placemark>
			<name>15</name>
			<description>Svolta a destra e prendi Via Roma;Turn right and take Via Roma</description>
			<LookAt>
				<gx:TimeStamp><when>2022-04-30</when>
</gx:TimeStamp>
				<gx:ViewerOptions>
					<gx:option name="historicalimagery"></gx:option>
					<gx:option enabled="0" name="sunlight"></gx:option>
					<gx:option enabled="0" name="streetview"></gx:option>
				</gx:ViewerOptions>
				<longitude>13.00232700242556</longitude>
				<latitude>42.99385526312957</latitude>
				<altitude>0</altitude>
				<heading>-0.004358101132642839</heading>
				<tilt>23.60082555858741</tilt>
				<range>338.4547253530336</range>
				<gx:altitudeMode>relativeToSeaFloor</gx:altitudeMode>
			</LookAt>
			<styleUrl>#m_ylw-pushpin</styleUrl>
			<Point>
				<gx:drawOrder>1</gx:drawOrder>
				<coordinates>13.00101806956047,42.99339197600068,0</coordinates>
			</Point>
		</Placemark>
		<Placemark>
			<name>16</name>
			<description>Via Roma svolta leggermente a sinistra e diventa Via Umberto I;Via Roma turns slightly left and becomes Via Umberto I</description>
			<LookAt>
				<gx:TimeStamp><when>2022-04-30</when>
</gx:TimeStamp>
				<gx:ViewerOptions>
					<gx:option name="historicalimagery"></gx:option>
					<gx:option enabled="0" name="sunlight"></gx:option>
					<gx:option enabled="0" name="streetview"></gx:option>
				</gx:ViewerOptions>
				<longitude>13.00191432297032</longitude>
				<latitude>42.99377393566309</latitude>
				<altitude>0</altitude>
				<heading>-0.004639509874386134</heading>
				<tilt>23.60082555858731</tilt>
				<range>338.4547253587714</range>
				<gx:altitudeMode>relativeToSeaFloor</gx:altitudeMode>
			</LookAt>
			<styleUrl>#m_ylw-pushpin</styleUrl>
			<Point>
				<gx:drawOrder>1</gx:drawOrder>
				<coordinates>13.00088068002136,42.99448873744426,0</coordinates>
			</Point>
		</Placemark>
		<Placemark>
			<name>17</name>
			<description>Svolta a sinistra;Turn left</description>
			<LookAt>
				<gx:TimeStamp><when>2022-04-30</when>
</gx:TimeStamp>
				<gx:ViewerOptions>
					<gx:option name="historicalimagery"></gx:option>
					<gx:option enabled="0" name="sunlight"></gx:option>
					<gx:option enabled="0" name="streetview"></gx:option>
				</gx:ViewerOptions>
				<longitude>12.99965631591712</longitude>
				<latitude>42.99427697922142</latitude>
				<altitude>0</altitude>
				<heading>-0.006179303937919247</heading>
				<tilt>23.60082555858741</tilt>
				<range>338.454725355418</range>
				<gx:altitudeMode>relativeToSeaFloor</gx:altitudeMode>
			</LookAt>
			<styleUrl>#m_ylw-pushpin</styleUrl>
			<Point>
				<gx:drawOrder>1</gx:drawOrder>
				<coordinates>12.99793888888889,42.99438611111111,0</coordinates>
			</Point>
		</Placemark>
		<Placemark>
			<name>18</name>
			<description>Svolta a sinistra;Turn left</description>
			<LookAt>
				<gx:TimeStamp><when>2022-04-30</when>
</gx:TimeStamp>
				<gx:ViewerOptions>
					<gx:option name="historicalimagery"></gx:option>
					<gx:option enabled="0" name="sunlight"></gx:option>
					<gx:option enabled="0" name="streetview"></gx:option>
				</gx:ViewerOptions>
				<longitude>12.96687331279317</longitude>
				<latitude>42.98016881429329</latitude>
				<altitude>0</altitude>
				<heading>-0.02255647091381787</heading>
				<tilt>30.00188298246203</tilt>
				<range>419.4136722264271</range>
				<gx:altitudeMode>relativeToSeaFloor</gx:altitudeMode>
			</LookAt>
			<styleUrl>#m_ylw-pushpin</styleUrl>
			<Point>
				<gx:drawOrder>1</gx:drawOrder>
				<coordinates>12.96643611111111,42.98050833333333,0</coordinates>
			</Point>
		</Placemark>
		<Placemark>
			<name>19</name>
			<description>Svolta a destra;Turn right</description>
			<LookAt>
				<gx:TimeStamp><when>2022-04-30</when>
</gx:TimeStamp>
				<gx:ViewerOptions>
					<gx:option name="historicalimagery"></gx:option>
					<gx:option enabled="0" name="sunlight"></gx:option>
					<gx:option enabled="0" name="streetview"></gx:option>
				</gx:ViewerOptions>
				<longitude>12.96687331279317</longitude>
				<latitude>42.98016881429329</latitude>
				<altitude>0</altitude>
				<heading>-0.02255647091381787</heading>
				<tilt>30.00188298246203</tilt>
				<range>419.4136722264271</range>
				<gx:altitudeMode>relativeToSeaFloor</gx:altitudeMode>
			</LookAt>
			<styleUrl>#m_ylw-pushpin</styleUrl>
			<Point>
				<gx:drawOrder>1</gx:drawOrder>
				<coordinates>12.96444444444445,42.98078611111112,0</coordinates>
			</Point>
		</Placemark>
		<atom:link rel="app" href="https://www.google.com/earth/about/versions/#earth-pro" title="Google Earth Pro 7.3.6.10441"></atom:link>
	</Folder>
</Document>
</kml>
