<?xml version="1.0" encoding="UTF-8"?>
<kml xmlns="http://www.opengis.net/kml/2.2" xmlns:gx="http://www.google.com/kml/ext/2.2" xmlns:kml="http://www.opengis.net/kml/2.2" xmlns:atom="http://www.w3.org/2005/Atom">
<Document>
	<name>Camporotondo_IOT.kml</name>
	<StyleMap id="__managed_style_0B5A7E76A83595C788D80">
		<Pair>
			<key>normal</key>
			<styleUrl>#failed60</styleUrl>
		</Pair>
		<Pair>
			<key>highlight</key>
			<styleUrl>#failed50</styleUrl>
		</Pair>
	</StyleMap>
	<Style id="failed50">
		<LineStyle>
			<color>ff00ffff</color>
			<width>4</width>
		</LineStyle>
	</Style>
	<Style id="failed60">
		<LineStyle>
			<color>ff00ffff</color>
			<width>4</width>
		</LineStyle>
	</Style>
	<StyleMap id="m_ylw-pushpin">
		<Pair>
			<key>normal</key>
			<styleUrl>#s_ylw-pushpin</styleUrl>
		</Pair>
		<Pair>
			<key>highlight</key>
			<styleUrl>#s_ylw-pushpin_hl</styleUrl>
		</Pair>
	</StyleMap>
	<Style id="s_ylw-pushpin">
		<IconStyle>
			<color>ff0701fc</color>
			<scale>1.1</scale>
			<Icon>
				<href>http://maps.google.com/mapfiles/kml/pushpin/ylw-pushpin.png</href>
			</Icon>
			<hotSpot x="20" y="2" xunits="pixels" yunits="pixels"/>
		</IconStyle>
	</Style>
	<Style id="s_ylw-pushpin_hl">
		<IconStyle>
			<color>ff0701fc</color>
			<scale>1.3</scale>
			<Icon>
				<href>http://maps.google.com/mapfiles/kml/pushpin/ylw-pushpin.png</href>
			</Icon>
			<hotSpot x="20" y="2" xunits="pixels" yunits="pixels"/>
		</IconStyle>
	</Style>
	<Folder>
		<name>IOT</name>
		<open>1</open>
		<Placemark>
			<name>IoT &quot;Sulle orme della poesia&quot;</name>
			<styleUrl>#__managed_style_0B5A7E76A83595C788D80</styleUrl>
			<LineString>
				<tessellate>1</tessellate>
				<coordinates>
					13.26520149436255,43.13190514159309,0 13.26537419187772,43.13190699349462,0 13.26560048941738,43.13201679985944,0 13.26559448505953,43.13213137265051,0 13.26553851843198,43.13235745014627,0 13.26547254300256,43.13246848803789,0 13.26570059506975,43.13258732946652,0 13.26599436815778,43.13195580719105,0 13.26604079830162,43.13184959304172,0 13.2658986302058,43.13166552073002,0 13.2659201174287,43.1315933540519,0 13.26673808833323,43.13155171764332,0 13.2673476381607,43.13160345193926,0 13.26763377095924,43.13172203068073,0 13.26822262350192,43.13232721268071,0 13.26893605585128,43.13258347862732,0 13.269642655186,43.13257070582154,0 13.27050960286455,43.1324870882981,0 13.27107941339119,43.13240174935815,0 13.27129472706668,43.13268177932424,0 13.27141996382333,43.13306398103774,0 13.27184094730824,43.13414861309467,0 13.27203576837172,43.13442835892305,0 13.27226563713764,43.13452269260818,0 13.27255448376162,43.13446016325517,0 13.27304027573363,43.13452665739434,0 13.2734924054777,43.13454358899751,0 13.2739783302742,43.13469094410699,0 13.27453101441095,43.13492944975678,0 13.27503179897283,43.13524129375809,0 13.27535210148526,43.13549562721596,0 13.27561112825006,43.13559306593191,0 13.27589651983734,43.13575446418266,0 13.27613889847107,43.13595866925435,0 13.27624083141122,43.13610341050687,0 13.27626322758315,43.13622685084326,0 13.27642748201725,43.13635245484237,0 13.27659423138714,43.13645076678299,0 13.27673138909407,43.13662887540754,0 13.27687500174329,43.13675489296553,0 13.27720992614726,43.13691074134637,0 13.27768406863964,43.13691183181878,0 13.27809930208413,43.1368608574198,0 13.27853294988584,43.13686474868022,0 13.27863729805982,43.13679902420266,0 13.2784890519665,43.13648592740549,0 13.278493883611,43.13639011623798,0 13.27874672459102,43.13630865136773,0 13.27904395461173,43.13643087752364,0 13.27911042419889,43.13658480875054,0 13.2791314869108,43.13674361720937,0 13.27881839542854,43.13701173333317,0 13.27883941925204,43.13724697475717,0 13.2789400109147,43.13750839496224,0 13.27910317632195,43.13757557950614,0 13.27943377157934,43.13774055154006,0 13.2797901111362,43.13803414896331,0 13.27989757350442,43.13809017885276,0 13.28009968037287,43.13805265207809,0 13.28076482844385,43.13775544298399,0 13.280887274327,43.137732871456,0 13.28159275029089,43.13796873805595,0 13.28203453497414,43.13807617194703,0 13.28202205173484,43.1383289209796,0 13.28162539958973,43.1386891133329,0 13.28128003919595,43.1387840535149,0 13.28084472582838,43.13916880086865,0 13.28077076386003,43.13930824686016,0 13.28071111749168,43.13975744993891,0 13.28082517102774,43.13988251170785,0 13.28074278315817,43.13995462819175,0 13.28039209358441,43.13995425580053,0 13.2800524115661,43.14008800603218,0 13.27975829982212,43.14016122632068,0 13.28011322819693,43.14028095437551,0 13.28071588440876,43.14042092729693,0 13.28085306059126,43.14058925469595,0 13.28093661639477,43.14111339486623,0 13.28112003330501,43.14159489724802,0 13.28112346977488,43.14179994096177,0 13.28120576723773,43.1422367588607,0 13.28116457642237,43.1425752550543,0 13.28048127878817,43.14374770736327,0 13.28048857773594,43.14409533804042,0 13.28047783337865,43.1443439608573,0 13.28066197958326,43.14442144460588,0 13.28070288992419,43.1444864160224,0 13.28069448796505,43.14462199592042,0 13.28032460612997,43.1452254310627,0 13.28033366853473,43.14565896133098,0 13.28042535644763,43.14608175140483,0 13.28038587511007,43.14650800643827,0 13.28045903345352,43.14666586397765,0 13.28083864477929,43.14712224450976,0 13.28131667992464,43.14772415051838,0 13.28159852075483,43.14791178205043,0 13.28197964202576,43.14801035939605,0 13.28308734385098,43.14790316004085,0 13.28353302645936,43.14785369926987,0 13.28412642723476,43.14779306928394,0 13.28472616850794,43.14788948883051,0 13.28520058823327,43.14804506205004,0 13.28544399895674,43.14821292444287,0 13.28566560062118,43.14870742115325,0 13.28620302494782,43.14900623592412,0 13.28680963996848,43.14917460955215,0 13.28751827343538,43.14930441962576,0 13.28794124035028,43.14950938349574,0 13.28824587284187,43.14962666563688,0 13.28841235444088,43.14966209120357,0 13.28863655230317,43.14968743751798,0 13.28879770304502,43.14968068644031,0 13.28882134881199,43.14975322693523,0 13.2887071792824,43.14996836942025,0 13.28864173893473,43.15020464498668,0 13.28860168396565,43.15037352250713,0 13.28860067641721,43.15057485727294,0 13.28866879496607,43.15083542164324,0 13.28869961995545,43.15106988327324,0 13.28867163655959,43.15128323001483,0 13.28859408220441,43.15156461736899,0 13.28856919110109,43.15171146686765,0 13.2886760370286,43.15197012691817,0 13.28874309322336,43.1521681381118,0 13.28879668032869,43.15244507050922,0 13.28872891076529,43.15295798602693,0 13.28854319904223,43.15296634019693,0 13.28837460037372,43.15286151148648,0 13.28809204835788,43.15267483493307,0 13.28785975842043,43.15268844987502,0 13.28691968050232,43.15267047417796,0 13.28671624726017,43.15288029910977,0 13.2864074038048,43.15300186072088,0 13.28620340361512,43.15301876420866,0 13.28610222183199,43.1529937060007,0 13.28607252888878,43.15288390504124,0 13.28601508264027,43.1526234361712,0 13.28602498349362,43.15224492635827,0 13.28578928252098,43.15196067566196,0 13.28569060060263,43.15189994144876,0 13.28498796460005,43.15177673290704,0 13.28466608798554,43.15168820817039,0 13.28398654548661,43.15140886138615,0 13.28274855874795,43.15113444124492,0 13.28200621239304,43.1506434528274,0 13.28186783732418,43.15059768100986,0 13.28138633582767,43.15050192227883,0 13.28129377742295,43.15046311457682,0 13.28112991241768,43.15038325170879,0 13.28079096111617,43.15020416956838,0 13.28059276409266,43.15008335948183,0 13.27999352623483,43.14992793422589,0 13.27873621145414,43.15004953086051,0 13.27736876593106,43.15074104880315,0 13.2766852748085,43.15050276349992,0 13.27649855267147,43.14983174226413,0 13.27583056065497,43.14944564642848,0 13.27565504759326,43.14946818559236,0 13.2755561730907,43.14970510425489,0 13.27444402766369,43.14969652164818,0 13.27419781922385,43.14978492302398,0 13.27379422012929,43.15012908353275,0 13.27142510836838,43.15068618609113,0 13.27068560720823,43.15060640678072,0 13.26974424574635,43.15023806982647,0 13.26942100126922,43.15022211855985,0 13.26912232684395,43.15026008491532,0 13.26862847684921,43.15032933145504,0 13.26803540029537,43.15033779127585,0 13.26788032792394,43.15004926134924,0 13.26831630411025,43.14947174868703,0 13.26824643022536,43.14926474544922,0 13.26776555097442,43.14882005577182,0 13.26750663978371,43.14819397344651,0 13.26758018582936,43.14804237448319,0 13.26793259825656,43.14760182065761,0 13.26816361382358,43.14716523075566,0 13.26853145175338,43.14676192441004,0 13.26901151713546,43.14647737825759,0 13.26900686802237,43.14642367297573,0 13.268095361556,43.14644971276426,0 13.26785629704048,43.14650779932148,0 13.26768077321217,43.14661227976341,0 13.26769942452352,43.14683614594789,0 13.26766316966355,43.1470192912608,0 13.26748274346169,43.14715701179686,0 13.26722773389035,43.14711193235653,0 13.26716923656718,43.14665952818042,0 13.26734431776325,43.1462036947639,0 13.26756674136458,43.14589182340311,0 13.2679919755527,43.14544122304467,0 13.26805570737141,43.14528733115007,0 13.26805657009086,43.14501609898002,0 13.26779216461153,43.14405882109638,0 13.26788034822376,43.1438285049103,0 13.26814582675456,43.14361957319364,0 13.26831224927593,43.14335394995742,0 13.26825471661221,43.14319162117894,0 13.26805213315113,43.14310553872905,0 13.26779226289054,43.14314871754693,0 13.26755792587558,43.14337553011463,0 13.26725378316247,43.14352367953146,0 13.26691337082483,43.14365482538619,0 13.26641517975651,43.14369106285021,0 13.26607912611314,43.14362195795753,0 13.2658549969647,43.14339513776302,0 13.26575399928562,43.14319969353441,0 13.26576209406149,43.14291521657996,0 13.26606547007264,43.14211620008558,0 13.26616377606109,43.14143029027916,0 13.26607902254141,43.14133964371126,0 13.2658923603512,43.14130837188119,0 13.26563347678616,43.14132173911228,0 13.26519160179052,43.14124866941535,0 13.26492004851716,43.1411983765305,0 13.2645561519187,43.14121165450475,0 13.26433798973211,43.14129651583283,0 13.26409232100283,43.141545922171,0 13.26383144151735,43.14196287219886,0 13.26388206542604,43.14217634889846,0 13.26388160709073,43.14241741285603,0 13.26381543616971,43.14256244779191,0 13.2636536668817,43.14275141850894,0 13.26267850688311,43.14361564693051,0 13.26140921469412,43.14472466372928,0 13.26116629178095,43.1449933715158,0 13.26114809367699,43.1451885953024,0 13.26125157323709,43.14541768898286,0 13.26171812790994,43.14599462242172,0 13.26184978611212,43.14618281487765,0 13.26186096236489,43.14637826380611,0 13.26193369426623,43.14644986893114,0 13.26199983680817,43.14636956464338,0 13.26192873018492,43.14600751636507,0 13.26204326386103,43.14605688164112,0 13.26202222693562,43.14639942494289,0 13.26192124220832,43.14647403410611,0 13.26183284683692,43.14637113893305,0 13.26181390591525,43.14617297661222,0 13.26167869570942,43.14600859183485,0 13.26120981487234,43.14542204618543,0 13.26109134092597,43.1451907116326,0 13.26111704570056,43.14499739082737,0 13.26138710980672,43.14471135873465,0 13.26267137566861,43.14360398074007,0 13.26364521875552,43.14272577720536,0 13.26379574094473,43.14254702182556,0 13.26385149452123,43.14240364125485,0 13.2638540585021,43.14217479956816,0 13.26378227699904,43.14197583329018,0 13.26349745839056,43.14157521237312,0 13.26338372149608,43.1413802319036,0 13.26336514595415,43.14121068776514,0 13.2634985956065,43.14036602035833,0 13.26354063465532,43.14023166318835,0 13.26376403623821,43.14002202899674,0 13.26387023298431,43.13990729991153,0 13.26391404737619,43.13978483347912,0 13.26390035307855,43.13901285206497,0 13.26379708736691,43.1387522440444,0 13.2636651534197,43.13852546646332,0 13.263557449318,43.13838447368977,0 13.26314335489258,43.13736913586933,0 13.26315673261119,43.1372264644546,0 13.26346500149435,43.13672901843812,0 13.26363010435539,43.13660492321563,0 13.26396169932955,43.13654748312462,0 13.26422462847193,43.13657524059004,0 13.26494781256342,43.13667696414616,0 13.26515516860008,43.13667129556888,0 13.26547001097457,43.13654204157632,0 13.26566243202235,43.13634205942476,0 13.26573745545999,43.13615777290781,0 13.26578233404484,43.13582320073472,0 13.26578888153986,43.13565934044102,0 13.26586471466772,43.13542945667488,0 13.26619676455035,43.13492960148037,0 13.26629573202597,43.13475945761717,0 13.26631758310487,43.13448713919786,0 13.26628183883795,43.13433993390563,0 13.26610982386352,43.13420541313447,0 13.2660139209097,43.13403357494172,0 13.26569048558246,43.13377412062189,0 13.26562463938681,43.13339355636064,0 13.26565896344212,43.13308400968254,0 13.26567380526336,43.13272741702762,0 13.26577406602119,43.13249302244144,0 13.26601895127457,43.13196358152091,0 13.26607173580699,43.13183446266343,0 13.26604517049594,43.13169985631231,0 13.26489635076879,43.1312854836394,0 
				</coordinates>
			</LineString>
		</Placemark>
		<Placemark>
			<name>1</name>
			<description>Esci dalla piazza e prendi Via Roma;Exit the square and take Via Roma</description>
			<LookAt>
				<gx:TimeStamp><when>2022-04-30</when>
</gx:TimeStamp>
				<gx:ViewerOptions>
					<gx:option name="historicalimagery"></gx:option>
					<gx:option enabled="0" name="sunlight"></gx:option>
					<gx:option enabled="0" name="streetview"></gx:option>
				</gx:ViewerOptions>
				<longitude>13.26532370043483</longitude>
				<latitude>43.13180175386831</latitude>
				<altitude>0</altitude>
				<heading>-0.00863461621762987</heading>
				<tilt>27.45742081573718</tilt>
				<range>197.9918333847833</range>
				<gx:altitudeMode>relativeToSeaFloor</gx:altitudeMode>
			</LookAt>
			<styleUrl>#m_ylw-pushpin</styleUrl>
			<Point>
				<gx:drawOrder>1</gx:drawOrder>
				<coordinates>13.26538275583434,43.13193051492922,0</coordinates>
			</Point>
		</Placemark>
		<Placemark>
			<name>2</name>
			<description>Prosegui su via Roma;Continue on Via Roma</description>
			<LookAt>
				<gx:TimeStamp><when>2022-04-30</when>
</gx:TimeStamp>
				<gx:ViewerOptions>
					<gx:option name="historicalimagery"></gx:option>
					<gx:option enabled="0" name="sunlight"></gx:option>
					<gx:option enabled="0" name="streetview"></gx:option>
				</gx:ViewerOptions>
				<longitude>13.26532370043483</longitude>
				<latitude>43.1318017538683</latitude>
				<altitude>0</altitude>
				<heading>-0.008634616217636231</heading>
				<tilt>27.45742081573719</tilt>
				<range>197.9918333841197</range>
				<gx:altitudeMode>relativeToSeaFloor</gx:altitudeMode>
			</LookAt>
			<styleUrl>#m_ylw-pushpin</styleUrl>
			<Point>
				<gx:drawOrder>1</gx:drawOrder>
				<coordinates>13.2656165310315,43.13202680385809,0</coordinates>
			</Point>
		</Placemark>
		<Placemark>
			<name>3</name>
			<description>Gira a destra; Turn right</description>
			<LookAt>
				<gx:TimeStamp><when>2022-04-30</when>
</gx:TimeStamp>
				<gx:ViewerOptions>
					<gx:option name="historicalimagery"></gx:option>
					<gx:option enabled="0" name="sunlight"></gx:option>
					<gx:option enabled="0" name="streetview"></gx:option>
				</gx:ViewerOptions>
				<longitude>13.26532370043483</longitude>
				<latitude>43.1318017538683</latitude>
				<altitude>0</altitude>
				<heading>-0.008634616217636231</heading>
				<tilt>27.45742081573719</tilt>
				<range>197.9918333841197</range>
				<gx:altitudeMode>relativeToSeaFloor</gx:altitudeMode>
			</LookAt>
			<styleUrl>#m_ylw-pushpin</styleUrl>
			<Point>
				<gx:drawOrder>1</gx:drawOrder>
				<coordinates>13.26547648180832,43.13248816667375,0</coordinates>
			</Point>
		</Placemark>
		<Placemark>
			<name>4</name>
			<description>Gira a destra;Turn right</description>
			<LookAt>
				<gx:TimeStamp><when>2022-04-30</when>
</gx:TimeStamp>
				<gx:ViewerOptions>
					<gx:option name="historicalimagery"></gx:option>
					<gx:option enabled="0" name="sunlight"></gx:option>
					<gx:option enabled="0" name="streetview"></gx:option>
				</gx:ViewerOptions>
				<longitude>13.26527597556547</longitude>
				<latitude>43.13159431181248</latitude>
				<altitude>0</altitude>
				<heading>-0.008667243113424894</heading>
				<tilt>27.45765771880062</tilt>
				<range>255.1867437332928</range>
				<gx:altitudeMode>relativeToSeaFloor</gx:altitudeMode>
			</LookAt>
			<styleUrl>#m_ylw-pushpin</styleUrl>
			<Point>
				<gx:drawOrder>1</gx:drawOrder>
				<coordinates>13.26570299500138,43.13261556308771,0</coordinates>
			</Point>
		</Placemark>
		<Placemark>
			<name>5</name>
			<description>All&apos;incrocio girare a Sinistra;At the crossroads turn left</description>
			<LookAt>
				<gx:TimeStamp><when>2022-04-30</when>
</gx:TimeStamp>
				<gx:ViewerOptions>
					<gx:option name="historicalimagery"></gx:option>
					<gx:option enabled="0" name="sunlight"></gx:option>
					<gx:option enabled="0" name="streetview"></gx:option>
				</gx:ViewerOptions>
				<longitude>13.26527597556547</longitude>
				<latitude>43.13159431181248</latitude>
				<altitude>0</altitude>
				<heading>-0.008667243113424894</heading>
				<tilt>27.45765771880062</tilt>
				<range>255.1867437332928</range>
				<gx:altitudeMode>relativeToSeaFloor</gx:altitudeMode>
			</LookAt>
			<styleUrl>#m_ylw-pushpin</styleUrl>
			<Point>
				<gx:drawOrder>1</gx:drawOrder>
				<coordinates>13.26589631954308,43.13168538640076,0</coordinates>
			</Point>
		</Placemark>
		<Placemark>
			<name>6</name>
			<description>Prosegui lungo via Tullio Pascucci Colsalvatico;Continue along via Tullio Pascucci Colsalvatico</description>
			<LookAt>
				<gx:TimeStamp><when>2022-04-30</when>
</gx:TimeStamp>
				<gx:ViewerOptions>
					<gx:option name="historicalimagery"></gx:option>
					<gx:option enabled="0" name="sunlight"></gx:option>
					<gx:option enabled="0" name="streetview"></gx:option>
				</gx:ViewerOptions>
				<longitude>13.26639404375714</longitude>
				<latitude>43.13180639931774</latitude>
				<altitude>0</altitude>
				<heading>-0.01084516191523163</heading>
				<tilt>19.70642788148502</tilt>
				<range>407.2877476581901</range>
				<gx:altitudeMode>relativeToSeaFloor</gx:altitudeMode>
			</LookAt>
			<styleUrl>#m_ylw-pushpin</styleUrl>
			<Point>
				<gx:drawOrder>1</gx:drawOrder>
				<coordinates>13.26592072924194,43.13158115438407,0</coordinates>
			</Point>
		</Placemark>
		<Placemark>
			<name>7</name>
			<description>Gira a Sinistra su Contrada Ceca;Turn left onto Contrada Ceca</description>
			<LookAt>
				<gx:TimeStamp><when>2022-04-30</when>
</gx:TimeStamp>
				<gx:ViewerOptions>
					<gx:option name="historicalimagery"></gx:option>
					<gx:option enabled="0" name="sunlight"></gx:option>
					<gx:option enabled="0" name="streetview"></gx:option>
				</gx:ViewerOptions>
				<longitude>13.27119078215672</longitude>
				<latitude>43.13251670568717</latitude>
				<altitude>0</altitude>
				<heading>23.81910838807937</heading>
				<tilt>48.32110902116581</tilt>
				<range>96.78113466083664</range>
				<gx:altitudeMode>relativeToSeaFloor</gx:altitudeMode>
			</LookAt>
			<styleUrl>#m_ylw-pushpin</styleUrl>
			<Point>
				<gx:drawOrder>1</gx:drawOrder>
				<coordinates>13.27109689252949,43.13240640071047,0</coordinates>
			</Point>
		</Placemark>
		<Placemark>
			<name>8</name>
			<description>Costeggia il fabbricato e continua lungo il percorso;Go along the building and continue along the path</description>
			<LookAt>
				<gx:TimeStamp><when>2022-04-30</when>
</gx:TimeStamp>
				<gx:ViewerOptions>
					<gx:option name="historicalimagery"></gx:option>
					<gx:option enabled="0" name="sunlight"></gx:option>
					<gx:option enabled="0" name="streetview"></gx:option>
				</gx:ViewerOptions>
				<longitude>13.27784441516626</longitude>
				<latitude>43.13643536549703</latitude>
				<altitude>0</altitude>
				<heading>-0.003016584856367912</heading>
				<tilt>19.70642788148488</tilt>
				<range>407.2877476574207</range>
				<gx:altitudeMode>relativeToSeaFloor</gx:altitudeMode>
			</LookAt>
			<styleUrl>#m_ylw-pushpin</styleUrl>
			<Point>
				<gx:drawOrder>1</gx:drawOrder>
				<coordinates>13.27851472615226,43.13650088303232,0</coordinates>
			</Point>
		</Placemark>
		<Placemark>
			<name>9</name>
			<description>Prendi la strada sterrata;Take the dirt road</description>
			<LookAt>
				<gx:TimeStamp><when>2022-04-30</when>
</gx:TimeStamp>
				<gx:ViewerOptions>
					<gx:option name="historicalimagery"></gx:option>
					<gx:option enabled="0" name="sunlight"></gx:option>
					<gx:option enabled="0" name="streetview"></gx:option>
				</gx:ViewerOptions>
				<longitude>13.27784441516626</longitude>
				<latitude>43.13643536549703</latitude>
				<altitude>0</altitude>
				<heading>-0.003016584856367912</heading>
				<tilt>19.70642788148488</tilt>
				<range>407.2877476574207</range>
				<gx:altitudeMode>relativeToSeaFloor</gx:altitudeMode>
			</LookAt>
			<styleUrl>#m_ylw-pushpin</styleUrl>
			<Point>
				<gx:drawOrder>1</gx:drawOrder>
				<coordinates>13.27877883856947,43.13634217357574,0</coordinates>
			</Point>
		</Placemark>
		<Placemark>
			<name>10</name>
			<description>Gira a sinistra e prosegui lungo il percorso;Turn left and continue along the path</description>
			<LookAt>
				<gx:TimeStamp><when>2022-04-30</when>
</gx:TimeStamp>
				<gx:ViewerOptions>
					<gx:option name="historicalimagery"></gx:option>
					<gx:option enabled="0" name="sunlight"></gx:option>
					<gx:option enabled="0" name="streetview"></gx:option>
				</gx:ViewerOptions>
				<longitude>13.2808855708008</longitude>
				<latitude>43.13775578253216</latitude>
				<altitude>0</altitude>
				<heading>-0.0009372275584747017</heading>
				<tilt>19.70642788148488</tilt>
				<range>407.2877476563283</range>
				<gx:altitudeMode>relativeToSeaFloor</gx:altitudeMode>
			</LookAt>
			<styleUrl>#m_ylw-pushpin</styleUrl>
			<Point>
				<gx:drawOrder>1</gx:drawOrder>
				<coordinates>13.2809136002491,43.13776881850495,0</coordinates>
			</Point>
		</Placemark>
		<Placemark>
			<name>11</name>
			<description>Segui la strada;Segui la strada</description>
			<LookAt>
				<gx:TimeStamp><when>2022-04-30</when>
</gx:TimeStamp>
				<gx:ViewerOptions>
					<gx:option name="historicalimagery"></gx:option>
					<gx:option enabled="0" name="sunlight"></gx:option>
					<gx:option enabled="0" name="streetview"></gx:option>
				</gx:ViewerOptions>
				<longitude>13.28146647716759</longitude>
				<latitude>43.13791783211559</latitude>
				<altitude>0</altitude>
				<heading>-0.0005400270820949791</heading>
				<tilt>19.70642788148492</tilt>
				<range>407.287747656693</range>
				<gx:altitudeMode>relativeToSeaFloor</gx:altitudeMode>
			</LookAt>
			<styleUrl>#m_ylw-pushpin</styleUrl>
			<Point>
				<gx:drawOrder>1</gx:drawOrder>
				<coordinates>13.28206864703912,43.13811071773896,0</coordinates>
			</Point>
		</Placemark>
		<Placemark>
			<name>12</name>
			<description>All&apos;incrocio gira a destra;At the crossroads turn right</description>
			<LookAt>
				<gx:TimeStamp><when>2022-04-30</when>
</gx:TimeStamp>
				<gx:ViewerOptions>
					<gx:option name="historicalimagery"></gx:option>
					<gx:option enabled="0" name="sunlight"></gx:option>
					<gx:option enabled="0" name="streetview"></gx:option>
				</gx:ViewerOptions>
				<longitude>13.28084663037128</longitude>
				<latitude>43.13915185671617</latitude>
				<altitude>0</altitude>
				<heading>-0.000963846220499903</heading>
				<tilt>19.70697414437758</tilt>
				<range>587.6434784089623</range>
				<gx:altitudeMode>relativeToSeaFloor</gx:altitudeMode>
			</LookAt>
			<styleUrl>#m_ylw-pushpin</styleUrl>
			<Point>
				<gx:drawOrder>1</gx:drawOrder>
				<coordinates>13.27978629728019,43.14020083566691,0</coordinates>
			</Point>
		</Placemark>
		<Placemark>
			<name>13</name>
			<description>Alla biforcazione prendi la strada di Sinistra;At the fork take the left road</description>
			<LookAt>
				<gx:TimeStamp><when>2022-04-30</when>
</gx:TimeStamp>
				<gx:ViewerOptions>
					<gx:option name="historicalimagery"></gx:option>
					<gx:option enabled="0" name="sunlight"></gx:option>
					<gx:option enabled="0" name="streetview"></gx:option>
				</gx:ViewerOptions>
				<longitude>13.2807529731459</longitude>
				<latitude>43.13995982662285</latitude>
				<altitude>0</altitude>
				<heading>-0.001067967706715635</heading>
				<tilt>25.12272256594289</tilt>
				<range>344.073497568388</range>
				<gx:altitudeMode>relativeToSeaFloor</gx:altitudeMode>
			</LookAt>
			<styleUrl>#m_ylw-pushpin</styleUrl>
			<Point>
				<gx:drawOrder>1</gx:drawOrder>
				<coordinates>13.28077482887735,43.14044653352776,0</coordinates>
			</Point>
		</Placemark>
		<Placemark>
			<name>14</name>
			<description>Prendi la strada principale e prosegui verso destra;Take the main road and continue to the right</description>
			<LookAt>
				<gx:TimeStamp><when>2022-04-30</when>
</gx:TimeStamp>
				<gx:ViewerOptions>
					<gx:option name="historicalimagery"></gx:option>
					<gx:option enabled="0" name="sunlight"></gx:option>
					<gx:option enabled="0" name="streetview"></gx:option>
				</gx:ViewerOptions>
				<longitude>13.28035847796037</longitude>
				<latitude>43.14369649377328</latitude>
				<altitude>0</altitude>
				<heading>-0.001337775560070591</heading>
				<tilt>25.12272256594284</tilt>
				<range>344.0734975669458</range>
				<gx:altitudeMode>relativeToSeaFloor</gx:altitudeMode>
			</LookAt>
			<styleUrl>#m_ylw-pushpin</styleUrl>
			<Point>
				<gx:drawOrder>1</gx:drawOrder>
				<coordinates>13.28048416792824,43.14436679196847,0</coordinates>
			</Point>
		</Placemark>
		<Placemark>
			<name>15</name>
			<description>Prendi la strada principale e prosegui verso destra;Take the main road and continue to the right</description>
			<LookAt>
				<gx:TimeStamp><when>2022-04-30</when>
</gx:TimeStamp>
				<gx:ViewerOptions>
					<gx:option name="historicalimagery"></gx:option>
					<gx:option enabled="0" name="sunlight"></gx:option>
					<gx:option enabled="0" name="streetview"></gx:option>
				</gx:ViewerOptions>
				<longitude>13.28050888692907</longitude>
				<latitude>43.14518872609945</latitude>
				<altitude>0</altitude>
				<heading>-0.001230279575121291</heading>
				<tilt>23.88349784708639</tilt>
				<range>283.7048761813644</range>
				<gx:altitudeMode>relativeToSeaFloor</gx:altitudeMode>
			</LookAt>
			<styleUrl>#m_ylw-pushpin</styleUrl>
			<Point>
				<gx:drawOrder>1</gx:drawOrder>
				<coordinates>13.28035305196291,43.14523365561148,0</coordinates>
			</Point>
		</Placemark>
		<Placemark>
			<name>16</name>
			<description>Continua lungo la strada principale;Continue along the main road</description>
			<LookAt>
				<gx:TimeStamp><when>2022-04-30</when>
</gx:TimeStamp>
				<gx:ViewerOptions>
					<gx:option name="historicalimagery"></gx:option>
					<gx:option enabled="0" name="sunlight"></gx:option>
					<gx:option enabled="0" name="streetview"></gx:option>
				</gx:ViewerOptions>
				<longitude>13.28363652917538</longitude>
				<latitude>43.14746716122717</latitude>
				<altitude>0</altitude>
				<heading>0.0009086393789746204</heading>
				<tilt>23.88349784708635</tilt>
				<range>283.7048761775591</range>
				<gx:altitudeMode>relativeToSeaFloor</gx:altitudeMode>
			</LookAt>
			<styleUrl>#m_ylw-pushpin</styleUrl>
			<Point>
				<gx:drawOrder>1</gx:drawOrder>
				<coordinates>13.28355199411906,43.14788187027879,0</coordinates>
			</Point>
		</Placemark>
		<Placemark>
			<name>17</name>
			<description>Gira a Sinistra e prendi la strada sterrata;Turn left and take the dirt road</description>
			<LookAt>
				<gx:TimeStamp><when>2022-04-30</when>
</gx:TimeStamp>
				<gx:ViewerOptions>
					<gx:option name="historicalimagery"></gx:option>
					<gx:option enabled="0" name="sunlight"></gx:option>
					<gx:option enabled="0" name="streetview"></gx:option>
				</gx:ViewerOptions>
				<longitude>13.28799567989517</longitude>
				<latitude>43.14972609793639</latitude>
				<altitude>0</altitude>
				<heading>0.003889806147556732</heading>
				<tilt>23.88349784708635</tilt>
				<range>283.7048761814191</range>
				<gx:altitudeMode>relativeToSeaFloor</gx:altitudeMode>
			</LookAt>
			<styleUrl>#m_ylw-pushpin</styleUrl>
			<Point>
				<gx:drawOrder>1</gx:drawOrder>
				<coordinates>13.28878174533009,43.14970022710398,0</coordinates>
			</Point>
		</Placemark>
		<Placemark>
			<name>18</name>
			<description>Prendere la strada secondaria sulla sinistra;Take the secondary road on the left</description>
			<LookAt>
				<gx:TimeStamp><when>2022-04-30</when>
</gx:TimeStamp>
				<gx:ViewerOptions>
					<gx:option name="historicalimagery"></gx:option>
					<gx:option enabled="0" name="sunlight"></gx:option>
					<gx:option enabled="0" name="streetview"></gx:option>
				</gx:ViewerOptions>
				<longitude>13.28755912295799</longitude>
				<latitude>43.15204985404623</latitude>
				<altitude>0</altitude>
				<heading>0.003591187516065884</heading>
				<tilt>23.88349784708637</tilt>
				<range>283.7048761768027</range>
				<gx:altitudeMode>relativeToSeaFloor</gx:altitudeMode>
			</LookAt>
			<styleUrl>#m_ylw-pushpin</styleUrl>
			<Point>
				<gx:drawOrder>1</gx:drawOrder>
				<coordinates>13.28880186543437,43.15299353430967,0</coordinates>
			</Point>
		</Placemark>
		<Placemark>
			<name>19</name>
			<description>Alla biforcazione girare a destra;At the fork, turn right</description>
			<LookAt>
				<gx:TimeStamp><when>2022-04-30</when>
</gx:TimeStamp>
				<gx:ViewerOptions>
					<gx:option name="historicalimagery"></gx:option>
					<gx:option enabled="0" name="sunlight"></gx:option>
					<gx:option enabled="0" name="streetview"></gx:option>
				</gx:ViewerOptions>
				<longitude>13.27969075175496</longitude>
				<latitude>43.14975555055278</latitude>
				<altitude>0</altitude>
				<heading>-0.001790194227461891</heading>
				<tilt>23.88349784708637</tilt>
				<range>283.7048761764374</range>
				<gx:altitudeMode>relativeToSeaFloor</gx:altitudeMode>
			</LookAt>
			<styleUrl>#m_ylw-pushpin</styleUrl>
			<Point>
				<gx:drawOrder>1</gx:drawOrder>
				<coordinates>13.28000378425094,43.14996459546682,0</coordinates>
			</Point>
		</Placemark>
		<Placemark>
			<name>20</name>
			<description>Girare a Sinistra;Turn left</description>
			<LookAt>
				<gx:TimeStamp><when>2022-04-30</when>
</gx:TimeStamp>
				<gx:ViewerOptions>
					<gx:option name="historicalimagery"></gx:option>
					<gx:option enabled="0" name="sunlight"></gx:option>
					<gx:option enabled="0" name="streetview"></gx:option>
				</gx:ViewerOptions>
				<longitude>13.27724817039283</longitude>
				<latitude>43.15016074723805</latitude>
				<altitude>0</altitude>
				<heading>-0.003455868272945888</heading>
				<tilt>23.11682686777513</tilt>
				<range>249.5736602024382</range>
				<gx:altitudeMode>relativeToSeaFloor</gx:altitudeMode>
			</LookAt>
			<styleUrl>#m_ylw-pushpin</styleUrl>
			<Point>
				<gx:drawOrder>1</gx:drawOrder>
				<coordinates>13.27738353649983,43.15076813365168,0</coordinates>
			</Point>
		</Placemark>
		<Placemark>
			<name>21</name>
			<description>Gira a destra;Turn right</description>
			<LookAt>
				<gx:TimeStamp><when>2022-04-30</when>
</gx:TimeStamp>
				<gx:ViewerOptions>
					<gx:option name="historicalimagery"></gx:option>
					<gx:option enabled="0" name="sunlight"></gx:option>
					<gx:option enabled="0" name="streetview"></gx:option>
				</gx:ViewerOptions>
				<longitude>13.27488577414338</longitude>
				<latitude>43.14961238910995</latitude>
				<altitude>0</altitude>
				<heading>-0.005071536439424071</heading>
				<tilt>23.11682686777512</tilt>
				<range>249.5736602048456</range>
				<gx:altitudeMode>relativeToSeaFloor</gx:altitudeMode>
			</LookAt>
			<styleUrl>#m_ylw-pushpin</styleUrl>
			<Point>
				<gx:drawOrder>1</gx:drawOrder>
				<coordinates>13.27448804246493,43.14972431193259,0</coordinates>
			</Point>
		</Placemark>
		<Placemark>
			<name>22</name>
			<description>Prendi la strada rincipale e prosegui verso destra;Take the main road and continue to the right</description>
			<LookAt>
				<gx:TimeStamp><when>2022-04-30</when>
</gx:TimeStamp>
				<gx:ViewerOptions>
					<gx:option name="historicalimagery"></gx:option>
					<gx:option enabled="0" name="sunlight"></gx:option>
					<gx:option enabled="0" name="streetview"></gx:option>
				</gx:ViewerOptions>
				<longitude>13.27132025783104</longitude>
				<latitude>43.15005600272735</latitude>
				<altitude>0</altitude>
				<heading>-0.007510048704137783</heading>
				<tilt>23.11682686777512</tilt>
				<range>249.5736602056865</range>
				<gx:altitudeMode>relativeToSeaFloor</gx:altitudeMode>
			</LookAt>
			<styleUrl>#m_ylw-pushpin</styleUrl>
			<Point>
				<gx:drawOrder>1</gx:drawOrder>
				<coordinates>13.27068734338463,43.15062578014052,0</coordinates>
			</Point>
		</Placemark>
		<Placemark>
			<name>23</name>
			<description>Continua lungo l&apos;itinerario;Continue along the route</description>
			<LookAt>
				<gx:TimeStamp><when>2022-04-30</when>
</gx:TimeStamp>
				<gx:ViewerOptions>
					<gx:option name="historicalimagery"></gx:option>
					<gx:option enabled="0" name="sunlight"></gx:option>
					<gx:option enabled="0" name="streetview"></gx:option>
				</gx:ViewerOptions>
				<longitude>13.2686368350801</longitude>
				<latitude>43.14966117561103</latitude>
				<altitude>0</altitude>
				<heading>-0.009345278235483338</heading>
				<tilt>23.1168268677751</tilt>
				<range>249.5736602049354</range>
				<gx:altitudeMode>relativeToSeaFloor</gx:altitudeMode>
			</LookAt>
			<styleUrl>#m_ylw-pushpin</styleUrl>
			<Point>
				<gx:drawOrder>1</gx:drawOrder>
				<coordinates>13.26792079892379,43.150060095362,0</coordinates>
			</Point>
		</Placemark>
		<Placemark>
			<name>24</name>
			<description>Prendi la strada principale e prosegui verso destra;Take the main road and continue to the right</description>
			<LookAt>
				<gx:TimeStamp><when>2022-04-30</when>
</gx:TimeStamp>
				<gx:ViewerOptions>
					<gx:option name="historicalimagery"></gx:option>
					<gx:option enabled="0" name="sunlight"></gx:option>
					<gx:option enabled="0" name="streetview"></gx:option>
				</gx:ViewerOptions>
				<longitude>13.2677466608954</longitude>
				<latitude>43.1462752153089</latitude>
				<altitude>0</altitude>
				<heading>-0.009954034538180802</heading>
				<tilt>23.11682686777512</tilt>
				<range>249.573660203123</range>
				<gx:altitudeMode>relativeToSeaFloor</gx:altitudeMode>
			</LookAt>
			<styleUrl>#m_ylw-pushpin</styleUrl>
			<Point>
				<gx:drawOrder>1</gx:drawOrder>
				<coordinates>13.26904695397962,43.1464291347277,0</coordinates>
			</Point>
		</Placemark>
		<Placemark>
			<name>25</name>
			<description>Continua lungo il percorso;Continue along the path</description>
			<LookAt>
				<gx:TimeStamp><when>2022-04-30</when>
</gx:TimeStamp>
				<gx:ViewerOptions>
					<gx:option name="historicalimagery"></gx:option>
					<gx:option enabled="0" name="sunlight"></gx:option>
					<gx:option enabled="0" name="streetview"></gx:option>
				</gx:ViewerOptions>
				<longitude>13.2677466608954</longitude>
				<latitude>43.1462752153089</latitude>
				<altitude>0</altitude>
				<heading>-0.009954034538180802</heading>
				<tilt>23.11682686777512</tilt>
				<range>249.573660203123</range>
				<gx:altitudeMode>relativeToSeaFloor</gx:altitudeMode>
			</LookAt>
			<styleUrl>#m_ylw-pushpin</styleUrl>
			<Point>
				<gx:drawOrder>1</gx:drawOrder>
				<coordinates>13.26722049099928,43.14711276764282,0</coordinates>
			</Point>
		</Placemark>
		<Placemark>
			<name>26</name>
			<description>Gira a destra;Turn right</description>
			<LookAt>
				<gx:TimeStamp><when>2022-04-30</when>
</gx:TimeStamp>
				<gx:ViewerOptions>
					<gx:option name="historicalimagery"></gx:option>
					<gx:option enabled="0" name="sunlight"></gx:option>
					<gx:option enabled="0" name="streetview"></gx:option>
				</gx:ViewerOptions>
				<longitude>13.26615025431878</longitude>
				<latitude>43.14142741293806</latitude>
				<altitude>0</altitude>
				<heading>-0.02098099617599307</heading>
				<tilt>25.42047017807249</tilt>
				<range>155.1662504029645</range>
				<gx:altitudeMode>relativeToSeaFloor</gx:altitudeMode>
			</LookAt>
			<styleUrl>#m_ylw-pushpin</styleUrl>
			<Point>
				<gx:drawOrder>1</gx:drawOrder>
				<coordinates>13.26619807098865,43.14143953048582,0</coordinates>
			</Point>
		</Placemark>
		<Placemark>
			<name>27</name>
			<description>Gira a destra;Turn right</description>
			<LookAt>
				<gx:TimeStamp><when>2022-04-30</when>
</gx:TimeStamp>
				<gx:ViewerOptions>
					<gx:option name="historicalimagery"></gx:option>
					<gx:option enabled="0" name="sunlight"></gx:option>
					<gx:option enabled="0" name="streetview"></gx:option>
				</gx:ViewerOptions>
				<longitude>13.26487078794733</longitude>
				<latitude>43.14135126519147</latitude>
				<altitude>0</altitude>
				<heading>-0.01192057339245197</heading>
				<tilt>23.11682686777512</tilt>
				<range>249.5736602054709</range>
				<gx:altitudeMode>relativeToSeaFloor</gx:altitudeMode>
			</LookAt>
			<styleUrl>#m_ylw-pushpin</styleUrl>
			<Point>
				<gx:drawOrder>1</gx:drawOrder>
				<coordinates>13.26591189156385,43.14133423404576,0</coordinates>
			</Point>
		</Placemark>
		<Placemark>
			<name>28</name>
			<description>Prendi la strada provinciale continuando verso destra;Take the provincial road continuing to the right</description>
			<LookAt>
				<gx:TimeStamp><when>2022-04-30</when>
</gx:TimeStamp>
				<gx:ViewerOptions>
					<gx:option name="historicalimagery"></gx:option>
					<gx:option enabled="0" name="sunlight"></gx:option>
					<gx:option enabled="0" name="streetview"></gx:option>
				</gx:ViewerOptions>
				<longitude>13.26440992331288</longitude>
				<latitude>43.14169453323043</latitude>
				<altitude>0</altitude>
				<heading>-0.01223571597496198</heading>
				<tilt>23.11682686777512</tilt>
				<range>249.5736602063992</range>
				<gx:altitudeMode>relativeToSeaFloor</gx:altitudeMode>
			</LookAt>
			<styleUrl>#m_ylw-pushpin</styleUrl>
			<Point>
				<gx:drawOrder>1</gx:drawOrder>
				<coordinates>13.26388098943342,43.14197130955266,0</coordinates>
			</Point>
		</Placemark>
		<Placemark>
			<name>29</name>
			<description>Gira a destra;Turn right</description>
			<LookAt>
				<gx:TimeStamp><when>2022-04-30</when>
</gx:TimeStamp>
				<gx:ViewerOptions>
					<gx:option name="historicalimagery"></gx:option>
					<gx:option enabled="0" name="sunlight"></gx:option>
					<gx:option enabled="0" name="streetview"></gx:option>
				</gx:ViewerOptions>
				<longitude>13.26215249954954</longitude>
				<latitude>43.14583062423815</latitude>
				<altitude>0</altitude>
				<heading>-0.01377943383338379</heading>
				<tilt>23.11682686777512</tilt>
				<range>249.573660202776</range>
				<gx:altitudeMode>relativeToSeaFloor</gx:altitudeMode>
			</LookAt>
			<styleUrl>#m_ylw-pushpin</styleUrl>
			<Point>
				<gx:drawOrder>1</gx:drawOrder>
				<coordinates>13.2618989924333,43.14635033393483,0</coordinates>
			</Point>
		</Placemark>
		<Placemark>
			<name>30</name>
			<description>Torna indietro; get back</description>
			<LookAt>
				<gx:TimeStamp><when>2022-04-30</when>
</gx:TimeStamp>
				<gx:ViewerOptions>
					<gx:option name="historicalimagery"></gx:option>
					<gx:option enabled="0" name="sunlight"></gx:option>
					<gx:option enabled="0" name="streetview"></gx:option>
				</gx:ViewerOptions>
				<longitude>13.26215249954954</longitude>
				<latitude>43.14583062423815</latitude>
				<altitude>0</altitude>
				<heading>-0.01377943383338379</heading>
				<tilt>23.11682686777512</tilt>
				<range>249.573660202776</range>
				<gx:altitudeMode>relativeToSeaFloor</gx:altitudeMode>
			</LookAt>
			<styleUrl>#m_ylw-pushpin</styleUrl>
			<Point>
				<gx:drawOrder>1</gx:drawOrder>
				<coordinates>13.2619674211179,43.14600354762867,0</coordinates>
			</Point>
		</Placemark>
		<Placemark>
			<name>31</name>
			<description>Prendi la strada provinciale girando verso sinistra;Take the provincial road turning left</description>
			<LookAt>
				<gx:TimeStamp><when>2022-04-30</when>
</gx:TimeStamp>
				<gx:ViewerOptions>
					<gx:option name="historicalimagery"></gx:option>
					<gx:option enabled="0" name="sunlight"></gx:option>
					<gx:option enabled="0" name="streetview"></gx:option>
				</gx:ViewerOptions>
				<longitude>13.26215249954954</longitude>
				<latitude>43.14583062423815</latitude>
				<altitude>0</altitude>
				<heading>-0.01377943383338379</heading>
				<tilt>23.11682686777512</tilt>
				<range>249.573660202776</range>
				<gx:altitudeMode>relativeToSeaFloor</gx:altitudeMode>
			</LookAt>
			<styleUrl>#m_ylw-pushpin</styleUrl>
			<Point>
				<gx:drawOrder>1</gx:drawOrder>
				<coordinates>13.2618818821862,43.1464580125761,0</coordinates>
			</Point>
		</Placemark>
		<Placemark>
			<name>32</name>
			<description>Alla biforcazione tieni la destra;At the fork, keep right</description>
			<LookAt>
				<gx:TimeStamp><when>2022-04-30</when>
</gx:TimeStamp>
				<gx:ViewerOptions>
					<gx:option name="historicalimagery"></gx:option>
					<gx:option enabled="0" name="sunlight"></gx:option>
					<gx:option enabled="0" name="streetview"></gx:option>
				</gx:ViewerOptions>
				<longitude>13.26375585262761</longitude>
				<latitude>43.14166922010951</latitude>
				<altitude>0</altitude>
				<heading>-0.01268298511374398</heading>
				<tilt>23.11682686777512</tilt>
				<range>249.573660202879</range>
				<gx:altitudeMode>relativeToSeaFloor</gx:altitudeMode>
			</LookAt>
			<styleUrl>#m_ylw-pushpin</styleUrl>
			<Point>
				<gx:drawOrder>1</gx:drawOrder>
				<coordinates>13.26374484717488,43.14200653560517,0</coordinates>
			</Point>
		</Placemark>
		<Placemark>
			<name>33</name>
			<description>Gira a Sinistra;Turn left</description>
			<LookAt>
				<gx:TimeStamp><when>2022-04-30</when>
</gx:TimeStamp>
				<gx:ViewerOptions>
					<gx:option name="historicalimagery"></gx:option>
					<gx:option enabled="0" name="sunlight"></gx:option>
					<gx:option enabled="0" name="streetview"></gx:option>
				</gx:ViewerOptions>
				<longitude>13.26604180831191</longitude>
				<latitude>43.13378465785679</latitude>
				<altitude>0</altitude>
				<heading>-0.01111992750440773</heading>
				<tilt>23.11682686777512</tilt>
				<range>249.5736602027265</range>
				<gx:altitudeMode>relativeToSeaFloor</gx:altitudeMode>
			</LookAt>
			<styleUrl>#m_ylw-pushpin</styleUrl>
			<Point>
				<gx:drawOrder>1</gx:drawOrder>
				<coordinates>13.26609466105825,43.13422550379589,0</coordinates>
			</Point>
		</Placemark>
		<Placemark>
			<name>34</name>
			<description>Gira a Sinistra;Turn left</description>
			<LookAt>
				<gx:TimeStamp><when>2022-04-30</when>
</gx:TimeStamp>
				<gx:ViewerOptions>
					<gx:option name="historicalimagery"></gx:option>
					<gx:option enabled="0" name="sunlight"></gx:option>
					<gx:option enabled="0" name="streetview"></gx:option>
				</gx:ViewerOptions>
				<longitude>13.26604180831191</longitude>
				<latitude>43.13378465785679</latitude>
				<altitude>0</altitude>
				<heading>-0.01111992750440773</heading>
				<tilt>23.11682686777512</tilt>
				<range>249.5736602027265</range>
				<gx:altitudeMode>relativeToSeaFloor</gx:altitudeMode>
			</LookAt>
			<styleUrl>#m_ylw-pushpin</styleUrl>
			<Point>
				<gx:drawOrder>1</gx:drawOrder>
				<coordinates>13.26567260107351,43.13378188343874,0</coordinates>
			</Point>
		</Placemark>
		<Placemark>
			<name>35</name>
			<description>Allo stop gira a destra;At the stop sign turn right</description>
			<LookAt>
				<gx:TimeStamp><when>2022-04-30</when>
</gx:TimeStamp>
				<gx:ViewerOptions>
					<gx:option name="historicalimagery"></gx:option>
					<gx:option enabled="0" name="sunlight"></gx:option>
					<gx:option enabled="0" name="streetview"></gx:option>
				</gx:ViewerOptions>
				<longitude>13.26619876655813</longitude>
				<latitude>43.13170361045021</latitude>
				<altitude>0</altitude>
				<heading>-0.01101082023923181</heading>
				<tilt>22.88170704009011</tilt>
				<range>205.8137588629855</range>
				<gx:altitudeMode>relativeToSeaFloor</gx:altitudeMode>
			</LookAt>
			<styleUrl>#m_ylw-pushpin</styleUrl>
			<Point>
				<gx:drawOrder>1</gx:drawOrder>
				<coordinates>13.26606942457049,43.1317088267179,0</coordinates>
			</Point>
		</Placemark>
		<atom:link rel="app" href="https://www.google.com/earth/about/versions/#earth-pro" title="Google Earth Pro 7.3.6.10201"></atom:link>
	</Folder>
</Document>
</kml>
