<?xml version="1.0" encoding="UTF-8"?>
<kml xmlns="http://www.opengis.net/kml/2.2" xmlns:gx="http://www.google.com/kml/ext/2.2" xmlns:kml="http://www.opengis.net/kml/2.2" xmlns:atom="http://www.w3.org/2005/Atom">
<Document>
	<name>Pioraco_AR_indicazioni.kml</name>
	<StyleMap id="__managed_style_07C7A58CAD38DC2FDCD10">
		<Pair>
			<key>normal</key>
			<styleUrl>#__managed_style_1153D5D89238DC2FDCD1</styleUrl>
		</Pair>
		<Pair>
			<key>highlight</key>
			<styleUrl>#__managed_style_2AE7321FBC38DC2FDCD1</styleUrl>
		</Pair>
	</StyleMap>
	<StyleMap id="__managed_style_334EBAFA2038DC2FDCD3">
		<Pair>
			<key>normal</key>
			<styleUrl>#failed11</styleUrl>
		</Pair>
		<Pair>
			<key>highlight</key>
			<styleUrl>#failed000</styleUrl>
		</Pair>
	</StyleMap>
	<Style id="failed000">
		<LineStyle>
			<color>ffff0000</color>
			<width>2</width>
		</LineStyle>
	</Style>
	<Style id="failed11">
		<LineStyle>
			<color>ffff0000</color>
			<width>2</width>
		</LineStyle>
	</Style>
	<StyleMap id="m_ylw-pushpin">
		<Pair>
			<key>normal</key>
			<styleUrl>#s_ylw-pushpin</styleUrl>
		</Pair>
		<Pair>
			<key>highlight</key>
			<styleUrl>#s_ylw-pushpin_hl</styleUrl>
		</Pair>
	</StyleMap>
	<Style id="s_ylw-pushpin">
		<IconStyle>
			<scale>1.1</scale>
			<Icon>
				<href>http://maps.google.com/mapfiles/kml/pushpin/red-pushpin.png</href>
			</Icon>
			<hotSpot x="20" y="2" xunits="pixels" yunits="pixels"/>
		</IconStyle>
		<ListStyle>
		</ListStyle>
	</Style>
	<Style id="s_ylw-pushpin_hl">
		<IconStyle>
			<scale>1.3</scale>
			<Icon>
				<href>http://maps.google.com/mapfiles/kml/pushpin/red-pushpin.png</href>
			</Icon>
			<hotSpot x="20" y="2" xunits="pixels" yunits="pixels"/>
		</IconStyle>
		<ListStyle>
		</ListStyle>
	</Style>
	<Folder id="55B9DE1CAE000003">
		<name>AR</name>
		<open>1</open>
		<styleUrl>#__managed_style_07C7A58CAD38DC2FDCD10</styleUrl>
		<Placemark id="55B9DE1CAE000005">
			<name>AR</name>
			<styleUrl>#__managed_style_334EBAFA2038DC2FDCD3</styleUrl>
			<LineString>
				<coordinates>
					12.99332606961556,43.17881371266979,425.141 12.99299904145396,43.17887675814366,426.381 12.99278251394242,43.17890057310237,425.6089999999999 12.99224845062318,43.17889066739068,424.009 12.99215493308814,43.17891506101391,423.876 12.99212320084875,43.17892646168969,423.515 12.99236,43.17895,422.7929999999999 12.99243,43.17899,422.478 12.99243454537652,43.17903045522262,423.559 12.99210540481634,43.17905496616211,424.621 12.99189907866789,43.17911119181861,426.092 12.99163242766102,43.17917150040034,427.725 12.99142564328078,43.17902952571146,432.119 12.99128441204407,43.17902504197773,431.9769999999999 12.99114168516591,43.17901760346567,431.861 12.99088868082002,43.17904469297932,431.527 12.99027344546092,43.17918831562054,430.909 12.98987218370164,43.17916807114236,430.529 12.98947500882002,43.17911423119478,433.1679999999999 12.98938,43.17913,432.956 12.9892901634909,43.17916450517145,432.7509999999999 12.98925610131336,43.17917185319877,432.7509999999999 12.98920979981051,43.17920589582778,432.572 12.98908,43.17937,425.544 12.98893,43.1795,421.0849999999999 12.98867,43.17971,413.588 12.98793,43.18052,412.7219999999999 12.98787749790539,43.18057674791091,411.9959999999999 12.98778378223268,43.18064330992084,414.0309999999999 12.9875965533889,43.1807212186025,416.724 12.98734270906893,43.18069218491195,419.209 12.9868,43.18072,427.691 12.98638,43.18063,434.0599999999999 12.98625,43.18057,436.3879999999999 12.98619,43.18052,439.843 12.98591,43.18052,441.9540000000001 12.98577,43.18056,444.1659999999999 12.98565,43.18056,446.0269999999999 12.98564,43.18057,446.7200000000001 12.98545,43.180568,448.834 12.985351,43.180549,450.278 12.985262,43.180495,451.033 12.98527404962717,43.18036871742657,452.526 12.985376,43.180225,449.309 12.985416,43.180121,449.3389999999999 12.985349,43.180046,449.498 12.985177,43.180045,449.7359999999998 12.985024,43.179918,449.771 12.985058,43.179905,449.752 12.98535650049736,43.17978819786757,448.454 12.98543,43.17969,447.765 12.98551,43.17937,446.378 12.98552,43.17932,446.482 12.98552,43.17931,446.478 12.98534375279493,43.17925675938226,447.2330000000001 12.98504768217564,43.1791881252142,448.4259999999999 12.98476036237827,43.17906094229964,449.509 12.98468696791252,43.17905070646765,449.9390000000001 12.98464719872077,43.17905989023063,450.3279999999999 12.98456392115464,43.17906783106243,450.276 12.98445164691222,43.17919433166821,449.9809999999999 12.98434365128981,43.17929207828473,449.8519999999999 12.98424,43.17935,449.694 12.98405,43.17939,449.535 12.98378,43.17941,449.468 12.98377,43.17941,449.3419999999999 12.98037,43.17962,443.3659999999999 12.98004,43.17964,442.329 12.97966,43.17967,441.221 12.97916,43.1797,441.509 12.9783,43.17975,440.358 12.97828,43.17957,441.725 12.97825,43.17927,444.1199999999999 12.97823886865507,43.17925215916281,444.1209999999999 12.97806350094721,43.17926063590928,443.943 12.97806,43.1792,443.944 12.97806,43.1792,443.9409999999999 12.9778,43.17922,443.263 12.97553,43.17935,443.544 12.97439,43.17942,463.6179999999998 12.97421,43.17941,468.5090000000001 12.974,43.17938,473.938 12.97392,43.1793,479.047 12.97386,43.17922,484.3149999999999 12.97386,43.17914,486.86 12.97386,43.17913,489.321 12.97468,43.17839,499.033 12.97514,43.17814,497.5239999999999 12.9758,43.17806,489.347 12.97705,43.1781,487.511 12.9774,43.17809,490.3 12.97819,43.17822,486.1199999999998 12.97848,43.17827,481.9089999999999 12.97859,43.17829,482.574 12.97878,43.17827,483.633 12.97893,43.17822,484.511 12.97932,43.17823,486.8860000000001 12.97979,43.17837,483.067 12.98016,43.17852,479.9589999999999 12.98043,43.1787,472.05 12.98046,43.17871,471.533 12.98061,43.17879,470.927 12.9808,43.17885,472.3349999999999 12.98097,43.17887,474.7859999999999 12.98115,43.17887,479.6139999999999 12.98144,43.17878,491.309 12.98184,43.17872,494.415 12.98249,43.17865,499.2839999999999 12.98289,43.17859,501.172 12.98325,43.1785,501.5169999999999 12.98353,43.17846,501.938 12.98395,43.17839,501.96 12.98431,43.1784,488.151 12.98443,43.17843,482.9940000000001 12.98457927501828,43.17850469365833,474.8879999999999 12.98508,43.17793,485.824 12.98514,43.17791,485.504 12.98565,43.17792,466.814 12.98562,43.1785,455.109 12.98566,43.1785,453.814 12.98596,43.17851,452.533 12.98628,43.17851,450.0309999999999 12.98627,43.17882,446.526 12.98633,43.17893,446.1469999999999 12.98645,43.17891,447.4589999999999 12.98671051306241,43.17925873545234,447.78 12.98674363834648,43.17928158346363,448.0529999999998 12.98689,43.17924,449.117 12.98703872892368,43.17928936373048,449.872 12.98721140271796,43.17930455797511,449.872 12.98741,43.17925,451.913 12.98778,43.17897,463.1139999999999 12.98794,43.17872,478.909 12.98799,43.1787,481.2189999999999 12.98801,43.17873,479.4179999999998 12.98795990436378,43.17883630252905,479.066 12.98798892518617,43.17887903075701,474.131 12.98810211778278,43.17888149730277,469.482 12.98821,43.1788,469.964 12.98845,43.17874,471.1249999999999 12.9888,43.17874,465.0779999999999 12.98909,43.17878,456.322 12.98926,43.1788,450.182 12.98941,43.17891,441.843 12.98945,43.17901,438.217 12.98947,43.17906,434.509 12.9894857252798,43.17907636187763,433.17 12.98987661556324,43.17914808081627,430.559 12.99026337811962,43.17917590464739,430.967 12.99034492075678,43.17915214597974,431.212 12.99088311042579,43.17902328448716,431.5429999999999 12.99113363315598,43.17899718025507,431.8750000000001 12.99128508638743,43.17899316041059,431.9259999999999 12.99146312781397,43.17900338794234,432.119 12.99158602571223,43.17910669069089,429.9829999999999 12.99166952747655,43.17912306777501,427.778 12.99209598781398,43.1790307012956,424.6329999999999 12.99237914278071,43.1789965246744,422.426 12.99237569999933,43.17897715390679,422.426 12.99230786151654,43.17897197740808,422.7090000000001 12.99205805664983,43.17895330011068,423.5389999999999 12.99206757672012,43.17891995387617,423.838 12.99224288892427,43.17887257868474,424.026 12.9926,43.17887,424.891 12.99280602693032,43.17886451532186,425.682 12.99302217654063,43.17884125014547,426.344 12.99324,43.1788,425.7149999999999 
				</coordinates>
			</LineString>
		</Placemark>
		<Placemark>
			<name>1</name>
			<description>Procedi in direzione ovest su Via Camellaria;Proceed west on Via Camellaria</description>
			<LookAt>
				<longitude>12.9925320417702</longitude>
				<latitude>43.17890748540849</latitude>
				<altitude>0</altitude>
				<heading>-3.574483576210117</heading>
				<tilt>11.40103951105436</tilt>
				<range>136.0234332781326</range>
				<gx:altitudeMode>relativeToSeaFloor</gx:altitudeMode>
			</LookAt>
			<styleUrl>#m_ylw-pushpin</styleUrl>
			<Point>
				<gx:drawOrder>1</gx:drawOrder>
				<coordinates>12.99332117373881,43.1788426953018,0</coordinates>
			</Point>
		</Placemark>
		<Placemark>
			<name>2</name>
			<description>Svolta leggermente a destra verso Via Camellaria;Turn slightly right onto Via Camellaria</description>
			<LookAt>
				<longitude>12.9925320417702</longitude>
				<latitude>43.17890748540849</latitude>
				<altitude>0</altitude>
				<heading>-3.574483576210117</heading>
				<tilt>11.40103951105436</tilt>
				<range>136.0234332781326</range>
				<gx:altitudeMode>relativeToSeaFloor</gx:altitudeMode>
			</LookAt>
			<styleUrl>#m_ylw-pushpin</styleUrl>
			<Point>
				<gx:drawOrder>1</gx:drawOrder>
				<coordinates>12.99215805507451,43.17891953839702,0</coordinates>
			</Point>
		</Placemark>
		<Placemark>
			<name>3</name>
			<description>Svolta a sinistra e prendi Via Camellaria;Turn left and take Via Camellaria</description>
			<LookAt>
				<longitude>12.99207709732994</longitude>
				<latitude>43.17917677933856</latitude>
				<altitude>0</altitude>
				<heading>-3.574802154325227</heading>
				<tilt>11.49597726006053</tilt>
				<range>117.6999027522754</range>
				<gx:altitudeMode>relativeToSeaFloor</gx:altitudeMode>
			</LookAt>
			<styleUrl>#m_ylw-pushpin</styleUrl>
			<Point>
				<gx:drawOrder>1</gx:drawOrder>
				<coordinates>12.99244788085419,43.17898629682686,0</coordinates>
			</Point>
		</Placemark>
		<Placemark>
			<name>4</name>
			<description>Svolta a sinistra per rimanere su Via Camellaria;Turn left to stay on Via Camellaria</description>
			<LookAt>
				<longitude>12.99207709732994</longitude>
				<latitude>43.17917677933854</latitude>
				<altitude>0</altitude>
				<heading>-3.574802154325496</heading>
				<tilt>11.49597726006046</tilt>
				<range>117.6999027522394</range>
				<gx:altitudeMode>relativeToSeaFloor</gx:altitudeMode>
			</LookAt>
			<styleUrl>#m_ylw-pushpin</styleUrl>
			<Point>
				<gx:drawOrder>1</gx:drawOrder>
				<coordinates>12.99166547881005,43.17917827473318,0</coordinates>
			</Point>
		</Placemark>
		<Placemark>
			<name>5</name>
			<description>Procedi in direzione ovest su Via Camellaria verso Sentiero Li Vurgacci;Proceed west on Via Camellaria towards Sentiero Li Vurgacci</description>
			<LookAt>
				<longitude>12.99011069290015</longitude>
				<latitude>43.17906858255252</latitude>
				<altitude>0</altitude>
				<heading>-3.576147726993736</heading>
				<tilt>11.4959772600605</tilt>
				<range>117.6999027508334</range>
				<gx:altitudeMode>relativeToSeaFloor</gx:altitudeMode>
			</LookAt>
			<styleUrl>#m_ylw-pushpin</styleUrl>
			<Point>
				<gx:drawOrder>1</gx:drawOrder>
				<coordinates>12.99029551032868,43.17919511245366,0</coordinates>
			</Point>
		</Placemark>
		<Placemark>
			<name>6</name>
			<description>Svolta leggermente a destra e prendi Sentiero Li Vurgacci;Turn slightly right and take Sentiero Li Vurgacci</description>
			<LookAt>
				<longitude>12.98952417607215</longitude>
				<latitude>43.17909111251371</latitude>
				<altitude>0</altitude>
				<heading>-3.576549070208739</heading>
				<tilt>11.49597726006053</tilt>
				<range>117.6999027481617</range>
				<gx:altitudeMode>relativeToSeaFloor</gx:altitudeMode>
			</LookAt>
			<styleUrl>#m_ylw-pushpin</styleUrl>
			<Point>
				<gx:drawOrder>1</gx:drawOrder>
				<coordinates>12.98948803547244,43.17913571273701,0</coordinates>
			</Point>
		</Placemark>
		<Placemark>
			<name>7</name>
			<description>Svolta leggermente a sinistra;Turn slightly left</description>
			<LookAt>
				<longitude>12.98524393849524</longitude>
				<latitude>43.1802495436724</latitude>
				<altitude>0</altitude>
				<heading>178.4187830409718</heading>
				<tilt>11.26663820748461</tilt>
				<range>109.5123518586549</range>
				<gx:altitudeMode>relativeToSeaFloor</gx:altitudeMode>
			</LookAt>
			<styleUrl>#m_ylw-pushpin</styleUrl>
			<Point>
				<gx:drawOrder>1</gx:drawOrder>
				<coordinates>12.98524166666667,43.18049444444444,0</coordinates>
			</Point>
		</Placemark>
		<Placemark>
			<name>8</name>
			<description>Procedi in direzione sudest verso Via della Cartiera;Proceed southeast towards Via della Cartiera</description>
			<LookAt>
				<longitude>12.98509131494394</longitude>
				<latitude>43.17982414409271</latitude>
				<altitude>0</altitude>
				<heading>0.2658257376474926</heading>
				<tilt>11.26663820748468</tilt>
				<range>109.5123518559827</range>
				<gx:altitudeMode>relativeToSeaFloor</gx:altitudeMode>
			</LookAt>
			<styleUrl>#m_ylw-pushpin</styleUrl>
			<Point>
				<gx:drawOrder>1</gx:drawOrder>
				<coordinates>12.98500250429808,43.17992216735077,0</coordinates>
			</Point>
		</Placemark>
		<Placemark>
			<name>9</name>
			<description>Svolta a destra e prendi Via della Cartiera;Turn right and take Via della Cartiera</description>
			<LookAt>
				<longitude>12.98509131494394</longitude>
				<latitude>43.17982414409271</latitude>
				<altitude>0</altitude>
				<heading>0.2658257376474926</heading>
				<tilt>11.26663820748468</tilt>
				<range>109.5123518559827</range>
				<gx:altitudeMode>relativeToSeaFloor</gx:altitudeMode>
			</LookAt>
			<styleUrl>#m_ylw-pushpin</styleUrl>
			<Point>
				<gx:drawOrder>1</gx:drawOrder>
				<coordinates>12.9853608754031,43.17980233135545,0</coordinates>
			</Point>
		</Placemark>
		<Placemark>
			<name>10</name>
			<description>Svolta a destra e prendi Via Antonio Gramsci;Turn right and take Via Antonio Gramsci</description>
			<LookAt>
				<longitude>12.98538097191701</longitude>
				<latitude>43.17940897240265</latitude>
				<altitude>0</altitude>
				<heading>0.2660239484617999</heading>
				<tilt>11.26663820748478</tilt>
				<range>109.5123518547816</range>
				<gx:altitudeMode>relativeToSeaFloor</gx:altitudeMode>
			</LookAt>
			<styleUrl>#m_ylw-pushpin</styleUrl>
			<Point>
				<gx:drawOrder>1</gx:drawOrder>
				<coordinates>12.9855455979173,43.17930888716811,0</coordinates>
			</Point>
		</Placemark>
		<Placemark>
			<name>11</name>
			<description>Svolta a destra e prendi Strada Septempedana/SP361;Turn right and take Strada Septempedana/SP361</description>
			<LookAt>
				<longitude>12.98491715171315</longitude>
				<latitude>43.17919384259464</latitude>
				<altitude>0</altitude>
				<heading>0.2657065631800072</heading>
				<tilt>11.26663820748481</tilt>
				<range>109.5123518558456</range>
				<gx:altitudeMode>relativeToSeaFloor</gx:altitudeMode>
			</LookAt>
			<styleUrl>#m_ylw-pushpin</styleUrl>
			<Point>
				<gx:drawOrder>1</gx:drawOrder>
				<coordinates>12.98468978372343,43.17906152141784,0</coordinates>
			</Point>
		</Placemark>
		<Placemark>
			<name>12</name>
			<description>Svolta a sinistra e prendi il ponte del bacio;Turn left and take the Kissing Bridge</description>
			<LookAt>
				<longitude>12.97833193786087</longitude>
				<latitude>43.1795882411472</latitude>
				<altitude>0</altitude>
				<heading>0.2611702681316805</heading>
				<tilt>19.03100115246539</tilt>
				<range>111.8530001644869</range>
				<gx:altitudeMode>relativeToSeaFloor</gx:altitudeMode>
			</LookAt>
			<styleUrl>#m_ylw-pushpin</styleUrl>
			<Point>
				<gx:drawOrder>1</gx:drawOrder>
				<coordinates>12.9783140830976,43.17974029687525,0</coordinates>
			</Point>
		</Placemark>
		<Placemark>
			<name>13</name>
			<description>Svolta a sinistra;Turn left</description>
			<LookAt>
				<longitude>12.97833193786087</longitude>
				<latitude>43.1795882411472</latitude>
				<altitude>0</altitude>
				<heading>0.2611702681309204</heading>
				<tilt>19.03100115246535</tilt>
				<range>111.8530001622355</range>
				<gx:altitudeMode>relativeToSeaFloor</gx:altitudeMode>
			</LookAt>
			<styleUrl>#m_ylw-pushpin</styleUrl>
			<Point>
				<gx:drawOrder>1</gx:drawOrder>
				<coordinates>12.97805005224236,43.17925338977665,0</coordinates>
			</Point>
		</Placemark>
		<Placemark>
			<name>14</name>
			<description>Svolta a sinistra;Turn left</description>
			<LookAt>
				<longitude>12.97358460777407</longitude>
				<latitude>43.17940305576882</latitude>
				<altitude>0</altitude>
				<heading>0.2579217398223068</heading>
				<tilt>19.03100115246535</tilt>
				<range>111.8530001644838</range>
				<gx:altitudeMode>relativeToSeaFloor</gx:altitudeMode>
			</LookAt>
			<styleUrl>#m_ylw-pushpin</styleUrl>
			<Point>
				<gx:drawOrder>1</gx:drawOrder>
				<coordinates>12.97400985892154,43.17939506197187,0</coordinates>
			</Point>
		</Placemark>
		<Placemark>
			<name>15</name>
			<description>Svolta a destra e prendi Viale della Vittoria;Turn right and take Viale della Vittoria</description>
			<LookAt>
				<longitude>12.98098892257969</longitude>
				<latitude>43.17868806446572</latitude>
				<altitude>0</altitude>
				<heading>0.2629883355011167</heading>
				<tilt>19.03100115246539</tilt>
				<range>111.85300016548</range>
				<gx:altitudeMode>relativeToSeaFloor</gx:altitudeMode>
			</LookAt>
			<styleUrl>#m_ylw-pushpin</styleUrl>
			<Point>
				<gx:drawOrder>1</gx:drawOrder>
				<coordinates>12.98059205997821,43.1787970042182,0</coordinates>
			</Point>
		</Placemark>
		<Placemark>
			<name>17</name>
			<description>Svolta a destra e prendi Largo Giacomo Matteotti/Via Mancini Ruggero/Strada Septempedana/SP361;Turn right and take Largo Giacomo Matteotti/Via Mancini Ruggero/Strada Septempedana/SP361</description>
			<LookAt>
				<longitude>12.98493199759491</longitude>
				<latitude>43.17837723154737</latitude>
				<altitude>0</altitude>
				<heading>0.2656864567182319</heading>
				<tilt>19.03120885172445</tilt>
				<range>182.7179133995107</range>
				<gx:altitudeMode>relativeToSeaFloor</gx:altitudeMode>
			</LookAt>
			<styleUrl>#m_ylw-pushpin</styleUrl>
			<Point>
				<gx:drawOrder>1</gx:drawOrder>
				<coordinates>12.98455218533049,43.17851879431991,0</coordinates>
			</Point>
		</Placemark>
		<Placemark>
			<name>18</name>
			<description>Svolta a sinistra e prendi Via Piave/Strada Septempedana/SP361;Turn left and take Via Piave/Strada Septempedana/SP361</description>
			<LookAt>
				<longitude>12.98493199759491</longitude>
				<latitude>43.17837723154737</latitude>
				<altitude>0</altitude>
				<heading>0.2656864567182319</heading>
				<tilt>19.03120885172445</tilt>
				<range>182.7179133995107</range>
				<gx:altitudeMode>relativeToSeaFloor</gx:altitudeMode>
			</LookAt>
			<styleUrl>#m_ylw-pushpin</styleUrl>
			<Point>
				<gx:drawOrder>1</gx:drawOrder>
				<coordinates>12.985092908387,43.17793510466931,0</coordinates>
			</Point>
		</Placemark>
		<Placemark>
			<name>19</name>
			<description>Svolta a sinistra e prendi Via Vittorio Veneto;Turn left and take Via Vittorio Veneto</description>
			<LookAt>
				<longitude>12.98549521104037</longitude>
				<latitude>43.17828772087249</latitude>
				<altitude>0</altitude>
				<heading>0.2660718481520243</heading>
				<tilt>19.03120885172445</tilt>
				<range>182.7179134016192</range>
				<gx:altitudeMode>relativeToSeaFloor</gx:altitudeMode>
			</LookAt>
			<styleUrl>#m_ylw-pushpin</styleUrl>
			<Point>
				<gx:drawOrder>1</gx:drawOrder>
				<coordinates>12.98566412364213,43.17792368287687,0</coordinates>
			</Point>
		</Placemark>
		<Placemark>
			<name>20</name>
			<description>Svolta a destra verso Via IV Novembre;Turn right onto Via IV Novembre</description>
			<LookAt>
				<longitude>12.98549251561047</longitude>
				<latitude>43.17828609048935</latitude>
				<altitude>0</altitude>
				<heading>0.2660700037835679</heading>
				<tilt>19.03120885172445</tilt>
				<range>182.7179133992595</range>
				<gx:altitudeMode>relativeToSeaFloor</gx:altitudeMode>
			</LookAt>
			<styleUrl>#m_ylw-pushpin</styleUrl>
			<Point>
				<gx:drawOrder>1</gx:drawOrder>
				<coordinates>12.98562298212486,43.17851240993284,0</coordinates>
			</Point>
		</Placemark>
		<Placemark>
			<name>21</name>
			<description>Svolta a sinistra e prendi Via IV Novembre;Turn left and take Via IV Novembre</description>
			<LookAt>
				<longitude>12.98550450759286</longitude>
				<latitude>43.17828420328711</latitude>
				<altitude>0</altitude>
				<heading>0.2660782095448877</heading>
				<tilt>19.03120885172447</tilt>
				<range>182.7179134013757</range>
				<gx:altitudeMode>relativeToSeaFloor</gx:altitudeMode>
			</LookAt>
			<styleUrl>#m_ylw-pushpin</styleUrl>
			<Point>
				<gx:drawOrder>1</gx:drawOrder>
				<coordinates>12.98627646327168,43.1784933797439,0</coordinates>
			</Point>
		</Placemark>
		<Placemark>
			<name>22</name>
			<description>Svolta a destra e prendi Via Tempio Pagano;Turn right and take Via Tempio Pagano</description>
			<LookAt>
				<longitude>12.98608679697485</longitude>
				<latitude>43.17848347454223</latitude>
				<altitude>0</altitude>
				<heading>0.266475947969339</heading>
				<tilt>18.74897800177756</tilt>
				<range>167.4587884633775</range>
				<gx:altitudeMode>relativeToSeaFloor</gx:altitudeMode>
			</LookAt>
			<styleUrl>#m_ylw-pushpin</styleUrl>
			<Point>
				<gx:drawOrder>1</gx:drawOrder>
				<coordinates>12.98630821330386,43.17893057600786,0</coordinates>
			</Point>
		</Placemark>
		<Placemark>
			<name>23</name>
			<description>Svolta a destra verso Via Camellaria;Turn right onto Via Camellaria</description>
			<LookAt>
				<longitude>12.98685768423751</longitude>
				<latitude>43.17883717845573</latitude>
				<altitude>0</altitude>
				<heading>0.2670034450116242</heading>
				<tilt>18.74897800177759</tilt>
				<range>167.4587884648318</range>
				<gx:altitudeMode>relativeToSeaFloor</gx:altitudeMode>
			</LookAt>
			<styleUrl>#m_ylw-pushpin</styleUrl>
			<Point>
				<gx:drawOrder>1</gx:drawOrder>
				<coordinates>12.98670599355432,43.17928123589773,0</coordinates>
			</Point>
		</Placemark>
		<Placemark>
			<name>24</name>
			<description>Svolta leggermente a sinistra e prendi Via Camellaria;Turn slightly left and take Via Camellaria</description>
			<LookAt>
				<longitude>12.98690255452158</longitude>
				<latitude>43.17920802839959</latitude>
				<altitude>0</altitude>
				<heading>0.267029517700663</heading>
				<tilt>21.46205981066409</tilt>
				<range>101.7566370238416</range>
				<gx:altitudeMode>relativeToSeaFloor</gx:altitudeMode>
			</LookAt>
			<styleUrl>#m_ylw-pushpin</styleUrl>
			<Point>
				<gx:drawOrder>1</gx:drawOrder>
				<coordinates>12.98689490334813,43.17925271670498,0</coordinates>
			</Point>
		</Placemark>
		<Placemark>
			<name>25</name>
			<description>Svolta leggermente a destra per rimanere su Via Camellaria;Turn slightly right to stay on Via Camellaria</description>
			<LookAt>
				<longitude>12.98922783149569</longitude>
				<latitude>43.17865065075621</latitude>
				<altitude>0</altitude>
				<heading>0.2686076620640124</heading>
				<tilt>20.42577172298857</tilt>
				<range>166.2412323484853</range>
				<gx:altitudeMode>relativeToSeaFloor</gx:altitudeMode>
			</LookAt>
			<styleUrl>#m_ylw-pushpin</styleUrl>
			<Point>
				<gx:drawOrder>1</gx:drawOrder>
				<coordinates>12.98948979477518,43.17904658982742,0</coordinates>
			</Point>
		</Placemark>
		<Placemark>
			<name>26</name>
			<description>Svolta a destra per rimanere su Via Camellaria;Turn right to stay on Via Camellaria</description>
			<LookAt>
				<longitude>12.99129794531406</longitude>
				<latitude>43.17895691244838</latitude>
				<altitude>0</altitude>
				<heading>0.2700636329864639</heading>
				<tilt>22.72823864378374</tilt>
				<range>148.1564425614798</range>
				<gx:altitudeMode>relativeToSeaFloor</gx:altitudeMode>
			</LookAt>
			<styleUrl>#m_ylw-pushpin</styleUrl>
			<Point>
				<gx:drawOrder>1</gx:drawOrder>
				<coordinates>12.99158807315195,43.17909956283945,0</coordinates>
			</Point>
		</Placemark>
		<Placemark>
			<name>27</name>
			<description>Svolta a destra verso Via Camellaria;Turn right onto Via Camellaria</description>
			<LookAt>
				<longitude>12.99169511446283</longitude>
				<latitude>43.178922351168</latitude>
				<altitude>0</altitude>
				<heading>0.2703354067953417</heading>
				<tilt>22.72823864378369</tilt>
				<range>148.1564425580626</range>
				<gx:altitudeMode>relativeToSeaFloor</gx:altitudeMode>
			</LookAt>
			<styleUrl>#m_ylw-pushpin</styleUrl>
			<Point>
				<gx:drawOrder>1</gx:drawOrder>
				<coordinates>12.99236328481371,43.17899593715415,0</coordinates>
			</Point>
		</Placemark>
		<Placemark>
			<name>28</name>
			<description>Svolta leggermente a sinistra e prendi Via Camellaria;Turn slightly left and take Via Camellaria</description>
			<LookAt>
				<longitude>12.99054523141557</longitude>
				<latitude>43.17762695253438</latitude>
				<altitude>0</altitude>
				<heading>0.2695178086661544</heading>
				<tilt>20.57179497778932</tilt>
				<range>291.7559867360796</range>
				<gx:altitudeMode>relativeToSeaFloor</gx:altitudeMode>
			</LookAt>
			<styleUrl>#m_ylw-pushpin</styleUrl>
			<Point>
				<gx:drawOrder>1</gx:drawOrder>
				<coordinates>12.99202334077192,43.1789606052217,0</coordinates>
			</Point>
		</Placemark>
		<atom:link rel="app" href="https://www.google.com/earth/about/versions/#earth-pro" title="Google Earth Pro 7.3.6.10441"></atom:link>
	</Folder>
</Document>
</kml>
