<?xml version="1.0" encoding="UTF-8"?>
<kml xmlns="http://www.opengis.net/kml/2.2" xmlns:gx="http://www.google.com/kml/ext/2.2" xmlns:kml="http://www.opengis.net/kml/2.2" xmlns:atom="http://www.w3.org/2005/Atom">
<Document id="1y-gA3uWFypaNx_tVfd2TDbe8niqOkKpT">
	<name>Parcheggio</name>
	<description>Passat</description>
	<gx:CascadingStyle kml:id="__managed_style_2BD220D12631AADC62B2">
		<Style>
			<IconStyle>
				<scale>1.2</scale>
				<Icon>
					<href>https://earth.google.com/earth/rpc/cc/icon?color=1976d2&amp;id=2000&amp;scale=4</href>
				</Icon>
				<hotSpot x="64" y="128" xunits="pixels" yunits="insetPixels"/>
			</IconStyle>
			<LabelStyle>
			</LabelStyle>
			<LineStyle>
				<color>ff2dc0fb</color>
				<width>3</width>
			</LineStyle>
			<PolyStyle>
				<color>40ffffff</color>
			</PolyStyle>
			<BalloonStyle>
			</BalloonStyle>
		</Style>
	</gx:CascadingStyle>
	<gx:CascadingStyle kml:id="__managed_style_1E449D414431AADC62B2">
		<Style>
			<IconStyle>
				<Icon>
					<href>https://earth.google.com/earth/rpc/cc/icon?color=1976d2&amp;id=2000&amp;scale=4</href>
				</Icon>
				<hotSpot x="64" y="128" xunits="pixels" yunits="insetPixels"/>
			</IconStyle>
			<LabelStyle>
			</LabelStyle>
			<LineStyle>
				<color>ff2dc0fb</color>
				<width>2</width>
			</LineStyle>
			<PolyStyle>
				<color>40ffffff</color>
			</PolyStyle>
			<BalloonStyle>
			</BalloonStyle>
		</Style>
	</gx:CascadingStyle>
	<StyleMap id="__managed_style_00421A8B2631AADC62B2">
		<Pair>
			<key>normal</key>
			<styleUrl>#__managed_style_1E449D414431AADC62B2</styleUrl>
		</Pair>
		<Pair>
			<key>highlight</key>
			<styleUrl>#__managed_style_2BD220D12631AADC62B2</styleUrl>
		</Pair>
	</StyleMap>
	<Placemark id="0A441BB0B731AADE5A6F">
		<name>parcheggio</name>
		<LookAt>
			<longitude>13.00891398137361</longitude>
			<latitude>43.25324094090713</latitude>
			<altitude>357.8056004544044</altitude>
			<heading>359.9999705665318</heading>
			<tilt>0</tilt>
			<gx:fovy>30.00000786847918</gx:fovy>
			<range>158.3995962725567</range>
			<altitudeMode>absolute</altitudeMode>
		</LookAt>
		<styleUrl>#__managed_style_00421A8B2631AADC62B2</styleUrl>
		<LineString>
			<coordinates>
				13.00903974766431,43.25342568180243,0 13.00903713255588,43.25333981456396,0 13.00899363792429,43.25330313001867,0 13.00891597163019,43.25327553148955,0 13.00860545643126,43.25317543882815,0 13.00835027849098,43.25310222726258,0 13.00770432292648,43.25290593316399,0 13.00696666305673,43.25266361977064,0 13.00585308555794,43.25227498305973,0 13.00573297865278,43.25233082417704,0 13.00565059641553,43.25234334959369,0 13.00565043167353,43.25241074932686,0 
			</coordinates>
		</LineString>
	</Placemark>
</Document>
</kml>
