<?xml version="1.0" encoding="UTF-8"?>
<kml xmlns="http://www.opengis.net/kml/2.2" xmlns:gx="http://www.google.com/kml/ext/2.2" xmlns:kml="http://www.opengis.net/kml/2.2" xmlns:atom="http://www.w3.org/2005/Atom">
<Document>
	<name>Apiro_IOT_indicazioni.kml</name>
	<StyleMap id="__managed_style_390C240A7739AF119FDF">
		<Pair>
			<key>normal</key>
			<styleUrl>#failed110</styleUrl>
		</Pair>
		<Pair>
			<key>highlight</key>
			<styleUrl>#failed18</styleUrl>
		</Pair>
	</StyleMap>
	<Style id="failed110">
		<LineStyle>
			<color>ff0affff</color>
			<width>2</width>
		</LineStyle>
	</Style>
	<Style id="failed18">
		<LineStyle>
			<color>ff0affff</color>
			<width>2</width>
		</LineStyle>
	</Style>
	<StyleMap id="m_ylw-pushpin">
		<Pair>
			<key>normal</key>
			<styleUrl>#s_ylw-pushpin</styleUrl>
		</Pair>
		<Pair>
			<key>highlight</key>
			<styleUrl>#s_ylw-pushpin_hl</styleUrl>
		</Pair>
	</StyleMap>
	<Style id="s_ylw-pushpin">
		<IconStyle>
			<scale>1.1</scale>
			<Icon>
				<href>http://maps.google.com/mapfiles/kml/pushpin/red-pushpin.png</href>
			</Icon>
			<hotSpot x="20" y="2" xunits="pixels" yunits="pixels"/>
		</IconStyle>
		<ListStyle>
		</ListStyle>
	</Style>
	<Style id="s_ylw-pushpin_hl">
		<IconStyle>
			<scale>1.3</scale>
			<Icon>
				<href>http://maps.google.com/mapfiles/kml/pushpin/red-pushpin.png</href>
			</Icon>
			<hotSpot x="20" y="2" xunits="pixels" yunits="pixels"/>
		</IconStyle>
		<ListStyle>
		</ListStyle>
	</Style>
	<Folder>
		<name>Apiro_IOT_indicazioni</name>
		<open>1</open>
		<Placemark id="568CC0AF99000005">
			<name>IOT</name>
			<styleUrl>#__managed_style_390C240A7739AF119FDF</styleUrl>
			<LineString>
				<coordinates>
					13.15377778382994,43.37632288387162,387.131 13.15345793820693,43.37630354169352,387.131 13.15316497169594,43.3761334813886,387.131 13.15303314467792,43.37592241631356,387.131 13.15298847001257,43.37564758265585,387.131 13.15309116622754,43.37544248553013,387.131 13.15323655654599,43.37535289306415,387.131 13.15318926824423,43.37532565307232,387.131 13.15284280764109,43.37540139430314,387.131 13.15211924406947,43.37568750937026,387.131 13.15140766354251,43.37552646714609,387.131 13.14961,43.37492,387.761 13.14936,43.37476,388.507 13.14928,43.37458,387.209 13.14905,43.37434,385.315 13.14886,43.37423,384.335 13.14854,43.37416,387.018 13.148,43.37408,391.314 13.14708,43.3738,399.39 13.14648,43.3732,407.452 13.14619,43.37295,411.0799999999999 13.14597,43.37271,414.131 13.14548,43.37232,418.352 13.14532,43.37217,418.4979999999999 13.14495,43.37192,418.7149999999999 13.14471,43.37173,418.9259999999999 13.14453,43.37149,419.109 13.14438,43.37113,415.451 13.14395,43.37053,410.561 13.14375,43.37034,408.864 13.14256,43.36971,401.1199999999998 13.14221,43.36945,398.5659999999999 13.14138,43.36889,400.218 13.14035,43.36837,405.946 13.13969,43.368,406.747 13.13909,43.36763,407.5980000000001 13.13846,43.36718,408.468 13.13808,43.36693,408.942 13.13778,43.36676,406.826 13.1376,43.36657,405.2089999999998 13.13732,43.36615,403.648 13.13665,43.36497,408.8380000000001 13.13613,43.36438,413.091 13.1358,43.36395,413.4469999999999 13.13558,43.36373,413.6929999999999 13.13521,43.36353,413.9449999999999 13.13463,43.36327,414.383 13.13423,43.36307,414.5939999999999 13.13407,43.36286,416.5549999999999 13.13396,43.36263,418.451 13.13392,43.3624,420.301 13.13393,43.36184,424.9109999999999 13.13397,43.36143,428.2089999999999 13.13407,43.36094,432.3869999999999 13.13424,43.36072,434.357 13.13494,43.36026,440.0299999999999 13.13527,43.36001,442.896 13.13531,43.35983,441.712 13.1353,43.35959,441.3639999999999 13.13518,43.35943,441.112 13.13455,43.35872,439.8129999999999 13.13387,43.35809,438.694 13.13356,43.35772,435.6849999999999 13.13317,43.35746,432.889 13.13273,43.35724,435.617 13.13188,43.357,438.4089999999999 13.13143,43.35681,439.03 13.13081,43.35643,439.97 13.1305,43.3563,440.3729999999999 13.12955,43.35557,441.999 13.12914646637605,43.35529573637824,442.525 13.12850494016431,43.35505630367545,443.287 13.12773807447268,43.35479653079161,446.7449999999998 13.1272353888222,43.35467572065124,448.9959999999999 13.12704203564022,43.3545934267131,449.867 13.1263668232724,43.35400823043244,453.8269999999999 13.1260678740711,43.35377474542091,453.1680000000001 13.1256803590684,43.35350395102947,449.7140000000001 13.12533,43.35331,446.609 13.12511,43.35322,445.184 13.12493,43.35319,445.314 13.12445,43.35321,445.9769999999999 13.12265,43.35337,454.853 13.1224,43.35335,456.359 13.12129,43.35305,463.2409999999999 13.12091,43.35303,464.369 13.11967,43.35303,467.9299999999999 13.11953,43.35306,468.391 13.11941,43.35303,467.314 13.11913,43.35267,460.454 13.11908,43.35264,459.6089999999999 13.11898,43.35262,458.709 13.11882,43.35264,458.8929999999999 13.1177,43.35292,465.623 13.11753,43.353,468.9959999999999 13.11726,43.35324,475.9920000000001 13.11715,43.35331,477.7679999999999 13.11702,43.35334,481.5599999999999 13.11671,43.35335,489.398 13.11632,43.35329,499.629 13.1162,43.35322,502.51 13.11611,43.35311,501.5309999999999 13.11596,43.35285,499.461 13.11574,43.35232,486.807 13.11553,43.35225,483.809 13.11527,43.35223,484.0849999999999 13.11482,43.35229,486.035 13.11405,43.35226,485.328 13.1134,43.35229,481.514 13.11303,43.35239,479.38 13.11277,43.35249,479.9520000000001 13.11267,43.35255,480.25 13.11255,43.35267,480.731 13.11233,43.35291,483.422 13.11203,43.35318,486.6539999999999 13.11159,43.35327,486.0559999999999 13.11119,43.35322,485.511 13.11053,43.35313,482.609 13.11027,43.35314,481.597 13.10943,43.35332,482.5169999999999 13.10891,43.35355,486.29 13.10779,43.35365,492.946 13.10742,43.35351,493.372 13.10717,43.35338,492.064 13.10689,43.35314,490.242 13.10668,43.35293,488.773 13.10646,43.35277,487.4239999999999 13.10624,43.35264,486.244 13.10568,43.35227,481.105 13.10466,43.35174,490.415 13.10448,43.35159,494.009 13.10447,43.35156,494.366 13.10432,43.35157,496.1859999999999 13.10426,43.35152,497.749 13.10423,43.35145,499.855 13.10383,43.35005,505.331 13.10384,43.35001,504.673 13.10393,43.34988,502.591 13.10393,43.34984,501.812 13.10389,43.34974,500.333 13.10387,43.34971,500.412 13.10381,43.34969,501.332 13.10358,43.34975,504.8049999999998 13.10338,43.34977,507.909 13.10332,43.34969,507.173 13.10311,43.3495,505.483 13.10278,43.34924,502.8459999999999 13.10232,43.34893,499.472 13.10195,43.34866,499.1180000000001 13.10163,43.34848,498.88 13.1009,43.34834,498.458 13.10053,43.34818,495.779 13.10011,43.34817,493.23 13.09992,43.34817,492.457 13.09947,43.34811,490.6 13.09891,43.34813,490.72 13.09826,43.34811,490.9089999999999 13.09749,43.34805,491.117 13.09634,43.3479,494.857 13.09573,43.34782,498.4599999999999 13.09501,43.34761,501.6559999999999 13.09464,43.34741,503.3419999999999 13.09453,43.34728,505.8339999999999 13.09429,43.34717,509.332 13.0941,43.34721,507.143 13.09388,43.34716,510.8639999999999 13.09341,43.34703,519.1849999999999 13.09298,43.34683,527.5890000000001 13.09269,43.34672,528.617 13.09195,43.34648,531.409 13.09149,43.3462,537.59 13.09085,43.34604,548.55 13.09036,43.34597,549.9829999999999 13.08995,43.34596,551.179 13.08952,43.34597,552.295 13.08904,43.34607,546.577 13.08834,43.34622,543.595 13.08723,43.34643,545.446 13.08696,43.34651,553.057 13.08618,43.34673,560.687 13.0857,43.34683,573.342 13.08548,43.34686,578.826 13.0841,43.34679,613.2089999999999 13.0838,43.34685,616.66 13.08347,43.34697,620.72 13.08318,43.34705,624.173 13.08293,43.34706,626.9589999999999 13.0825,43.34718,631.915 13.08236,43.34719,633.587 13.08212,43.34719,636.075 13.08171,43.34715,640.676 13.08087,43.34702,649.997 13.08071,43.34703,650.528 13.08037,43.34695,658.789 13.08018,43.34689,663.5170000000001 13.07989,43.34674,671.509 13.07957,43.34677,672.174 13.07887,43.34681,673.684 13.07851,43.34681,674.417 13.07809,43.3468,675.373 13.07774,43.3467,676.139 13.07733,43.34672,676.961 13.0765,43.34621,689.399 13.07609,43.34614,693.75 13.07578,43.34597,705.191 13.07529,43.34586,712.9829999999999 13.07495,43.34584,711.625 13.07463,43.34591,710.417 13.0742,43.34581,708.7089999999999 13.07321,43.34566,705.03 13.07274,43.34539,708.3200000000001 13.07214,43.34532,716.723 13.0712,43.3451,730.299 13.07029,43.34491,739.225 13.06931,43.34454,745.217 13.06878,43.34437,750.915 13.06862,43.34431,755.256 13.06849,43.34428,758.117 13.06838,43.34431,760.378 13.06839,43.34437,759.033 13.06857,43.34459,753.226 13.06859,43.34472,750.509 13.06853,43.34498,754.4589999999999 13.06858,43.34512,756.479 13.06931,43.34563,745.442 13.06953,43.34571,742.878 13.07029,43.34585,739.134 13.07032,43.34589,739.426 13.07029,43.34597,739.544 13.07028,43.34606,741.385 13.07031,43.34616,743.2859999999999 13.07048,43.34632,747.3969999999999 13.07049,43.3464,748.423 13.07055,43.34651,749.625 13.0707,43.34662,751.309 13.07128,43.347,757.0509999999999 13.07144,43.34703,755.5410000000001 13.07184,43.34695,751.824 13.07205,43.34698,750.1900000000001 13.07249,43.34716,754.7859999999999 13.07294,43.3474,762.578 13.07306,43.34759,770.836 13.07296,43.34805,797.097 13.07306,43.34821,801.728 13.07328,43.34833,799.229 13.07388,43.34852,793.7 13.07342,43.34853,804.3200000000002 13.07304,43.34851,813.1089999999999 13.07263,43.34833,810.6639999999999 13.07237,43.34811,803.1239999999999 13.07226,43.34803,800.247 13.07209,43.34799,800.1230000000002 13.07181,43.34798,799.949 13.07076,43.34814,809.2709999999998 13.07019,43.34821,818.9190000000001 13.06984,43.34818,825.03 13.06941,43.34809,832.5809999999999 13.06887,43.34804,841.897 13.06768,43.34759,853.6229999999999 13.06706,43.34727,860.4249999999997 13.06654,43.34706,865.809 13.0654,43.34664,887.1809999999999 13.06502,43.34649,894.581 13.06471,43.34631,901.064 13.06402,43.34561,902.8300000000002 13.06388,43.3455,903.116 13.06234,43.34481,919.9979999999999 13.06192,43.3446,926.3160000000001 13.06141,43.3443,934.437 13.061,43.34396,936.6679999999999 13.06091,43.34388,936.798 13.06086,43.34383,936.915 13.06078,43.34372,937.926 13.06077,43.34372,937.7089999999999 13.06078,43.34372,937.9609999999999 13.06078,43.34333,941.9110000000001 13.06074,43.3432,943.5739999999998 13.06062,43.34296,946.7899999999998 13.06039,43.34261,951.6859999999999 13.06033,43.34251,953.3480000000001 13.06022,43.34233,955.6959999999998 13.06017,43.34212,960.1269999999998 13.0602,43.34192,964.3579999999998 13.06068,43.34139,971.397 13.06085,43.3412,978.3229999999999 13.061,43.34111,979.525 13.06118,43.34097,980.509 13.06169,43.34071,982.8309999999999 13.06236,43.34043,985.7109999999999 13.06296,43.34027,983.564 13.06336,43.34014,982.05 13.06362,43.33998,984.1959999999999 13.06415,43.33967,988.2879999999999 13.06499,43.33919,991.6959999999999 13.06578,43.33861,995.217 13.06593,43.33843,1001.468 13.06598,43.33834,1004.548 13.06598,43.33823,1008.061 13.06595,43.3382,1009.217 13.06619,43.33809,1010.809 13.06649,43.33797,1012.996 13.06671,43.33795,1013.736 13.06678,43.33795,1014.639 13.06716,43.338,1011.185 13.06802,43.33818,1002.721 13.06927,43.33853,990.2229999999998 13.06938,43.33858,986.6409999999997 13.06964,43.33887,972.4319999999999 13.07014,43.33957,939.563 13.07037,43.33995,925.795 13.07068,43.34039,914.1489999999999 13.07109,43.34078,915.1230000000002 13.0721,43.34135,911.109 13.07264,43.34152,906.0909999999999 13.07317,43.34162,901.2409999999999 13.07352,43.34165,898.134 13.07394,43.34167,897.27 13.07407,43.34165,896.9459999999999 13.07422,43.34161,896.6579999999998 13.07448965946647,43.34145856875997,895.8859999999999 13.07451473538142,43.34148650138597,895.8859999999999 13.07447,43.34157,892.327 13.07425,43.34168,892.728 13.07424,43.34174,890.655 13.07432,43.3418,887.9069999999998 13.07444,43.34185,884.5170000000001 13.07449,43.34191,882.109 13.07452,43.34203,878.1969999999999 13.07463,43.34212,874.1769999999999 13.07547,43.34237,863.6399999999999 13.07677,43.34288,846.0160000000001 13.07738,43.34325,836.652 13.07787,43.34349,829.514 13.07822,43.34361,825.0820000000001 13.0785,43.34368,821.5429999999999 13.07863,43.34363,821.114 13.07865,43.3435,820.2119999999999 13.07844,43.34297,820.8319999999999 13.07839,43.34277,822.905 13.07827,43.34257,825.009 13.07822,43.34243,826.593 13.07826,43.34233,827.5529999999999 13.07834,43.34223,827.376 13.07853,43.34212,824.532 13.07895,43.34199,818.7979999999998 13.07921,43.34184,814.24 13.07957,43.34152,806.8680000000001 13.07951,43.34084,795.9790000000002 13.07936,43.34054,790.8299999999999 13.07926,43.34026,794.1330000000002 13.07909,43.34011,796.7229999999998 13.07882,43.34,799.8149999999998 13.07866,43.33988,802.009 13.07851,43.33963,805.8849999999999 13.07833,43.33946,811.7249999999999 13.07825,43.33934,816.3179999999999 13.07829,43.33911,824.514 13.07842,43.33914,822.3299999999999 13.07865,43.33917,818.292 13.079,43.33928,811.1599999999999 13.07953,43.33956,798.6510000000001 13.08003,43.33958,798.712 13.08061,43.33971,799.024 13.08082,43.3398,799.004 13.08114,43.34007,791.6139999999999 13.0814,43.34022,786.009 13.08158,43.34039,781.2339999999999 13.0819,43.34063,773.694 13.08194,43.34079,769.8269999999999 13.08205,43.34096,765.583 13.08212,43.34107,762.639 13.08224,43.34119,759.361 13.08252,43.3413,762.129 13.08304,43.34144,767.13 13.08379,43.34188,762.621 13.08391,43.34192,762.095 13.08401,43.34195,762.749 13.08439,43.342,765.523 13.08555,43.34229,774.109 13.08646,43.34254,768.361 13.08711,43.34277,763.921 13.08778,43.34294,759.734 13.08837,43.34299,758.85 13.0887,43.34301,758.346 13.08946,43.34309,757.278 13.09001,43.34307,759.646 13.09062,43.34307,762.397 13.09084,43.34316,757.3579999999999 13.09116,43.34327,750.588 13.09149,43.34342,742.824 13.09183,43.34346,742.626 13.09205,43.34345,742.509 13.09265,43.34313,759.38 13.09297,43.34299,763.66 13.09324,43.3428,768.0529999999999 13.09374,43.34236,777.189 13.09391,43.34225,779.6950000000001 13.09438,43.34216,778.6269999999998 13.09464,43.34217,778.145 13.09489,43.34203,777.526 13.09523,43.34198,771.187 13.09543,43.34188,766.973 13.09564,43.34181,762.785 13.09633,43.34201,752.513 13.09665,43.34214,747.509 13.09706,43.34224,741.669 13.09731,43.34234,734.949 13.09763,43.34244,726.652 13.09797,43.34261,722.628 13.09817,43.34267,720.514 13.09829,43.34272,719.266 13.09836,43.34279,719.5839999999999 13.09847,43.34284,719.8349999999999 13.09852,43.34294,720.2859999999999 13.09865,43.34303,720.664 13.09881,43.34304,720.9059999999999 13.099,43.34311,716.316 13.09919,43.34312,712.309 13.09932,43.34318,709.188 13.09939,43.34314,707.388 13.09943,43.34322,704.731 13.09964,43.34329,699.847 13.09994,43.34355,692.963 13.10011,43.34356,692.025 13.10025,43.3435,687.663 13.10024,43.34336,682.484 13.10018,43.34328,683.795 13.09997,43.34304,685.177 13.09973,43.34286,687.061 13.09921,43.3424,683.527 13.0988,43.34199,675.509 13.0985,43.34161,664.149 13.09819,43.34132,659.139 13.09776,43.34087,656.972 13.09739,43.34054,663.898 13.097,43.3404,672.9640000000001 13.09699,43.34033,669.1660000000001 13.09723,43.34004,648.124 13.09723,43.34015,652.9450000000001 13.09719,43.34026,658.176 13.09722,43.34034,661.645 13.09752,43.34039,649.847 13.09803,43.34049,629.611 13.09888,43.34072,609.309 13.09994,43.34104,592.596 13.10215,43.34211,561.0359999999999 13.10317,43.34245,534.489 13.10324,43.34242,530.755 13.10393,43.34275,521.431 13.10437,43.34299,517.183 13.10461,43.34315,514.511 13.10488,43.34338,512.6319999999999 13.10505,43.34367,517.123 13.10511,43.34399,521.8440000000001 13.10512,43.34431,525.3049999999999 13.10515,43.34437,524.215 13.10553,43.34467,515.009 13.10568,43.34492,508.7859999999999 13.10577,43.34526,506.526 13.10572,43.34571,502.999 13.10567,43.34643,497.3249999999998 13.1056,43.3466,495.9709999999998 13.10537,43.34681,493.783 13.10505,43.34711,492.3709999999999 13.10527,43.3471,490.912 13.10564482486513,43.34713970155438,488.533 13.10617035754454,43.34732477184686,488.533 13.10643,43.34739,483.2749999999999 13.1067,43.3474,484.228 13.10743,43.34729,486.92 13.10787,43.34717,488.6089999999999 13.10832,43.34693,485.3589999999999 13.10854,43.34679,483.5989999999999 13.10869488723066,43.34680467212482,483.432 13.10879415132646,43.34693985072972,483.038 13.10893,43.34713,482.694 13.10923,43.34723,482.116 13.1096,43.34722,481.5239999999999 13.11006,43.34715,480.755 13.11041,43.34703,480.146 13.1109,43.34696,479.328 13.11143,43.34691,479.0889999999999 13.11207,43.34689,475.4169999999999 13.11258,43.3469,472.5090000000001 13.1139,43.34707,465.0339999999999 13.11424,43.3471,463.194 13.11462,43.34707,461.027 13.11495,43.34703,459.233 13.11547,43.34718,459.839 13.11588,43.34726,460.311 13.11612,43.34727,460.629 13.11634,43.34721,460.81 13.11671,43.34709,456.651 13.11735,43.34685,449.222 13.1177,43.34677,445.462 13.11813,43.34676,441.208 13.119,43.34679,442.009 13.11955,43.34688,442.414 13.11996,43.34705,442.8639999999999 13.12025,43.34714,443.1969999999999 13.12091,43.34733,438.593 13.12183,43.34756,432.169 13.12207,43.34765,431.6309999999999 13.12226,43.34776,431.249 13.12267,43.34806,430.27 13.12316,43.34847,429.021 13.12322,43.34859,431.998 13.12322,43.34869,434.2149999999999 13.12315,43.34879,436.7259999999999 13.12298,43.34889,439.209 13.12294,43.34895,437.4209999999999 13.12296,43.34899,436.491 13.12305,43.349,434.7739999999998 13.12371,43.34876,423.74 13.12408,43.34861,416.426 13.12503,43.34901,407.8879999999999 13.1263,43.34959,400.1360000000001 13.12780312620926,43.3501805796901,395.1270000000001 13.12840574647963,43.35044265107461,393.178 13.12867,43.35053,392.124 13.12895,43.35052,391.3039999999999 13.12959,43.35033,390.014 13.12998,43.35026,391.109 13.13025,43.35038,392.074 13.13043,43.35054,392.8939999999999 13.13063,43.35057,393.1770000000001 13.13087,43.35046,395.5530000000001 13.13218,43.34913,414.4589999999999 13.13242,43.34896,417.131 13.13272,43.34885,417.689 13.13307,43.34885,418.24 13.13344,43.3489,418.8609999999999 13.13391,43.34898,419.5839999999999 13.13427,43.34906,420.0070000000001 13.13543,43.34931,424.217 13.1384,43.34986,440.7089999999998 13.13935,43.35002,444.9800000000001 13.13962,43.35008,445.73 13.14003,43.35018,445.583 13.1404,43.35031,445.399 13.14069,43.35046,445.145 13.14127,43.35085,444.687 13.14166,43.35132,444.345 13.14176,43.35128,444.266 13.14187,43.35129,444.8969999999999 13.14197,43.35132,445.456 13.14205,43.35138,446.1589999999999 13.14211,43.35155,447.514 13.14217,43.35158,447.709 13.1423,43.35168,448.5969999999999 13.14243,43.35185,449.587 13.14254,43.3521,450.9399999999999 13.14273,43.35203,451.996 13.14298,43.35198,453.0219999999999 13.14322,43.35196,454.164 13.14365,43.35199,456.062 13.14402,43.35213,456.2629999999999 13.14441,43.3523,454.574 13.14445,43.35238,454.1950000000001 13.14445,43.35244,453.8489999999999 13.14438,43.35266,452.823 13.14439,43.3529,450.709 13.14447,43.35361,443.9109999999998 13.14453,43.35375,442.5609999999999 13.14481,43.35401,441.534 13.14553,43.35458,438.7799999999999 13.14603,43.35515,436.216 13.14659,43.35601,432.8580000000001 13.14686,43.35632,431.5559999999999 13.14723,43.35662,429.2569999999999 13.14817,43.3571,422.688 13.14865,43.35738,419.1480000000001 13.14889,43.35759,419.3609999999999 13.1493,43.35836,416.5170000000001 13.14946,43.35853,415.809 13.15076,43.35928,411.7959999999999 13.15096,43.35944,411.046 13.15131,43.35998,409.059 13.15157,43.36044,407.345 13.15163,43.36066,406.651 13.15158,43.36085,405.943 13.15137,43.36139,404.081 13.15113,43.36213,405.2819999999999 13.15099,43.36274,406.283 13.15096,43.36429,411.6759999999998 13.15102,43.36442,412.19 13.15115,43.36452,412.7189999999999 13.15163,43.36474,414.309 13.15183,43.36488,412.4589999999999 13.15205,43.36517,409.1789999999999 13.15217,43.36537,406.992 13.15253,43.36637,399.698 13.15265,43.36651,398.254 13.15282,43.36661,396.956 13.15366,43.36699,391.064 13.15375,43.36714,391.5249999999999 13.15373,43.36727,392.1360000000001 13.15363,43.36754,393.5849999999999 13.15364,43.3677,394.389 13.15388,43.36799,395.9169999999999 13.15401,43.36821,393.009 13.15414,43.36947,367.69 13.15421438165539,43.36997602137491,355.71 13.15438288445646,43.37070381898116,355.71 13.15449045836712,43.37184362567069,346.813 13.15449173464163,43.37212135030968,345.429 13.15447234824156,43.3724074865483,344.235 13.154372093623,43.37271473741048,342.977 13.15427125115478,43.37299816776634,341.575 13.1539961688861,43.3734908604941,338.736 13.15362,43.37399,335.867 13.15346,43.37422,339.529 13.15339,43.37438,342.2 13.15338,43.3745,344.12 13.15342354085722,43.3745797384236,345.209 13.15358618341483,43.37471931857257,345.209 13.1537414514175,43.37477565484279,345.209 13.15383538603029,43.37484805477089,345.209 13.15389904748749,43.37504032732077,345.209 13.15379800707628,43.3751807258714,345.209 13.1536481981354,43.3752641055617,345.209 13.15342396254455,43.37529999884343,345.209 13.15327799223907,43.37537045851518,345.209 13.15311844656969,43.37544853526511,345.209 13.15301663751486,43.3756513000608,345.209 13.15305525149118,43.37591502900958,345.209 13.15318533286547,43.37612219593208,345.209 13.1534737979426,43.37628159598146,345.209 13.15378092823697,43.37630134647432,345.209 
				</coordinates>
			</LineString>
		</Placemark>
		<Placemark>
			<name>1</name>
			<description>Procedi in direzione ovest su Località Castreccioni verso Via Castreccioni;Proceed west on Località Castreccioni towards Via Castreccioni</description>
			<LookAt>
				<longitude>13.15301556995616</longitude>
				<latitude>43.37593891799603</latitude>
				<altitude>0</altitude>
				<heading>-2.827302855501425</heading>
				<tilt>13.90173112719736</tilt>
				<range>308.9799945743612</range>
				<gx:altitudeMode>relativeToSeaFloor</gx:altitudeMode>
			</LookAt>
			<styleUrl>#m_ylw-pushpin</styleUrl>
			<Point>
				<gx:drawOrder>1</gx:drawOrder>
				<coordinates>13.15377406610083,43.37634887752834,0</coordinates>
			</Point>
		</Placemark>
		<Placemark>
			<name>2</name>
			<description>Svolta tutto a destra e prendi Via Castreccioni;Svolta tutto a destra e prendi Via Castreccioni</description>
			<LookAt>
				<longitude>13.15301556995616</longitude>
				<latitude>43.37593891799603</latitude>
				<altitude>0</altitude>
				<heading>-2.827302855501425</heading>
				<tilt>13.90173112719736</tilt>
				<range>308.9799945743612</range>
				<gx:altitudeMode>relativeToSeaFloor</gx:altitudeMode>
			</LookAt>
			<styleUrl>#m_ylw-pushpin</styleUrl>
			<Point>
				<gx:drawOrder>1</gx:drawOrder>
				<coordinates>13.15317986030469,43.37536550834053,0</coordinates>
			</Point>
		</Placemark>
		<Placemark>
			<name>3</name>
			<description>Svolta leggermente a sinistra e prendi SP2;Turn slightly left and take SP2</description>
			<LookAt>
				<longitude>13.15301556995616</longitude>
				<latitude>43.37593891799603</latitude>
				<altitude>0</altitude>
				<heading>-2.827302855501425</heading>
				<tilt>13.90173112719736</tilt>
				<range>308.9799945743612</range>
				<gx:altitudeMode>relativeToSeaFloor</gx:altitudeMode>
			</LookAt>
			<styleUrl>#m_ylw-pushpin</styleUrl>
			<Point>
				<gx:drawOrder>1</gx:drawOrder>
				<coordinates>13.15310988522068,43.37532881656385,0</coordinates>
			</Point>
		</Placemark>
		<Placemark>
			<name>4</name>
			<description>Svolta a destra e prendi Contrada Tregge;Turn right and take Contrada Tregge</description>
			<LookAt>
				<longitude>13.10510651445292</longitude>
				<latitude>43.35205544288891</latitude>
				<altitude>0</altitude>
				<heading>-2.860948045103442</heading>
				<tilt>23.96833527405649</tilt>
				<range>461.3235938703463</range>
				<gx:altitudeMode>relativeToSeaFloor</gx:altitudeMode>
			</LookAt>
			<styleUrl>#m_ylw-pushpin</styleUrl>
			<Point>
				<gx:drawOrder>1</gx:drawOrder>
				<coordinates>13.1044787096264,43.35164696930739,0</coordinates>
			</Point>
		</Placemark>
		<Placemark>
			<name>5</name>
			<description>Procedi in direzione sudovest su Via del Vecchio Comune verso Via Delle Vecchie scuole;Proceed southwest on Via del Vecchio Comune towards Via Delle Vecchie scuole</description>
			<LookAt>
				<longitude>13.10354637909082</longitude>
				<latitude>43.35092442567928</latitude>
				<altitude>0</altitude>
				<heading>-2.862018988881516</heading>
				<tilt>23.96833527405645</tilt>
				<range>461.323593867697</range>
				<gx:altitudeMode>relativeToSeaFloor</gx:altitudeMode>
			</LookAt>
			<styleUrl>#m_ylw-pushpin</styleUrl>
			<Point>
				<gx:drawOrder>1</gx:drawOrder>
				<coordinates>13.10340831352124,43.34979569097489,0</coordinates>
			</Point>
		</Placemark>
		<Placemark>
			<name>6</name>
			<description>Svolta a destra;Turn right</description>
			<LookAt>
				<longitude>13.1025744223831</longitude>
				<latitude>43.34926511646482</latitude>
				<altitude>0</altitude>
				<heading>-7.099527508970667</heading>
				<tilt>10.54753256741261</tilt>
				<range>428.791095171887</range>
				<gx:altitudeMode>relativeToSeaFloor</gx:altitudeMode>
			</LookAt>
			<styleUrl>#m_ylw-pushpin</styleUrl>
			<Point>
				<gx:drawOrder>1</gx:drawOrder>
				<coordinates>13.10236171955833,43.3489946948951,0</coordinates>
			</Point>
		</Placemark>
		<Placemark>
			<name>7</name>
			<description>Procedi in direzione ovest verso Strada Panoramica S. Vicino Canfaito;Proceed west towards Strada Panoramica S. Vicino Canfaito</description>
			<LookAt>
				<longitude>13.09434617883783</longitude>
				<latitude>43.34666229865179</latitude>
				<altitude>0</altitude>
				<heading>-7.106291590337981</heading>
				<tilt>29.97046189106402</tilt>
				<range>341.6295500484421</range>
				<gx:altitudeMode>relativeToSeaFloor</gx:altitudeMode>
			</LookAt>
			<styleUrl>#m_ylw-pushpin</styleUrl>
			<Point>
				<gx:drawOrder>1</gx:drawOrder>
				<coordinates>13.09433462045919,43.34723320960158,0</coordinates>
			</Point>
		</Placemark>
		<Placemark>
			<name>8</name>
			<description>Gira a destra;Turn right</description>
			<LookAt>
				<longitude>13.0681447898096</longitude>
				<latitude>43.34581860016925</latitude>
				<altitude>0</altitude>
				<heading>-7.124275962284567</heading>
				<tilt>29.97046189106402</tilt>
				<range>341.6295500512335</range>
				<gx:altitudeMode>relativeToSeaFloor</gx:altitudeMode>
			</LookAt>
			<styleUrl>#m_ylw-pushpin</styleUrl>
			<Point>
				<gx:drawOrder>1</gx:drawOrder>
				<coordinates>13.06846884294377,43.34432983440179,0</coordinates>
			</Point>
		</Placemark>
		<Placemark>
			<name>9</name>
			<description>Procedi in direzione nord verso Strada Panoramica S. Vicino Canfaito;Proceed north towards Strada Panoramica S. Vicino Canfaito</description>
			<LookAt>
				<longitude>13.06902027550714</longitude>
				<latitude>43.34606444681481</latitude>
				<altitude>0</altitude>
				<heading>-7.123675036948854</heading>
				<tilt>29.97046189106402</tilt>
				<range>341.6295500480023</range>
				<gx:altitudeMode>relativeToSeaFloor</gx:altitudeMode>
			</LookAt>
			<styleUrl>#m_ylw-pushpin</styleUrl>
			<Point>
				<gx:drawOrder>1</gx:drawOrder>
				<coordinates>13.07020796729402,43.34586826390095,0</coordinates>
			</Point>
		</Placemark>
		<Placemark>
			<name>10</name>
			<description>Svolta tutto a sinistra e prendi Strada Panoramica S. Vicino Canfaito;Turn sharp left and take Strada Panoramica S. Vicino Canfaito</description>
			<LookAt>
				<longitude>13.07203697466721</longitude>
				<latitude>43.34734370445637</latitude>
				<altitude>0</altitude>
				<heading>-7.121604336657312</heading>
				<tilt>29.97046189106399</tilt>
				<range>341.6295500506357</range>
				<gx:altitudeMode>relativeToSeaFloor</gx:altitudeMode>
			</LookAt>
			<styleUrl>#m_ylw-pushpin</styleUrl>
			<Point>
				<gx:drawOrder>1</gx:drawOrder>
				<coordinates>13.07379682077993,43.34842652658008,0</coordinates>
			</Point>
		</Placemark>
		<Placemark>
			<name>11</name>
			<description>Svolta a sinistra per rimanere su Strada Panoramica S. Vicino Canfaito;Turn left to stay on Strada Panoramica S. Vicino Canfaito</description>
			<LookAt>
				<longitude>13.06056616644671</longitude>
				<latitude>43.34424181048372</latitude>
				<altitude>0</altitude>
				<heading>-7.129477854023592</heading>
				<tilt>29.97046189106399</tilt>
				<range>341.6295500504073</range>
				<gx:altitudeMode>relativeToSeaFloor</gx:altitudeMode>
			</LookAt>
			<styleUrl>#m_ylw-pushpin</styleUrl>
			<Point>
				<gx:drawOrder>1</gx:drawOrder>
				<coordinates>13.06075371165048,43.34378820330161,0</coordinates>
			</Point>
		</Placemark>
		<Placemark>
			<name>12</name>
			<description>Procedi in direzione sudovest su Strada Panoramica S. Vicino Canfaito;Proceed southwest on Strada Panoramica SAN. Near Canfaito</description>
			<LookAt>
				<longitude>13.06104115893507</longitude>
				<latitude>43.34333562372336</latitude>
				<altitude>0</altitude>
				<heading>-7.129151826407123</heading>
				<tilt>29.97046189106396</tilt>
				<range>341.6295500503486</range>
				<gx:altitudeMode>relativeToSeaFloor</gx:altitudeMode>
			</LookAt>
			<styleUrl>#m_ylw-pushpin</styleUrl>
			<Point>
				<gx:drawOrder>1</gx:drawOrder>
				<coordinates>13.06027977061181,43.34254429142678,0</coordinates>
			</Point>
		</Placemark>
		<Placemark>
			<name>13</name>
			<description>Gira a sinistra;Turn left</description>
			<LookAt>
				<longitude>13.06643438514738</longitude>
				<latitude>43.33900812983425</latitude>
				<altitude>0</altitude>
				<heading>-7.125450262513736</heading>
				<tilt>29.970461891064</tilt>
				<range>341.6295500517002</range>
				<gx:altitudeMode>relativeToSeaFloor</gx:altitudeMode>
			</LookAt>
			<styleUrl>#m_ylw-pushpin</styleUrl>
			<Point>
				<gx:drawOrder>1</gx:drawOrder>
				<coordinates>13.06593105733967,43.33824770626868,0</coordinates>
			</Point>
		</Placemark>
		<Placemark>
			<name>14</name>
			<description>Gira a Sinistra e prosegui lungo il sentiero;Turn left and continue along the path</description>
			<LookAt>
				<longitude>13.07572867802357</longitude>
				<latitude>43.34061831177835</latitude>
				<altitude>0</altitude>
				<heading>2.612104940263275</heading>
				<tilt>0</tilt>
				<range>332.9375955124524</range>
				<gx:altitudeMode>relativeToSeaFloor</gx:altitudeMode>
			</LookAt>
			<styleUrl>#m_ylw-pushpin</styleUrl>
			<Point>
				<gx:drawOrder>1</gx:drawOrder>
				<coordinates>13.0744635120024,43.34144111569622,0</coordinates>
			</Point>
		</Placemark>
		<Placemark>
			<name>15</name>
			<description>Prosegui lungo il percorso;Continue along the path</description>
			<LookAt>
				<longitude>13.07952032947328</longitude>
				<latitude>43.34036881019252</latitude>
				<altitude>0</altitude>
				<heading>2.614706453389782</heading>
				<tilt>7.211847735442174</tilt>
				<range>393.1084774641406</range>
				<gx:altitudeMode>relativeToSeaFloor</gx:altitudeMode>
			</LookAt>
			<styleUrl>#m_ylw-pushpin</styleUrl>
			<Point>
				<gx:drawOrder>1</gx:drawOrder>
				<coordinates>13.07949517290071,43.34168905515236,0</coordinates>
			</Point>
		</Placemark>
		<Placemark>
			<name>16</name>
			<description>Gira a sinistra e continua il percorso;Turn left and continue along the path</description>
			<LookAt>
				<longitude>13.08032766801666</longitude>
				<latitude>43.34098331360642</latitude>
				<altitude>0</altitude>
				<heading>2.615292620537232</heading>
				<tilt>14.49935926690794</tilt>
				<range>641.0150951805753</range>
				<gx:altitudeMode>relativeToSeaFloor</gx:altitudeMode>
			</LookAt>
			<styleUrl>#m_ylw-pushpin</styleUrl>
			<Point>
				<gx:drawOrder>1</gx:drawOrder>
				<coordinates>13.07822530979179,43.33913027326744,0</coordinates>
			</Point>
		</Placemark>
		<Placemark>
			<name>17</name>
			<description>Procedi verso sud-ovest;Proceed southwest</description>
			<LookAt>
				<longitude>13.09475573351873</longitude>
				<latitude>43.34697321274672</latitude>
				<altitude>0</altitude>
				<heading>2.625194857948304</heading>
				<tilt>14.5040651304877</tilt>
				<range>2733.625184886659</range>
				<gx:altitudeMode>relativeToSeaFloor</gx:altitudeMode>
			</LookAt>
			<styleUrl>#m_ylw-pushpin</styleUrl>
			<Point>
				<gx:drawOrder>1</gx:drawOrder>
				<coordinates>13.0999835703399,43.34336761932859,0</coordinates>
			</Point>
		</Placemark>
		<Placemark>
			<name>18</name>
			<description>Svolta a sinistra e prendi Contrada Villanova;Turn left and take Contrada Villanova</description>
			<LookAt>
				<longitude>13.09475573351873</longitude>
				<latitude>43.34697321274672</latitude>
				<altitude>0</altitude>
				<heading>2.625194857948304</heading>
				<tilt>14.5040651304877</tilt>
				<range>2733.625184886659</range>
				<gx:altitudeMode>relativeToSeaFloor</gx:altitudeMode>
			</LookAt>
			<styleUrl>#m_ylw-pushpin</styleUrl>
			<Point>
				<gx:drawOrder>1</gx:drawOrder>
				<coordinates>13.09705963596532,43.33990100970328,0</coordinates>
			</Point>
		</Placemark>
		<Placemark>
			<name>19</name>
			<description>Procedi in direzione est su Contrada Villanova;Proceed east on Contrada Villanova</description>
			<LookAt>
				<longitude>13.10320187999431</longitude>
				<latitude>43.34509207132629</latitude>
				<altitude>0</altitude>
				<heading>2.630771880751329</heading>
				<tilt>20.43318533821691</tilt>
				<range>1152.577506346448</range>
				<gx:altitudeMode>relativeToSeaFloor</gx:altitudeMode>
			</LookAt>
			<styleUrl>#m_ylw-pushpin</styleUrl>
			<Point>
				<gx:drawOrder>1</gx:drawOrder>
				<coordinates>13.10322886912902,43.34251086094795,0</coordinates>
			</Point>
		</Placemark>
		<Placemark>
			<name>20</name>
			<description>Procedi in direzione nord verso SP2;Proceed north towards SP2</description>
			<LookAt>
				<longitude>13.10501667859491</longitude>
				<latitude>43.3433127664501</latitude>
				<altitude>0</altitude>
				<heading>10.57004200685184</heading>
				<tilt>0</tilt>
				<range>312.3100051174221</range>
				<gx:altitudeMode>relativeToSeaFloor</gx:altitudeMode>
			</LookAt>
			<styleUrl>#m_ylw-pushpin</styleUrl>
			<Point>
				<gx:drawOrder>1</gx:drawOrder>
				<coordinates>13.10511148230281,43.34439271131605,0</coordinates>
			</Point>
		</Placemark>
		<Placemark>
			<name>21</name>
			<description>Svolta a destra e prendi SP2;Turn right and take SP2</description>
			<LookAt>
				<longitude>13.1056242978496</longitude>
				<latitude>43.34495001640821</latitude>
				<altitude>0</altitude>
				<heading>10.57045904331215</heading>
				<tilt>0</tilt>
				<range>312.3100051166397</range>
				<gx:altitudeMode>relativeToSeaFloor</gx:altitudeMode>
			</LookAt>
			<styleUrl>#m_ylw-pushpin</styleUrl>
			<Point>
				<gx:drawOrder>1</gx:drawOrder>
				<coordinates>13.10505293507441,43.34706736328305,0</coordinates>
			</Point>
		</Placemark>
		<Placemark>
			<name>22</name>
			<description>Svolta a Sinistra;Turn left</description>
			<LookAt>
				<longitude>13.10757970402584</longitude>
				<latitude>43.34528313116091</latitude>
				<altitude>0</altitude>
				<heading>10.57180123658212</heading>
				<tilt>0</tilt>
				<range>312.3100051189443</range>
				<gx:altitudeMode>relativeToSeaFloor</gx:altitudeMode>
			</LookAt>
			<styleUrl>#m_ylw-pushpin</styleUrl>
			<Point>
				<gx:drawOrder>1</gx:drawOrder>
				<coordinates>13.10849882527515,43.3467739387847,0</coordinates>
			</Point>
		</Placemark>
		<Placemark>
			<name>23</name>
			<description>Gira a destra;Turn right</description>
			<LookAt>
				<longitude>13.13872091143393</longitude>
				<latitude>43.34891842067029</latitude>
				<altitude>0</altitude>
				<heading>10.59316550557874</heading>
				<tilt>2.159145449645736</tilt>
				<range>917.081092355068</range>
				<gx:altitudeMode>relativeToSeaFloor</gx:altitudeMode>
			</LookAt>
			<styleUrl>#m_ylw-pushpin</styleUrl>
			<Point>
				<gx:drawOrder>1</gx:drawOrder>
				<coordinates>13.141662658719,43.35114832675934,0</coordinates>
			</Point>
		</Placemark>
		<Placemark>
			<name>24</name>
			<description>Gira a destra;Turn right</description>
			<LookAt>
				<longitude>13.14197274001058</longitude>
				<latitude>43.35186559778459</latitude>
				<altitude>0</altitude>
				<heading>10.59539114616155</heading>
				<tilt>15.58857764287443</tilt>
				<range>313.4455854934195</range>
				<gx:altitudeMode>relativeToSeaFloor</gx:altitudeMode>
			</LookAt>
			<styleUrl>#m_ylw-pushpin</styleUrl>
			<Point>
				<gx:drawOrder>1</gx:drawOrder>
				<coordinates>13.14250555555556,43.35206111111111,0</coordinates>
			</Point>
		</Placemark>
		<Placemark>
			<name>25</name>
			<description>Gira a sinistra;Turn left</description>
			<LookAt>
				<longitude>13.14310241611528</longitude>
				<latitude>43.3520848846475</latitude>
				<altitude>0</altitude>
				<heading>10.59616663692402</heading>
				<tilt>15.58857764287443</tilt>
				<range>313.4455854924699</range>
				<gx:altitudeMode>relativeToSeaFloor</gx:altitudeMode>
			</LookAt>
			<styleUrl>#m_ylw-pushpin</styleUrl>
			<Point>
				<gx:drawOrder>1</gx:drawOrder>
				<coordinates>13.14445277777778,43.35225,0</coordinates>
			</Point>
		</Placemark>
		<Placemark>
			<name>26</name>
			<description>Continua su viadotto di Moscosi;Continue on the Moscosi viaduct</description>
			<LookAt>
				<longitude>13.15433982825436</longitude>
				<latitude>43.36674646167091</latitude>
				<altitude>0</altitude>
				<heading>10.60388162392201</heading>
				<tilt>15.58857764287436</tilt>
				<range>313.4455854931817</range>
				<gx:altitudeMode>relativeToSeaFloor</gx:altitudeMode>
			</LookAt>
			<styleUrl>#m_ylw-pushpin</styleUrl>
			<Point>
				<gx:drawOrder>1</gx:drawOrder>
				<coordinates>13.15409444444444,43.36963611111111,0</coordinates>
			</Point>
		</Placemark>
		<Placemark>
			<name>27</name>
			<description>Svolta leggermente a destra e prendi Località Castreccioni;Turn slightly right and take Località Castreccioni</description>
			<LookAt>
				<longitude>13.15440260269581</longitude>
				<latitude>43.37379880695167</latitude>
				<altitude>0</altitude>
				<heading>10.60392468813182</heading>
				<tilt>15.58857764287443</tilt>
				<range>313.4455854946339</range>
				<gx:altitudeMode>relativeToSeaFloor</gx:altitudeMode>
			</LookAt>
			<styleUrl>#m_ylw-pushpin</styleUrl>
			<Point>
				<gx:drawOrder>1</gx:drawOrder>
				<coordinates>13.15349366984304,43.37441171674487,0</coordinates>
			</Point>
		</Placemark>
		<atom:link rel="app" href="https://www.google.com/earth/about/versions/#earth-pro" title="Google Earth Pro 7.3.6.10441"></atom:link>
	</Folder>
</Document>
</kml>
