<?xml version="1.0" encoding="UTF-8"?>
<kml xmlns="http://www.opengis.net/kml/2.2" xmlns:gx="http://www.google.com/kml/ext/2.2" xmlns:kml="http://www.opengis.net/kml/2.2" xmlns:atom="http://www.w3.org/2005/Atom">
<Document>
	<name>Apiro_AR_indicazioni.kml</name>
	<StyleMap id="__managed_style_9EBE28A05439BB68D83C">
		<Pair>
			<key>normal</key>
			<styleUrl>#failed70</styleUrl>
		</Pair>
		<Pair>
			<key>highlight</key>
			<styleUrl>#failed170</styleUrl>
		</Pair>
	</StyleMap>
	<Style id="failed170">
		<LineStyle>
			<color>ff0701fc</color>
			<width>2</width>
		</LineStyle>
	</Style>
	<Style id="failed70">
		<LineStyle>
			<color>ff0701fc</color>
			<width>2</width>
		</LineStyle>
	</Style>
	<StyleMap id="m_ylw-pushpin">
		<Pair>
			<key>normal</key>
			<styleUrl>#s_ylw-pushpin</styleUrl>
		</Pair>
		<Pair>
			<key>highlight</key>
			<styleUrl>#s_ylw-pushpin_hl</styleUrl>
		</Pair>
	</StyleMap>
	<Style id="s_ylw-pushpin">
		<IconStyle>
			<scale>1.1</scale>
			<Icon>
				<href>http://maps.google.com/mapfiles/kml/pushpin/red-pushpin.png</href>
			</Icon>
			<hotSpot x="20" y="2" xunits="pixels" yunits="pixels"/>
		</IconStyle>
		<ListStyle>
		</ListStyle>
	</Style>
	<Style id="s_ylw-pushpin_hl">
		<IconStyle>
			<scale>1.3</scale>
			<Icon>
				<href>http://maps.google.com/mapfiles/kml/pushpin/red-pushpin.png</href>
			</Icon>
			<hotSpot x="20" y="2" xunits="pixels" yunits="pixels"/>
		</IconStyle>
		<ListStyle>
		</ListStyle>
	</Style>
	<Folder>
		<name>Apiro_AR_indicazioni</name>
		<open>1</open>
		<Placemark id="569917DD09000004">
			<name>AR</name>
			<styleUrl>#__managed_style_9EBE28A05439BB68D83C</styleUrl>
			<LineString>
				<extrude>1</extrude>
				<altitudeMode>absolute</altitudeMode>
				<coordinates>
					13.13121,43.39235,0 13.13121324986798,43.39232632193531,0 13.13121,43.39235,0 13.13115,43.39235,0 13.13104,43.39232,0 13.13075582355485,43.39261804857667,0 13.13002,43.39325,0 13.12986,43.39335,0 13.12978,43.3934,0 13.12973,43.39342,0 13.12959,43.39351,0 13.129516,43.393593,0 13.12952,43.39359,0 13.12937,43.39369,0 13.1291,43.39364,0 13.12881,43.39355,0 13.12881,43.39354,0 13.12922,43.39313,0 13.12943,43.39292,0 13.12985,43.39264,0 13.13062,43.39185,0 13.13059,43.39177,0 13.13071,43.39155,0 13.13068,43.39135,0 13.13019,43.39101,0 13.13051,43.39074,0 13.13072,43.39071,0 13.13062,43.39069,0 13.13047,43.39054,0 13.13035,43.39039,0 13.13023,43.3903,0 13.13014,43.39015,0 13.13014,43.38988,0 13.13012,43.38978,0 13.13006,43.38965,0 13.12994,43.38951,0 13.12972,43.38937,0 13.12955,43.38923,0 13.12937,43.38941,0 13.12909,43.38977,0 13.1271929292506,43.39230936005157,0 13.12736899013521,43.39241231856378,0 13.12782,43.39268,0 13.12822,43.39301,0 13.12856,43.39323,0 13.12827,43.39354,0 13.12826,43.39359,0 13.12836284997576,43.39365335012043,0 13.12833,43.39368,0 13.12733,43.39423,0 13.12685,43.39453,0 13.12644,43.39484,0 13.12565,43.39577,0 13.12535374263985,43.39633682931247,0 13.12525170047941,43.39664654014853,0 13.12507573318466,43.39680912599805,0 13.12481640735223,43.39690451522068,0 13.12439959192252,43.39697850400965,0 13.12359,43.39715,0 13.1233,43.39726,0 13.12256,43.39772,0 13.12182,43.39811,0 13.12143,43.39827,0 13.12112,43.39833,0 13.12084,43.39829,0 13.12055,43.39819,0 13.12006,43.39794,0 13.11947,43.39772,0 13.11878,43.39763,0 13.1182,43.39761,0 13.11773,43.39766,0 13.11726,43.39774,0 13.11689653052565,43.39789007652949,0 13.11679533979394,43.39785089606431,0 13.1165,43.39785,0 13.11579,43.39808,0 13.11543,43.39821,0 13.11527,43.39836,0 13.11504,43.3986,0 13.11487,43.39892,0 13.11512,43.39922,0 13.11514,43.39939,0 13.11527,43.39951,0 13.11534,43.39968,0 13.11556,43.39983,0 13.11589,43.39992,0 13.11595,43.39997,0 13.11595,43.40005,0 13.11568,43.4009,0 13.11551,43.40097,0 13.11511,43.40116,0 13.11482,43.40135,0 13.1146,43.40166,0 13.11449,43.40197,0 13.11448,43.40232,0 13.11419,43.40241,0 13.11404,43.40261,0 13.11395,43.40289,0 13.11378,43.40309,0 13.11338,43.40341,0 13.11313,43.40373,0 13.11247,43.40497,0 13.1123,43.4051,0 13.11215,43.40526,0 13.1121,43.40546,0 13.11212,43.40615,0 13.11207,43.40632,0 13.11195,43.40653,0 13.11129,43.40725,0 13.11125,43.40727,0 13.11114,43.40734,0 13.11092,43.40742,0 13.11028,43.40759,0 13.1101,43.40769,0 13.10991,43.40785,0 13.10931,43.40857,0 13.10926,43.4088,0 13.10926,43.40994,0 13.10922,43.41015,0 13.10895,43.41079,0 13.10896,43.41097,0 13.10906,43.41115,0 13.10804,43.41146,0 13.10777,43.41146,0 13.10762,43.41151,0 13.10741,43.41157,0 13.10718,43.41158,0 13.10664,43.41136,0 13.10537,43.41118,0 13.1031,43.41071,0 13.10275,43.4106,0 13.10274,43.4103,0 13.10264,43.41006,0 13.10239,43.40983,0 13.10212,43.40972,0 13.1016,43.40961,0 13.10147,43.40953,0 13.10137,43.40939,0 13.10105,43.40852,0 13.10111,43.40829,0 13.10133,43.40799,0 13.10133,43.40764,0 13.10124,43.40752,0 13.10098,43.40744,0 13.10066,43.40742,0 13.09976,43.4074,0 13.09917,43.40744,0 13.09894,43.40737,0 13.09883,43.40727,0 13.09881,43.40711,0 13.09964,43.40626,0 13.09964,43.40609,0 13.09931,43.40581,0 13.09876,43.4054,0 13.09821,43.40462,0 13.09782,43.40447,0 13.09744,43.40429,0 13.09695,43.40394,0 13.09666,43.40378,0 13.09639,43.40365,0 13.09621,43.40361,0 13.096,43.40361,0 13.09521,43.40367,0 13.09324,43.40378,0 13.09298,43.40383,0 13.09272,43.40392,0 13.09249,43.40402,0 13.09234,43.40403,0 13.09195,43.40395,0 13.09169,43.4038,0 13.09116,43.40358,0 13.09091,43.40349,0 13.09068,43.40346,0 13.09043,43.40344,0 13.09023,43.40345,0 13.09011,43.4035,0 13.08971,43.40382,0 13.08958,43.40385,0 13.08826,43.40386,0 13.08722,43.40392,0 13.08687,43.404,0 13.08683,43.40407,0 13.08672,43.40442,0 13.08651,43.40475,0 13.08631,43.4052,0 13.08605,43.40597,0 13.08594,43.40616,0 13.08577,43.40639,0 13.08506,43.40699,0 13.08459,43.40732,0 13.08428,43.40749,0 13.08406,43.40755,0 13.08385,43.40759,0 13.08325,43.4076,0 13.0831,43.40754,0 13.08287,43.40743,0 13.0826,43.40718,0 13.08226,43.40678,0 13.0822,43.40676,0 13.08209933947366,43.4067795814485,0 13.08208,43.40685,0 13.0821668210066,43.40734463726587,0 13.08216326001666,43.40747863088309,0 13.08211227408292,43.40758692253597,0 13.08200645946905,43.40773008452177,0 13.08170614364862,43.40801948451056,0 13.08117753387539,43.40847918558246,0 13.08026810463797,43.40900782369925,0 13.08020873105276,43.40906718835576,0 13.08017730745879,43.40921795800719,0 13.08024890284389,43.40937312237679,0 13.08032165867907,43.40945577225303,0 13.08097337118661,43.41009214463188,0 13.08104645667409,43.41017736039878,0 13.08109,43.41018,0 13.08115,43.41011,0 13.08123530013324,43.40987744910364,0 13.0812799735421,43.4099078466184,0 13.0812022047361,43.4101068338439,0 13.08112225018382,43.41019227579801,0 13.08103876739538,43.41021913309971,0 13.08093401475821,43.41009502835292,0 13.08030138294903,43.40947300525974,0 13.08021344189444,43.40939237204536,0 13.08013658177962,43.40921793662356,0 13.08017319898643,43.40907599081903,0 13.0802458588424,43.40898882328312,0 13.08115891355488,43.40846479586943,0 13.08168579468045,43.40799695694006,0 13.08198733399057,43.40771294431851,0 13.08208480608898,43.40756525139001,0 13.08212915121949,43.40746472880755,0 13.08212798752617,43.40735123938661,0 13.08204876633552,43.40677955649832,0 13.08184,43.40497,0 13.08162,43.40429,0 13.08151,43.40394,0 13.0814,43.40366,0 13.08134,43.40339,0 13.08137,43.40314,0 13.08157,43.40286,0 13.08181,43.40265,0 13.0823,43.40218,0 13.08264,43.40194,0 13.0828,43.4018,0 13.08301,43.40157,0 13.08315,43.4015,0 13.08335,43.40145,0 13.08377,43.40137,0 13.08396,43.40133,0 13.08421,43.40128,0 13.08434,43.40126,0 13.08633,43.40086,0 13.08654,43.4008,0 13.08672,43.4007,0 13.08685,43.40056,0 13.08715,43.40011,0 13.08738,43.3999,0 13.08794,43.39965,0 13.08814,43.39953,0 13.08864,43.3991,0 13.08889,43.39896,0 13.08914,43.39889,0 13.08941,43.39886,0 13.08973,43.39887,0 13.09005,43.39891,0 13.0902,43.39893,0 13.09133,43.39907,0 13.09169,43.39909,0 13.09206,43.39905,0 13.09238,43.39897,0 13.09263,43.39887,0 13.09282,43.39874,0 13.09324,43.39838,0 13.09424,43.3972,0 13.09562,43.39561,0 13.09612,43.39508,0 13.09653,43.39459,0 13.09661,43.39444,0 13.09662,43.39428,0 13.09657,43.39406,0 13.09616,43.39308,0 13.0961,43.39284,0 13.09611,43.39229,0 13.09617,43.39109,0 13.09624,43.39077,0 13.0964167221874,43.39043800189584,0 13.097921,43.390624,0 13.09870558683739,43.39020362404265,0 13.09980261191755,43.38990121873741,0 13.10074180511292,43.38964163870369,0 13.101646,43.389367,0 13.101832,43.389653,0 13.10204,43.390169,0 13.102127,43.39026,0 13.102641,43.39034,0 13.102522,43.390828,0 13.102679,43.390979,0 13.102663,43.39109,0 13.102745,43.391245,0 13.102821,43.391356,0 13.102882,43.391631,0 13.10259541697976,43.39166987768851,0 13.10262270240446,43.39173427870427,0 13.10275,43.39189,0 13.10297,43.39203,0 13.1033,43.39209,0 13.10375,43.39212,0 13.10406,43.39224,0 13.10445,43.39247,0 13.10475,43.3925,0 13.10504,43.39248,0 13.10526,43.39232,0 13.1053,43.39229,0 13.10562,43.39191,0 13.10574,43.39185,0 13.10587,43.39187,0 13.10627,43.39201,0 13.10676,43.39227,0 13.10716,43.39242,0 13.10772,43.39273,0 13.10798,43.39294,0 13.10872,43.39344,0 13.10912,43.393702,0 13.109537,43.393921,0 13.109774,43.394152,0 13.10996,43.39444,0 13.11043,43.39483,0 13.11087,43.39514,0 13.11102,43.39525,0 13.11188,43.39611,0 13.11239,43.39633,0 13.11289,43.39659,0 13.11541,43.39633,0 13.11915,43.39593,0 13.11925,43.39592,0 13.12017,43.39643,0 13.12088,43.39694,0 13.12134,43.39718,0 13.12171,43.39733,0 13.12213,43.39726,0 13.12249,43.39712,0 13.12285,43.39706,0 13.12362940398829,43.3971161228454,0 13.12439215180573,43.39694013460009,0 13.12476804129361,43.39689306339277,0 13.12499369434785,43.3968187550747,0 13.12522888038268,43.39664290987537,0 13.12527948206854,43.39649829140887,0 13.12525461998823,43.39629688003241,0 13.12508199538164,43.39585354742096,0 13.1250143495009,43.39563746276105,0 13.12508758192589,43.3953659508072,0 13.12567,43.39462,0 13.12613,43.39379,0 13.12657,43.3931,0 13.12707,43.39245,0 13.12715,43.39236,0 13.12717649707722,43.39232952956381,0 13.127380830447,43.39240375545657,0 13.12783901435094,43.39266708673493,0 13.12825245512969,43.39300033385148,0 13.12857837423054,43.39322643387516,0 13.12830135272455,43.39353070180666,0 13.1283016392921,43.39358224194862,0 13.12836990667566,43.39363209875417,0 13.12854,43.39355,0 13.12896903820871,43.39328419786668,0 13.12944627282297,43.39294236109528,0 13.12988262565105,43.39266058361008,0 13.13064466437161,43.39187095962831,0 13.13064312759924,43.39175557532301,0 13.13075102893927,43.39153962449682,0 13.1307325777895,43.39134354448585,0 13.13024628170064,43.39101032567405,0 13.130531131454,43.39077215911517,0 13.13081283685607,43.39072887367305,0 13.13064764126794,43.39067259208057,0 13.13048436855937,43.39052584614211,0 13.13037483925097,43.3903796960067,0 13.13024623456227,43.39029391788205,0 13.13015788416571,43.39014924379854,0 13.13017604046511,43.38989060463624,0 13.13014627069224,43.38978451714707,0 13.13009761336534,43.38964160998122,0 13.12997542979871,43.38949525808434,0 13.12974395627159,43.38936586674984,0 13.12956861899261,43.389207721068,0 13.12974,43.38908,0 13.13052,43.38863,0 13.13071,43.38851,0 13.13105,43.38843,0 13.13198,43.3884,0 13.13213,43.38839,0 13.13292,43.38823,0 13.13324,43.38825,0 13.13318,43.38833,0 13.13317,43.38833,0 13.13318,43.38833,0 13.13327,43.38838,0 13.13336,43.38845,0 13.13339,43.38854,0 13.13335,43.38865,0 13.13325915607085,43.38875382901226,0 13.13307240577684,43.3888554338056,0 13.13254,43.38908,0 13.13253,43.38909,0 13.132065,43.389297,0 13.131913,43.389544,0 13.13187,43.3896,0 13.13186,43.38969,0 13.13188,43.3901,0 13.13192,43.39065,0 13.13196,43.391,0 13.13232129025156,43.39161294906405,0 13.13236,43.39184,0 13.13243426015124,43.39203430613377,0 13.13240017205255,43.39206242171836,0 13.13222018954518,43.39222887976723,0 13.13201947636198,43.39235665549199,0 13.13183686504937,43.39237195479817,0 13.13167,43.39237,0 13.13142,43.39236,0 13.13134765357368,43.39235616722056,0 
				</coordinates>
			</LineString>
		</Placemark>
		<Placemark>
			<name>1</name>
			<description>Procedi in direzione ovest su Piazza G. Baldini verso Corso Vittorio Emanuele;Proceed west on Piazza G. Baldini towards Corso Vittorio Emanuele</description>
			<LookAt>
				<longitude>13.13041653578917</longitude>
				<latitude>43.3911052636113</latitude>
				<altitude>0</altitude>
				<heading>0.004921510876792915</heading>
				<tilt>0</tilt>
				<range>394.9802915152346</range>
				<gx:altitudeMode>relativeToSeaFloor</gx:altitudeMode>
			</LookAt>
			<styleUrl>#m_ylw-pushpin</styleUrl>
			<Point>
				<gx:drawOrder>1</gx:drawOrder>
				<coordinates>13.13118140953737,43.39238849775143,0</coordinates>
			</Point>
		</Placemark>
		<Placemark>
			<name>2</name>
			<description>Svolta a destra e prendi Corso Vittorio Emanuele;Turn right and take Corso Vittorio Emanuele</description>
			<LookAt>
				<longitude>13.13041653578917</longitude>
				<latitude>43.3911052636113</latitude>
				<altitude>0</altitude>
				<heading>0.004921510876792915</heading>
				<tilt>0</tilt>
				<range>394.9802915152346</range>
				<gx:altitudeMode>relativeToSeaFloor</gx:altitudeMode>
			</LookAt>
			<styleUrl>#m_ylw-pushpin</styleUrl>
			<Point>
				<gx:drawOrder>1</gx:drawOrder>
				<coordinates>13.13109166666667,43.39230833333333,0</coordinates>
			</Point>
		</Placemark>
		<Placemark>
			<name>3</name>
			<description>Continua su Via 4 Novembre;Continue on Via 4 Novembre</description>
			<LookAt>
				<longitude>13.12987338007886</longitude>
				<latitude>43.39281608380976</latitude>
				<altitude>0</altitude>
				<heading>0.004553737270650309</heading>
				<tilt>4.115181852358043</tilt>
				<range>160.8530006149166</range>
				<gx:altitudeMode>relativeToSeaFloor</gx:altitudeMode>
			</LookAt>
			<styleUrl>#m_ylw-pushpin</styleUrl>
			<Point>
				<gx:drawOrder>1</gx:drawOrder>
				<coordinates>13.12982184699618,43.39339873162995,0</coordinates>
			</Point>
		</Placemark>
		<Placemark>
			<name>4</name>
			<description>Procedi in direzione ovest su Via 4 Novembre verso Via Filippo Mariotti;Proceed west on Via 4 Novembre towards Via Filippo Mariotti</description>
			<LookAt>
				<longitude>13.12986829726449</longitude>
				<latitude>43.392814296224</latitude>
				<altitude>0</altitude>
				<heading>0.004550245439958074</heading>
				<tilt>4.115181852357956</tilt>
				<range>160.8530006154628</range>
				<gx:altitudeMode>relativeToSeaFloor</gx:altitudeMode>
			</LookAt>
			<styleUrl>#m_ylw-pushpin</styleUrl>
			<Point>
				<gx:drawOrder>1</gx:drawOrder>
				<coordinates>13.12943342231925,43.39368175186482,0</coordinates>
			</Point>
		</Placemark>
		<Placemark>
			<name>5</name>
			<description>Svolta a sinistra e prendi Via Filippo Mariotti;Turn left and take Via Filippo Mariotti</description>
			<LookAt>
				<longitude>13.12985173759665</longitude>
				<latitude>43.39281604434775</latitude>
				<altitude>0</altitude>
				<heading>0.004538869134698531</heading>
				<tilt>4.115181852357689</tilt>
				<range>160.8530006140321</range>
				<gx:altitudeMode>relativeToSeaFloor</gx:altitudeMode>
			</LookAt>
			<styleUrl>#m_ylw-pushpin</styleUrl>
			<Point>
				<gx:drawOrder>1</gx:drawOrder>
				<coordinates>13.12887777777778,43.39353888888889,0</coordinates>
			</Point>
		</Placemark>
		<Placemark>
			<name>6</name>
			<description>Continua su Via Mestica;Continue on Via Mestica</description>
			<LookAt>
				<longitude>13.12984657329822</longitude>
				<latitude>43.39281604463911</latitude>
				<altitude>0</altitude>
				<heading>0.004535321305584504</heading>
				<tilt>4.115181852358043</tilt>
				<range>160.8530006140249</range>
				<gx:altitudeMode>relativeToSeaFloor</gx:altitudeMode>
			</LookAt>
			<styleUrl>#m_ylw-pushpin</styleUrl>
			<Point>
				<gx:drawOrder>1</gx:drawOrder>
				<coordinates>13.12935833333334,43.39306388888889,0</coordinates>
			</Point>
		</Placemark>
		<Placemark>
			<name>7</name>
			<description>Svolta a destra verso Via Fonte Nuova;Turn right onto Via Fonte Nuova</description>
			<LookAt>
				<longitude>13.13052921517419</longitude>
				<latitude>43.39174688111729</latitude>
				<altitude>0</altitude>
				<heading>0.005004293347896292</heading>
				<tilt>4.115181852357867</tilt>
				<range>160.8530006112378</range>
				<gx:altitudeMode>relativeToSeaFloor</gx:altitudeMode>
			</LookAt>
			<styleUrl>#m_ylw-pushpin</styleUrl>
			<Point>
				<gx:drawOrder>1</gx:drawOrder>
				<coordinates>13.13058227698014,43.39184833222915,0</coordinates>
			</Point>
		</Placemark>
		<Placemark>
			<name>8</name>
			<description>Svolta a destra e prendi Via Fonte Nuova;Turn right and take Via Fonte Nuova</description>
			<LookAt>
				<longitude>13.13052679919469</longitude>
				<latitude>43.39174866261227</latitude>
				<altitude>0</altitude>
				<heading>0.005002633624093518</heading>
				<tilt>4.115181852358043</tilt>
				<range>160.8530006147947</range>
				<gx:altitudeMode>relativeToSeaFloor</gx:altitudeMode>
			</LookAt>
			<styleUrl>#m_ylw-pushpin</styleUrl>
			<Point>
				<gx:drawOrder>1</gx:drawOrder>
				<coordinates>13.13065934709767,43.39071183391873,0</coordinates>
			</Point>
		</Placemark>
		<Placemark>
			<name>9</name>
			<description>Procedi in direzione nordovest su SP2 verso Via Madonna della Fonte;Proceed northwest on SP2 towards Via Madonna della Fonte</description>
			<LookAt>
				<longitude>13.12972370458096</longitude>
				<latitude>43.38929123050281</latitude>
				<altitude>0</altitude>
				<heading>0.004450953511675139</heading>
				<tilt>4.115181852357867</tilt>
				<range>160.8530006156846</range>
				<gx:altitudeMode>relativeToSeaFloor</gx:altitudeMode>
			</LookAt>
			<styleUrl>#m_ylw-pushpin</styleUrl>
			<Point>
				<gx:drawOrder>1</gx:drawOrder>
				<coordinates>13.12957607640664,43.38926915106193,0</coordinates>
			</Point>
		</Placemark>
		<Placemark>
			<name>10</name>
			<description>Svolta a destra;Turn right</description>
			<LookAt>
				<longitude>13.1275165981081</longitude>
				<latitude>43.39219447881157</latitude>
				<altitude>0</altitude>
				<heading>0.002935713928632933</heading>
				<tilt>2.967335830359748</tilt>
				<range>142.6114380906579</range>
				<gx:altitudeMode>relativeToSeaFloor</gx:altitudeMode>
			</LookAt>
			<styleUrl>#m_ylw-pushpin</styleUrl>
			<Point>
				<gx:drawOrder>1</gx:drawOrder>
				<coordinates>13.12722281419866,43.3923047974863,0</coordinates>
			</Point>
		</Placemark>
		<Placemark>
			<name>11</name>
			<description>Procedi in direzione nordovest su Via Mestica;Proceed northwest on Via Mestica</description>
			<LookAt>
				<longitude>13.12779814536692</longitude>
				<latitude>43.39280016969654</latitude>
				<altitude>0</altitude>
				<heading>0.003117183587385687</heading>
				<tilt>0.7514630435206806</tilt>
				<range>137.2099478252906</range>
				<gx:altitudeMode>relativeToSeaFloor</gx:altitudeMode>
			</LookAt>
			<styleUrl>#m_ylw-pushpin</styleUrl>
			<Point>
				<gx:drawOrder>1</gx:drawOrder>
				<coordinates>13.12831842592972,43.39364951854007,0</coordinates>
			</Point>
		</Placemark>
		<Placemark>
			<name>12</name>
			<description>Svolta a destra e prendi SP2;Turn right and take SP2</description>
			<LookAt>
				<longitude>13.12555079434055</longitude>
				<latitude>43.39569467188839</latitude>
				<altitude>0</altitude>
				<heading>0.001589852261175011</heading>
				<tilt>0</tilt>
				<range>125.107883404322</range>
				<gx:altitudeMode>relativeToSeaFloor</gx:altitudeMode>
			</LookAt>
			<styleUrl>#m_ylw-pushpin</styleUrl>
			<Point>
				<gx:drawOrder>1</gx:drawOrder>
				<coordinates>13.12538248521349,43.39635323582065,0</coordinates>
			</Point>
		</Placemark>
		<Placemark>
			<name>13</name>
			<description>Svolta a sinistra;Turn left</description>
			<LookAt>
				<longitude>13.1205388335024</longitude>
				<latitude>43.39655127393166</latitude>
				<altitude>0</altitude>
				<heading>-0.001853286487549227</heading>
				<tilt>0</tilt>
				<range>681.2394316568844</range>
				<gx:altitudeMode>relativeToSeaFloor</gx:altitudeMode>
			</LookAt>
			<styleUrl>#m_ylw-pushpin</styleUrl>
			<Point>
				<gx:drawOrder>1</gx:drawOrder>
				<coordinates>13.11702868379496,43.39790351568746,0</coordinates>
			</Point>
		</Placemark>
		<Placemark>
			<name>14</name>
			<description>Procedi in direzione nordest verso SP2;Proceed northeast towards SP2</description>
			<LookAt>
				<longitude>13.11591788331656</longitude>
				<latitude>43.39817236967173</latitude>
				<altitude>0</altitude>
				<heading>-0.005027848696678859</heading>
				<tilt>3.307145648975876</tilt>
				<range>589.6151725661862</range>
				<gx:altitudeMode>relativeToSeaFloor</gx:altitudeMode>
			</LookAt>
			<styleUrl>#m_ylw-pushpin</styleUrl>
			<Point>
				<gx:drawOrder>1</gx:drawOrder>
				<coordinates>13.11501094320063,43.39889263977748,0</coordinates>
			</Point>
		</Placemark>
		<Placemark>
			<name>15</name>
			<description>Svolta a sinistra e prendi SP2;Turn left and take SP2</description>
			<LookAt>
				<longitude>13.1156918390642</longitude>
				<latitude>43.39968679787987</latitude>
				<altitude>0</altitude>
				<heading>-0.005181502697064653</heading>
				<tilt>4.362404012081271</tilt>
				<range>247.6330167466164</range>
				<gx:altitudeMode>relativeToSeaFloor</gx:altitudeMode>
			</LookAt>
			<styleUrl>#m_ylw-pushpin</styleUrl>
			<Point>
				<gx:drawOrder>1</gx:drawOrder>
				<coordinates>13.11565366872462,43.40084902544926,0</coordinates>
			</Point>
		</Placemark>
		<Placemark>
			<name>16</name>
			<description>Svolta a sinistra e prendi Contrada Maccarone;Turn left and take Contrada Maccarone</description>
			<LookAt>
				<longitude>13.11428110048433</longitude>
				<latitude>43.40204630643234</latitude>
				<altitude>0</altitude>
				<heading>-0.006150818152890674</heading>
				<tilt>4.362404012081105</tilt>
				<range>247.6330167455855</range>
				<gx:altitudeMode>relativeToSeaFloor</gx:altitudeMode>
			</LookAt>
			<styleUrl>#m_ylw-pushpin</styleUrl>
			<Point>
				<gx:drawOrder>1</gx:drawOrder>
				<coordinates>13.11446545357778,43.40228965524521,0</coordinates>
			</Point>
		</Placemark>
		<Placemark>
			<name>17</name>
			<description>Svolta a sinistra;Turn left</description>
			<LookAt>
				<longitude>13.1092327255544</longitude>
				<latitude>43.40891538356059</latitude>
				<altitude>0</altitude>
				<heading>-0.0096199602508533</heading>
				<tilt>4.36240401208102</tilt>
				<range>247.633016746682</range>
				<gx:altitudeMode>relativeToSeaFloor</gx:altitudeMode>
			</LookAt>
			<styleUrl>#m_ylw-pushpin</styleUrl>
			<Point>
				<gx:drawOrder>1</gx:drawOrder>
				<coordinates>13.10900485582001,43.41113082896729,0</coordinates>
			</Point>
		</Placemark>
		<Placemark>
			<name>18</name>
			<description>Svolta a sinistra e prendi Contrada Arsicci;Turn left and take Contrada Arsicci</description>
			<LookAt>
				<longitude>13.10277478627422</longitude>
				<latitude>43.40968893621418</latitude>
				<altitude>0</altitude>
				<heading>-0.01405794045337944</heading>
				<tilt>4.362404012081187</tilt>
				<range>247.6330167487475</range>
				<gx:altitudeMode>relativeToSeaFloor</gx:altitudeMode>
			</LookAt>
			<styleUrl>#m_ylw-pushpin</styleUrl>
			<Point>
				<gx:drawOrder>1</gx:drawOrder>
				<coordinates>13.10277027440001,43.41062872532637,0</coordinates>
			</Point>
		</Placemark>
		<Placemark>
			<name>19</name>
			<description>Svolta a destra e prendi Strada Provinciale 117;Turn right and take Provincial Road 117</description>
			<LookAt>
				<longitude>13.08367268527564</longitude>
				<latitude>43.40474909455507</latitude>
				<altitude>0</altitude>
				<heading>-0.02712442165896385</heading>
				<tilt>4.362560885030431</tilt>
				<range>479.9760065178517</range>
				<gx:altitudeMode>relativeToSeaFloor</gx:altitudeMode>
			</LookAt>
			<styleUrl>#m_ylw-pushpin</styleUrl>
			<Point>
				<gx:drawOrder>1</gx:drawOrder>
				<coordinates>13.08220958077978,43.40682808003596,0</coordinates>
			</Point>
		</Placemark>
		<Placemark>
			<name>20</name>
			<description>Svolta a destra;Turn right</description>
			<LookAt>
				<longitude>13.08241169503837</longitude>
				<latitude>43.4077864238006</latitude>
				<altitude>0</altitude>
				<heading>-0.02799092091589325</heading>
				<tilt>4.362560885030599</tilt>
				<range>479.9760065170029</range>
				<gx:altitudeMode>relativeToSeaFloor</gx:altitudeMode>
			</LookAt>
			<styleUrl>#m_ylw-pushpin</styleUrl>
			<Point>
				<gx:drawOrder>1</gx:drawOrder>
				<coordinates>13.08105753761666,43.41008833496021,0</coordinates>
			</Point>
		</Placemark>
		<Placemark>
			<name>21</name>
			<description>Svolta a sinistra;Turn left</description>
			<LookAt>
				<longitude>13.08241169503837</longitude>
				<latitude>43.4077864238006</latitude>
				<altitude>0</altitude>
				<heading>-0.02799092091589325</heading>
				<tilt>4.362560885030599</tilt>
				<range>479.9760065170029</range>
				<gx:altitudeMode>relativeToSeaFloor</gx:altitudeMode>
			</LookAt>
			<styleUrl>#m_ylw-pushpin</styleUrl>
			<Point>
				<gx:drawOrder>1</gx:drawOrder>
				<coordinates>13.08101245391524,43.41025660949045,0</coordinates>
			</Point>
		</Placemark>
		<Placemark>
			<name>22</name>
			<description>Svolta leggermente a sinistra;Turn slightly left</description>
			<LookAt>
				<longitude>13.09607505121716</longitude>
				<latitude>43.39335266121543</latitude>
				<altitude>0</altitude>
				<heading>-0.01860312750073397</heading>
				<tilt>4.362560885030683</tilt>
				<range>479.9760065163094</range>
				<gx:altitudeMode>relativeToSeaFloor</gx:altitudeMode>
			</LookAt>
			<styleUrl>#m_ylw-pushpin</styleUrl>
			<Point>
				<gx:drawOrder>1</gx:drawOrder>
				<coordinates>13.09634544471312,43.39047353431948,0</coordinates>
			</Point>
		</Placemark>
		<Placemark>
			<name>23</name>
			<description>Gira a sinistra e segui il percorso;Turn left and follow the path</description>
			<LookAt>
				<longitude>13.10173520812504</longitude>
				<latitude>43.38903022163453</latitude>
				<altitude>0</altitude>
				<heading>-7.593965036468373</heading>
				<tilt>5.858562198758857</tilt>
				<range>215.7125314182102</range>
				<gx:altitudeMode>relativeToSeaFloor</gx:altitudeMode>
			</LookAt>
			<styleUrl>#m_ylw-pushpin</styleUrl>
			<Point>
				<gx:drawOrder>1</gx:drawOrder>
				<coordinates>13.10160665974428,43.38941309228714,0</coordinates>
			</Point>
		</Placemark>
		<Placemark>
			<name>24</name>
			<description>Procedi verso nord-est lungo il percorso;Proceed northeast along the path</description>
			<LookAt>
				<longitude>13.1027885453212</longitude>
				<latitude>43.39070166185795</latitude>
				<altitude>0</altitude>
				<heading>-7.593196749152487</heading>
				<tilt>14.04409285083501</tilt>
				<range>246.1021336199679</range>
				<gx:altitudeMode>relativeToSeaFloor</gx:altitudeMode>
			</LookAt>
			<styleUrl>#m_ylw-pushpin</styleUrl>
			<Point>
				<gx:drawOrder>1</gx:drawOrder>
				<coordinates>13.10263888888889,43.39164444444445,0</coordinates>
			</Point>
		</Placemark>
		<Placemark>
			<name>25</name>
			<description>Gira a destra;Turn right</description>
			<LookAt>
				<longitude>13.11259078717459</longitude>
				<latitude>43.3946547397451</latitude>
				<altitude>0</altitude>
				<heading>-7.586409362605626</heading>
				<tilt>16.93929937064249</tilt>
				<range>589.3972832139883</range>
				<gx:altitudeMode>relativeToSeaFloor</gx:altitudeMode>
			</LookAt>
			<styleUrl>#m_ylw-pushpin</styleUrl>
			<Point>
				<gx:drawOrder>1</gx:drawOrder>
				<coordinates>13.11284722222222,43.39654444444444,0</coordinates>
			</Point>
		</Placemark>
		<Placemark>
			<name>26</name>
			<description>Gira leggermente a Sinistra;Turn slightly to the left</description>
			<LookAt>
				<longitude>13.11946672486259</longitude>
				<latitude>43.39539920198109</latitude>
				<altitude>0</altitude>
				<heading>-7.581689084506729</heading>
				<tilt>17.45561627574661</tilt>
				<range>275.7345772669407</range>
				<gx:altitudeMode>relativeToSeaFloor</gx:altitudeMode>
			</LookAt>
			<styleUrl>#m_ylw-pushpin</styleUrl>
			<Point>
				<gx:drawOrder>1</gx:drawOrder>
				<coordinates>13.11921666666667,43.39593611111111,0</coordinates>
			</Point>
		</Placemark>
		<Placemark>
			<name>27</name>
			<description>Svolta a sinistra e prendi SP2;Turn left and take SP2</description>
			<LookAt>
				<longitude>13.12290869141281</longitude>
				<latitude>43.39635712933743</latitude>
				<altitude>0</altitude>
				<heading>-7.579324333035665</heading>
				<tilt>17.45561627574659</tilt>
				<range>275.7345772664231</range>
				<gx:altitudeMode>relativeToSeaFloor</gx:altitudeMode>
			</LookAt>
			<styleUrl>#m_ylw-pushpin</styleUrl>
			<Point>
				<gx:drawOrder>1</gx:drawOrder>
				<coordinates>13.12358055555555,43.39710555555556,0</coordinates>
			</Point>
		</Placemark>
		<Placemark>
			<name>28</name>
			<description>Procedi in direzione nordest verso Via Mestica;Proceed northeast towards Via Mestica</description>
			<LookAt>
				<longitude>13.12732079973041</longitude>
				<latitude>43.39218293403344</latitude>
				<altitude>0</altitude>
				<heading>-7.57629319138452</heading>
				<tilt>19.04751271301809</tilt>
				<range>237.194756245189</range>
				<gx:altitudeMode>relativeToSeaFloor</gx:altitudeMode>
			</LookAt>
			<styleUrl>#m_ylw-pushpin</styleUrl>
			<Point>
				<gx:drawOrder>1</gx:drawOrder>
				<coordinates>13.12714166666667,43.39235,0</coordinates>
			</Point>
		</Placemark>
		<Placemark>
			<name>29</name>
			<description>Svolta a destra e prendi Via Mestica;Turn right and take Via Mestica</description>
			<LookAt>
				<longitude>13.12797662162568</longitude>
				<latitude>43.3924011203429</latitude>
				<altitude>0</altitude>
				<heading>-7.575842650321186</heading>
				<tilt>19.04751271301809</tilt>
				<range>237.1947562441314</range>
				<gx:altitudeMode>relativeToSeaFloor</gx:altitudeMode>
			</LookAt>
			<styleUrl>#m_ylw-pushpin</styleUrl>
			<Point>
				<gx:drawOrder>1</gx:drawOrder>
				<coordinates>13.12836944444444,43.39358611111111,0</coordinates>
			</Point>
		</Placemark>
		<Placemark>
			<name>30</name>
			<description>Svolta a destra verso Via Fonte Nuova;Turn right onto Via Fonte Nuova</description>
			<LookAt>
				<longitude>13.12975947899971</longitude>
				<latitude>43.39177772621699</latitude>
				<altitude>0</altitude>
				<heading>-7.574617846311996</heading>
				<tilt>19.04751271301805</tilt>
				<range>237.1947562423932</range>
				<gx:altitudeMode>relativeToSeaFloor</gx:altitudeMode>
			</LookAt>
			<styleUrl>#m_ylw-pushpin</styleUrl>
			<Point>
				<gx:drawOrder>1</gx:drawOrder>
				<coordinates>13.13067684080231,43.39188604642084,0</coordinates>
			</Point>
		</Placemark>
		<Placemark>
			<name>31</name>
			<description>Svolta a destra e prendi Via Fonte Nuova;Turn right and take Via Fonte Nuova</description>
			<LookAt>
				<longitude>13.1303035697565</longitude>
				<latitude>43.39129344183059</latitude>
				<altitude>0</altitude>
				<heading>-7.574270158473065</heading>
				<tilt>25.65758316902856</tilt>
				<range>152.2195743029306</range>
				<gx:altitudeMode>relativeToSeaFloor</gx:altitudeMode>
			</LookAt>
			<styleUrl>#m_ylw-pushpin</styleUrl>
			<Point>
				<gx:drawOrder>1</gx:drawOrder>
				<coordinates>13.1307847153107,43.39075398486939,0</coordinates>
			</Point>
		</Placemark>
		<Placemark>
			<name>32</name>
			<description>Procedi in direzione sudovest su Via Fonte Nuova verso Via Don Luigi Sturzo;Proceed southwest on Via Fonte Nuova toward Via Don Luigi Sturzo</description>
			<LookAt>
				<longitude>13.12983460925011</longitude>
				<latitude>43.39026226294268</latitude>
				<altitude>0</altitude>
				<heading>-7.574592322458116</heading>
				<tilt>25.65758316902851</tilt>
				<range>152.2195743042795</range>
				<gx:altitudeMode>relativeToSeaFloor</gx:altitudeMode>
			</LookAt>
			<styleUrl>#m_ylw-pushpin</styleUrl>
			<Point>
				<gx:drawOrder>1</gx:drawOrder>
				<coordinates>13.13017908937572,43.39015851581335,0</coordinates>
			</Point>
		</Placemark>
		<Placemark>
			<name>33</name>
			<description>Procedi in direzione sudest su SP2 verso Via Madonna della Figura;Proceed southeast on SP2 towards Via Madonna della Figura</description>
			<LookAt>
				<longitude>13.12982909355081</longitude>
				<latitude>43.38936246626288</latitude>
				<altitude>0</altitude>
				<heading>-7.574596112355006</heading>
				<tilt>25.65758316902859</tilt>
				<range>152.2195743001632</range>
				<gx:altitudeMode>relativeToSeaFloor</gx:altitudeMode>
			</LookAt>
			<styleUrl>#m_ylw-pushpin</styleUrl>
			<Point>
				<gx:drawOrder>1</gx:drawOrder>
				<coordinates>13.12960777408444,43.38921150162994,0</coordinates>
			</Point>
		</Placemark>
		<Placemark>
			<name>34</name>
			<description>Gira a sinistra;Turn left</description>
			<LookAt>
				<longitude>13.13301201452144</longitude>
				<latitude>43.38796735063944</latitude>
				<altitude>0</altitude>
				<heading>-7.572409620763308</heading>
				<tilt>25.65758316902858</tilt>
				<range>152.2195743007536</range>
				<gx:altitudeMode>relativeToSeaFloor</gx:altitudeMode>
			</LookAt>
			<styleUrl>#m_ylw-pushpin</styleUrl>
			<Point>
				<gx:drawOrder>1</gx:drawOrder>
				<coordinates>13.13320833333333,43.38823888888889,0</coordinates>
			</Point>
		</Placemark>
		<Placemark>
			<name>35</name>
			<description>Gira a destra;Turn right</description>
			<LookAt>
				<longitude>13.13301201452144</longitude>
				<latitude>43.38796735063944</latitude>
				<altitude>0</altitude>
				<heading>-7.572409620763308</heading>
				<tilt>25.65758316902858</tilt>
				<range>152.2195743007536</range>
				<gx:altitudeMode>relativeToSeaFloor</gx:altitudeMode>
			</LookAt>
			<styleUrl>#m_ylw-pushpin</styleUrl>
			<Point>
				<gx:drawOrder>1</gx:drawOrder>
				<coordinates>13.13315277777778,43.388325,0</coordinates>
			</Point>
		</Placemark>
		<Placemark>
			<name>36</name>
			<description>Procedi a sinistra verso Via Martiri della Libertà;Proceed left towards Via Martiri della Libertà</description>
			<LookAt>
				<longitude>13.13253405427132</longitude>
				<latitude>43.38952147038217</latitude>
				<altitude>0</altitude>
				<heading>-7.572731622159926</heading>
				<tilt>24.55086719554298</tilt>
				<range>138.5615856986983</range>
				<gx:altitudeMode>relativeToSeaFloor</gx:altitudeMode>
			</LookAt>
			<styleUrl>#m_ylw-pushpin</styleUrl>
			<Point>
				<gx:drawOrder>1</gx:drawOrder>
				<coordinates>13.13231012783329,43.39154402310734,0</coordinates>
			</Point>
		</Placemark>
		<Placemark>
			<name>37</name>
			<description>Svolta a sinistra e prendi Via Martiri della Liberta;Turn left and take Via Martiri della Liberta</description>
			<LookAt>
				<longitude>13.13207588919617</longitude>
				<latitude>43.39156483731182</latitude>
				<altitude>0</altitude>
				<heading>-7.573046375696105</heading>
				<tilt>24.55086719554285</tilt>
				<range>138.5615856982037</range>
				<gx:altitudeMode>relativeToSeaFloor</gx:altitudeMode>
			</LookAt>
			<styleUrl>#m_ylw-pushpin</styleUrl>
			<Point>
				<gx:drawOrder>1</gx:drawOrder>
				<coordinates>13.13240392964601,43.39200762092619,0</coordinates>
			</Point>
		</Placemark>
		<Placemark>
			<name>38</name>
			<description>Continua su Piazza G. Baldini;Continue on Piazza G. Baldini</description>
			<LookAt>
				<longitude>13.13207588919617</longitude>
				<latitude>43.39156483731182</latitude>
				<altitude>0</altitude>
				<heading>-7.573046375696144</heading>
				<tilt>24.55086719554291</tilt>
				<range>138.5615856972836</range>
				<gx:altitudeMode>relativeToSeaFloor</gx:altitudeMode>
			</LookAt>
			<styleUrl>#m_ylw-pushpin</styleUrl>
			<Point>
				<gx:drawOrder>1</gx:drawOrder>
				<coordinates>13.13157777777778,43.39238333333333,0</coordinates>
			</Point>
		</Placemark>
		<atom:link rel="app" href="https://www.google.com/earth/about/versions/#earth-pro" title="Google Earth Pro 7.3.6.10441"></atom:link>
	</Folder>
</Document>
</kml>
